{"type":"FeatureCollection","properties":{"chart":"ana","src":"Z__C_EDZW_20261006005147_tka01,ana_bwkman_dwdna_O_000000_000000_202610060000_WV12.png","valid_time":"2026-10-06T00:00:00+00:00"},"features":[{"type":"Feature","properties":{"kind":"cold","line":0,"px_len":1050},"geometry":{"type":"LineString","coordinates":[[-29.999,45.213],[-29.825,45.308],[-29.654,45.396],[-29.477,45.483],[-29.298,45.57],[-29.117,45.655],[-28.935,45.739],[-28.752,45.823],[-28.568,45.906],[-28.382,45.988],[-28.195,46.07],[-28.004,46.147],[-27.805,46.218],[-27.598,46.282],[-27.381,46.336],[-27.158,46.386],[-26.954,46.452],[-26.774,46.542],[-26.61,46.647],[-26.442,46.749],[-26.265,46.843],[-26.081,46.931],[-25.892,47.014],[-25.698,47.093],[-25.503,47.171],[-25.307,47.249],[-25.111,47.327],[-24.915,47.405],[-24.721,47.486],[-24.525,47.565],[-24.33,47.646],[-24.134,47.726],[-23.938,47.806],[-23.741,47.886],[-23.548,47.97],[-23.354,48.054],[-23.162,48.14],[-22.971,48.228],[-22.78,48.317],[-22.589,48.405],[-22.399,48.497],[-22.21,48.589],[-22.02,48.681],[-21.83,48.773],[-21.639,48.865],[-21.448,48.959],[-21.258,49.053],[-21.067,49.147],[-20.874,49.24],[-20.677,49.328],[-20.474,49.411],[-20.265,49.488],[-20.052,49.561],[-19.838,49.632],[-19.645,49.728],[-19.474,49.852],[-19.312,49.987],[-19.141,50.113],[-18.962,50.23],[-18.777,50.34],[-18.585,50.445],[-18.39,50.545],[-18.193,50.645],[-17.996,50.745],[-17.798,50.846],[-17.6,50.947],[-17.4,51.048],[-17.199,51.147],[-16.996,51.245],[-16.792,51.344],[-16.588,51.442],[-16.382,51.539],[-16.175,51.636],[-15.966,51.732],[-15.755,51.827],[-15.544,51.921],[-15.332,52.016],[-15.119,52.111],[-14.906,52.206],[-14.692,52.303],[-14.478,52.399],[-14.263,52.496],[-14.047,52.591],[-13.827,52.683],[-13.601,52.768],[-13.369,52.846],[-13.134,52.919],[-12.893,52.985],[-12.649,53.048],[-12.424,53.139],[-12.22,53.263],[-12.023,53.4],[-11.816,53.524],[-11.601,53.637],[-11.379,53.74],[-11.15,53.836],[-10.918,53.927],[-10.683,54.016],[-10.447,54.104],[-10.209,54.19],[-9.969,54.275],[-9.727,54.358],[-9.483,54.439],[-9.237,54.517],[-8.998,54.592],[-8.765,54.663]]}},{"type":"Feature","properties":{"kind":"warm","line":0,"px_len":298},"geometry":{"type":"LineString","coordinates":[[-8.765,54.663],[-8.506,54.735],[-8.258,54.804],[-8.002,54.873],[-7.745,54.939],[-7.485,55.002],[-7.223,55.063],[-6.959,55.121],[-6.693,55.176],[-6.426,55.23],[-6.157,55.282],[-5.892,55.341],[-5.626,55.401],[-5.364,55.47],[-5.103,55.545],[-4.846,55.628],[-4.589,55.716],[-4.327,55.794],[-4.049,55.837],[-3.756,55.845],[-3.459,55.842],[-3.164,55.846],[-2.874,55.859],[-2.588,55.883],[-2.302,55.908],[-2.017,55.935],[-1.732,55.964],[-1.448,55.995],[-1.163,56.025],[-0.9,56.052],[-0.678,56.075]]}},{"type":"Feature","properties":{"kind":"cold","line":0,"px_len":1088},"geometry":{"type":"LineString","coordinates":[[-0.678,56.075],[-0.385,56.103],[-0.105,56.13],[0.183,56.157],[0.47,56.182],[0.758,56.207],[1.047,56.231],[1.337,56.252],[1.628,56.264],[1.923,56.267],[2.219,56.259],[2.518,56.24],[2.814,56.232],[3.104,56.25],[3.389,56.294],[3.676,56.334],[3.964,56.369],[4.255,56.392],[4.548,56.404],[4.841,56.411],[5.135,56.414],[5.429,56.42],[5.723,56.423],[6.017,56.428],[6.311,56.431],[6.604,56.436],[6.898,56.444],[7.192,56.451],[7.485,56.46],[7.779,56.471],[8.072,56.487],[8.366,56.501],[8.66,56.518],[8.955,56.536],[9.249,56.553],[9.544,56.567],[9.839,56.577],[10.135,56.582],[10.43,56.578],[10.724,56.564],[11.02,56.569],[11.317,56.609],[11.618,56.681],[11.92,56.749],[12.222,56.804],[12.524,56.85],[12.826,56.887],[13.128,56.919],[13.431,56.95],[13.735,56.982],[14.04,57.013],[14.345,57.043],[14.65,57.073],[14.957,57.103],[15.264,57.132],[15.572,57.161],[15.881,57.194],[16.192,57.229],[16.504,57.268],[16.818,57.309],[17.134,57.354],[17.451,57.398],[17.766,57.43],[18.079,57.452],[18.39,57.464],[18.699,57.479],[18.985,57.534],[19.247,57.642],[19.507,57.783],[19.797,57.922],[20.112,58.057],[20.439,58.191],[20.758,58.325],[21.06,58.461],[21.343,58.598],[21.614,58.736],[21.872,58.875],[22.12,59.015],[22.362,59.155],[22.596,59.297],[22.823,59.439],[23.043,59.582],[23.263,59.724],[23.479,59.868],[23.693,60.011],[23.907,60.155],[24.115,60.299],[24.319,60.443],[24.53,60.587],[24.757,60.729],[25.008,60.867],[25.282,61.002],[25.529,61.141],[25.703,61.29],[25.799,61.45],[25.89,61.61],[25.994,61.77],[26.115,61.927],[26.24,62.083],[26.372,62.239],[26.51,62.394],[26.654,62.548],[26.808,62.702],[26.979,62.853],[27.164,63.001],[27.37,63.148],[27.598,63.29],[27.848,63.43],[28.118,63.531],[28.376,63.581]]}},{"type":"Feature","properties":{"kind":"warm","line":0,"px_len":515},"geometry":{"type":"LineString","coordinates":[[28.376,63.581],[28.728,63.508],[29.06,63.435],[29.39,63.351],[29.714,63.26],[30.033,63.166],[30.344,63.064],[30.642,62.949],[30.916,62.808],[31.171,62.648],[31.415,62.48],[31.662,62.318],[31.92,62.17],[32.181,62.03],[32.428,61.875],[32.62,61.692],[32.73,61.496],[32.752,61.31],[32.722,61.135],[32.686,60.962],[32.673,60.784],[32.694,60.599],[32.733,60.41],[32.778,60.22],[32.812,60.033],[32.834,59.848],[32.844,59.666],[32.847,59.485],[32.84,59.307],[32.821,59.132],[32.79,58.959],[32.753,58.789],[32.72,58.617],[32.699,58.443],[32.696,58.265],[32.708,58.084],[32.734,57.9],[32.749,57.718],[32.702,57.551],[32.592,57.399],[32.446,57.255],[32.31,57.109],[32.189,56.96],[32.086,56.807],[31.995,56.652],[31.916,56.494],[31.848,56.334],[31.793,56.171],[31.74,56.007],[31.691,55.844],[31.641,55.68],[31.58,55.549],[31.519,55.464]]}},{"type":"Feature","properties":{"kind":"occl","line":1,"px_len":378},"geometry":{"type":"LineString","coordinates":[[28.139,63.741],[28.082,63.931],[28.025,64.113],[27.977,64.298],[27.95,64.479],[27.945,64.658],[27.957,64.834],[27.987,65.008],[28.028,65.18],[28.066,65.353],[28.096,65.528],[28.118,65.703],[28.133,65.88],[28.139,66.058],[28.137,66.238],[28.131,66.418],[28.127,66.598],[28.135,66.776],[28.171,66.951],[28.224,67.124],[28.293,67.294],[28.35,67.467],[28.296,67.654],[28.126,67.856],[27.921,68.062],[27.768,68.261],[27.616,68.46],[27.404,68.656],[27.09,68.821],[26.697,68.941],[26.272,69.029],[25.842,69.113],[25.41,69.2],[24.98,69.291],[24.549,69.385],[24.114,69.478],[23.672,69.565],[23.277,69.649],[22.977,69.733]]}},{"type":"Feature","properties":{"kind":"warm","line":2,"px_len":561},"geometry":{"type":"LineString","coordinates":[[-51.889,43.227],[-52.052,43.329],[-52.191,43.449],[-52.33,43.578],[-52.468,43.708],[-52.607,43.838],[-52.747,43.97],[-52.886,44.101],[-53.025,44.235],[-53.16,44.376],[-53.286,44.53],[-53.4,44.693],[-53.503,44.869],[-53.609,45.043],[-53.738,45.198],[-53.9,45.309],[-54.082,45.392],[-54.27,45.468],[-54.452,45.552],[-54.634,45.637],[-54.815,45.726],[-54.991,45.822],[-55.165,45.921],[-55.339,46.022],[-55.516,46.119],[-55.696,46.212],[-55.879,46.303],[-56.064,46.39],[-56.251,46.476],[-56.44,46.56],[-56.632,46.64],[-56.825,46.718],[-57.021,46.794],[-57.217,46.869],[-57.417,46.94],[-57.618,47.01],[-57.822,47.075],[-58.026,47.141],[-58.229,47.209],[-58.428,47.285],[-58.624,47.366],[-58.817,47.454],[-59.01,47.543],[-59.205,47.629],[-59.418,47.686],[-59.65,47.709],[-59.894,47.711],[-60.136,47.715],[-60.376,47.723],[-60.616,47.731],[-60.856,47.738],[-61.099,47.738],[-61.345,47.732],[-61.597,47.714],[-61.857,47.678],[-62.113,47.623],[-62.361,47.537]]}},{"type":"Feature","properties":{"kind":"cold","line":2,"px_len":328},"geometry":{"type":"LineString","coordinates":[[-62.361,47.537],[-62.37,47.373],[-62.374,47.216],[-62.378,47.055],[-62.384,46.895],[-62.383,46.734],[-62.366,46.569],[-62.327,46.399],[-62.28,46.227],[-62.232,46.056],[-62.19,45.886],[-62.16,45.718],[-62.14,45.554],[-62.127,45.39],[-62.112,45.227],[-62.095,45.063],[-62.067,44.897],[-62.031,44.73],[-61.993,44.561],[-62.003,44.405],[-62.063,44.26],[-62.146,44.122],[-62.215,43.98],[-62.278,43.837],[-62.335,43.693],[-62.391,43.548],[-62.441,43.403],[-62.497,43.259],[-62.556,43.116],[-62.626,42.976],[-62.699,42.836],[-62.775,42.698],[-62.846,42.571],[-62.906,42.464]]}},{"type":"Feature","properties":{"kind":"occl","line":3,"px_len":546},"geometry":{"type":"LineString","coordinates":[[51.073,63.981],[51.119,64.174],[51.211,64.356],[51.323,64.539],[51.44,64.721],[51.554,64.904],[51.669,65.088],[51.79,65.27],[51.919,65.45],[52.054,65.629],[52.188,65.808],[52.332,65.985],[52.478,66.161],[52.63,66.337],[52.788,66.51],[52.95,66.684],[53.117,66.855],[53.291,67.026],[53.47,67.195],[53.662,67.36],[53.876,67.518],[54.119,67.667],[54.383,67.808],[54.665,67.943],[54.966,68.072],[55.26,68.204],[55.526,68.348],[55.765,68.504],[56.018,68.655],[56.295,68.798],[56.578,68.94],[56.836,69.092],[57.049,69.263],[57.227,69.449],[57.401,69.638],[57.598,69.819],[57.83,69.988],[58.09,70.147],[58.381,70.295],[58.69,70.438],[59.011,70.578],[59.339,70.716],[59.677,70.852],[60.018,70.987],[60.366,71.121],[60.718,71.256],[61.076,71.389],[61.439,71.521],[61.809,71.652],[62.182,71.784],[62.561,71.914],[62.946,72.043],[63.338,72.171],[63.742,72.296],[64.113,72.397],[64.4,72.464]]}}]}