{"type":"FeatureCollection","properties":{"chart":"ana","src":"Z__C_EDZW_20261002074952_tka01,ana_bwkman_dwdna_O_000000_000000_202610020600_WV12.png","valid_time":"2026-10-02T06:00:00+00:00"},"features":[{"type":"Feature","properties":{"kind":"warm","line":0,"px_len":591},"geometry":{"type":"LineString","coordinates":[[31.136,34.805],[31.311,34.888],[31.463,34.982],[31.603,35.086],[31.725,35.196],[31.837,35.31],[31.957,35.421],[32.11,35.52],[32.3,35.597],[32.502,35.644],[32.705,35.673],[32.91,35.704],[33.125,35.756],[33.34,35.824],[33.553,35.901],[33.761,35.979],[33.97,36.057],[34.181,36.134],[34.389,36.211],[34.597,36.288],[34.796,36.369],[34.977,36.456],[35.138,36.55],[35.279,36.653],[35.409,36.76],[35.551,36.862],[35.727,36.951],[35.937,37.017],[36.159,37.065],[36.369,37.107],[36.572,37.162],[36.766,37.233],[36.949,37.317],[37.118,37.407],[37.276,37.502],[37.427,37.6],[37.572,37.701],[37.714,37.803],[37.853,37.906],[37.989,38.01],[38.124,38.116],[38.257,38.222],[38.385,38.33],[38.507,38.442],[38.622,38.556],[38.728,38.675],[38.828,38.796],[38.92,38.921],[39.004,39.05],[39.079,39.183],[39.168,39.31],[39.29,39.423],[39.442,39.523],[39.593,39.623],[39.729,39.73],[39.856,39.842],[39.968,39.96],[40.073,40.081],[40.165,40.205],[40.269,40.332]]}},{"type":"Feature","properties":{"kind":"warm","line":1,"px_len":188},"geometry":{"type":"LineString","coordinates":[[40.114,42.439],[40.337,42.42],[40.571,42.425],[40.829,42.453],[41.093,42.49],[41.349,42.546],[41.595,42.607],[41.845,42.662],[42.099,42.687],[42.332,42.679],[42.545,42.647],[42.756,42.613],[42.975,42.587],[43.201,42.57],[43.43,42.554],[43.656,42.535],[43.867,42.535],[44.057,42.577],[44.218,42.654],[44.351,42.727]]}},{"type":"Feature","properties":{"kind":"warm","line":2,"px_len":861},"geometry":{"type":"LineString","coordinates":[[-4.723,40.194],[-4.567,40.335],[-4.424,40.49],[-4.278,40.651],[-4.13,40.808],[-3.979,40.961],[-3.829,41.112],[-3.686,41.269],[-3.559,41.433],[-3.452,41.602],[-3.354,41.769],[-3.237,41.93],[-3.088,42.071],[-2.915,42.175],[-2.733,42.251],[-2.547,42.318],[-2.363,42.389],[-2.18,42.469],[-2.0,42.563],[-1.822,42.665],[-1.644,42.772],[-1.465,42.876],[-1.284,42.975],[-1.101,43.07],[-0.917,43.163],[-0.731,43.253],[-0.543,43.34],[-0.354,43.422],[-0.164,43.501],[0.028,43.577],[0.221,43.649],[0.415,43.718],[0.612,43.783],[0.809,43.843],[1.008,43.9],[1.207,43.954],[1.407,44.008],[1.608,44.062],[1.808,44.118],[2.008,44.182],[2.206,44.255],[2.403,44.341],[2.598,44.441],[2.793,44.549],[2.991,44.647],[3.194,44.71],[3.404,44.739],[3.615,44.755],[3.826,44.776],[4.036,44.803],[4.245,44.837],[4.454,44.879],[4.662,44.93],[4.87,44.988],[5.078,45.051],[5.286,45.115],[5.495,45.18],[5.704,45.246],[5.914,45.312],[6.124,45.381],[6.335,45.451],[6.546,45.522],[6.758,45.595],[6.971,45.67],[7.184,45.748],[7.398,45.827],[7.613,45.909],[7.829,45.996],[8.045,46.086],[8.262,46.182],[8.479,46.291],[8.684,46.414],[8.872,46.552],[9.048,46.699],[9.239,46.844],[9.452,46.964],[9.677,47.048],[9.903,47.103],[10.129,47.153],[10.357,47.218],[10.586,47.302],[10.816,47.413],[11.049,47.547],[11.281,47.695],[11.5,47.844],[11.696,47.99],[11.886,48.143]]}},{"type":"Feature","properties":{"kind":"cold","line":2,"px_len":706},"geometry":{"type":"LineString","coordinates":[[11.886,48.143],[12.06,48.296],[12.215,48.443],[12.363,48.593],[12.499,48.744],[12.628,48.895],[12.747,49.046],[12.862,49.197],[12.976,49.349],[13.101,49.5],[13.242,49.65],[13.4,49.8],[13.533,49.951],[13.607,50.104],[13.627,50.26],[13.643,50.417],[13.666,50.573],[13.694,50.729],[13.735,50.885],[13.778,51.041],[13.825,51.197],[13.866,51.353],[13.906,51.509],[13.938,51.666],[13.965,51.824],[13.985,51.982],[14.006,52.14],[14.017,52.298],[14.028,52.457],[14.033,52.616],[14.038,52.776],[14.041,52.935],[14.04,53.095],[14.041,53.255],[14.044,53.415],[14.051,53.575],[14.071,53.735],[14.105,53.894],[14.154,54.052],[14.189,54.212],[14.166,54.374],[14.085,54.539],[13.99,54.705],[13.909,54.87],[13.841,55.035],[13.785,55.199],[13.736,55.363],[13.687,55.527],[13.634,55.691],[13.574,55.856],[13.512,56.021],[13.441,56.186],[13.366,56.352],[13.284,56.518],[13.2,56.684],[13.107,56.85],[13.007,57.017],[12.898,57.184],[12.796,57.35],[12.715,57.517],[12.655,57.682],[12.611,57.847],[12.555,58.011],[12.414,58.167],[12.176,58.326],[11.901,58.489],[11.662,58.659],[11.469,58.827],[11.31,58.994],[11.178,59.161],[11.103,59.305],[11.077,59.41]]}},{"type":"Feature","properties":{"kind":"warm","line":3,"px_len":436},"geometry":{"type":"LineString","coordinates":[[-34.441,45.46],[-34.281,45.568],[-34.127,45.67],[-33.976,45.779],[-33.83,45.894],[-33.689,46.012],[-33.554,46.135],[-33.423,46.262],[-33.286,46.384],[-33.113,46.48],[-32.904,46.549],[-32.676,46.604],[-32.45,46.66],[-32.231,46.722],[-32.019,46.789],[-31.815,46.862],[-31.614,46.938],[-31.411,47.013],[-31.206,47.086],[-30.999,47.157],[-30.788,47.226],[-30.574,47.292],[-30.358,47.357],[-30.14,47.42],[-29.92,47.481],[-29.7,47.543],[-29.486,47.609],[-29.278,47.681],[-29.079,47.76],[-28.883,47.843],[-28.691,47.929],[-28.502,48.017],[-28.298,48.093],[-28.057,48.138],[-27.778,48.149],[-27.49,48.151],[-27.211,48.16],[-26.948,48.183],[-26.697,48.217],[-26.455,48.258],[-26.215,48.301],[-25.979,48.347],[-25.741,48.393],[-25.539,48.435],[-25.392,48.467]]}},{"type":"Feature","properties":{"kind":"cold","line":3,"px_len":549},"geometry":{"type":"LineString","coordinates":[[-25.392,48.467],[-25.146,48.51],[-24.915,48.555],[-24.68,48.601],[-24.445,48.649],[-24.21,48.696],[-23.976,48.744],[-23.738,48.787],[-23.494,48.825],[-23.241,48.854],[-22.98,48.874],[-22.721,48.895],[-22.49,48.945],[-22.287,49.025],[-22.093,49.116],[-21.89,49.197],[-21.683,49.274],[-21.47,49.346],[-21.256,49.416],[-21.039,49.485],[-20.822,49.553],[-20.605,49.621],[-20.388,49.69],[-20.173,49.762],[-19.956,49.831],[-19.74,49.903],[-19.523,49.974],[-19.31,50.049],[-19.096,50.124],[-18.881,50.199],[-18.668,50.277],[-18.456,50.356],[-18.245,50.437],[-18.033,50.518],[-17.824,50.603],[-17.614,50.688],[-17.404,50.773],[-17.192,50.857],[-16.977,50.938],[-16.758,51.014],[-16.533,51.083],[-16.302,51.146],[-16.089,51.232],[-15.902,51.354],[-15.737,51.505],[-15.567,51.653],[-15.389,51.791],[-15.205,51.921],[-15.018,52.052],[-14.834,52.186],[-14.654,52.328],[-14.478,52.477],[-14.303,52.63],[-14.128,52.784],[-13.954,52.92],[-13.785,53.028]]}},{"type":"Feature","properties":{"kind":"warm","line":3,"px_len":323},"geometry":{"type":"LineString","coordinates":[[-13.785,53.028],[-13.563,53.131],[-13.335,53.208],[-13.091,53.273],[-12.846,53.336],[-12.602,53.402],[-12.36,53.472],[-12.119,53.544],[-11.88,53.62],[-11.641,53.698],[-11.402,53.777],[-11.166,53.86],[-10.93,53.946],[-10.696,54.036],[-10.467,54.136],[-10.245,54.25],[-10.031,54.378],[-9.826,54.523],[-9.627,54.682],[-9.424,54.836],[-9.2,54.958],[-8.957,55.048],[-8.703,55.123],[-8.451,55.202],[-8.204,55.291],[-7.961,55.391],[-7.727,55.507],[-7.501,55.643],[-7.282,55.793],[-7.064,55.951],[-6.848,56.115],[-6.634,56.284],[-6.471,56.417],[-6.376,56.496]]}},{"type":"Feature","properties":{"kind":"cold","line":3,"px_len":254},"geometry":{"type":"LineString","coordinates":[[-6.376,56.496],[-6.162,56.691],[-5.957,56.882],[-5.75,57.081],[-5.554,57.279],[-5.369,57.474],[-5.201,57.667],[-5.029,57.86],[-4.849,58.045],[-4.643,58.224],[-4.419,58.389],[-4.225,58.556],[-4.126,58.723],[-4.119,58.892],[-4.128,59.06],[-4.129,59.23],[-4.103,59.402],[-4.062,59.577],[-4.018,59.752],[-3.985,59.926],[-3.96,60.099],[-3.948,60.27],[-3.943,60.441],[-3.939,60.612],[-3.941,60.782],[-3.948,60.917],[-3.959,61.002]]}},{"type":"Feature","properties":{"kind":"occl","line":3,"px_len":543},"geometry":{"type":"LineString","coordinates":[[-3.959,61.002],[-3.97,61.176],[-3.987,61.341],[-4.014,61.509],[-4.044,61.677],[-4.074,61.845],[-4.107,62.012],[-4.128,62.182],[-4.14,62.352],[-4.128,62.525],[-4.103,62.7],[-4.085,62.875],[-4.108,63.044],[-4.175,63.21],[-4.263,63.373],[-4.352,63.536],[-4.438,63.699],[-4.529,63.863],[-4.665,64.021],[-4.872,64.172],[-5.123,64.317],[-5.374,64.463],[-5.614,64.61],[-5.837,64.759],[-6.047,64.91],[-6.255,65.061],[-6.464,65.211],[-6.684,65.361],[-6.916,65.509],[-7.163,65.655],[-7.419,65.8],[-7.69,65.944],[-7.96,66.087],[-8.213,66.233],[-8.441,66.382],[-8.666,66.531],[-8.931,66.674],[-9.305,66.792],[-9.794,66.892],[-10.331,66.989],[-10.849,67.096],[-11.352,67.204],[-11.862,67.289],[-12.371,67.335],[-12.855,67.342],[-13.324,67.333],[-13.803,67.331],[-14.298,67.343],[-14.811,67.367],[-15.333,67.397],[-15.861,67.429],[-16.387,67.456],[-16.915,67.481],[-17.443,67.508],[-17.842,67.536],[-18.071,67.56]]}},{"type":"Feature","properties":{"kind":"cold","line":4,"px_len":1131},"geometry":{"type":"LineString","coordinates":[[9.745,62.143],[9.648,62.299],[9.6,62.46],[9.579,62.628],[9.571,62.795],[9.582,62.963],[9.612,63.13],[9.619,63.298],[9.555,63.466],[9.419,63.634],[9.288,63.802],[9.178,63.97],[9.097,64.138],[9.035,64.306],[8.986,64.474],[8.944,64.643],[8.903,64.811],[8.865,64.98],[8.828,65.149],[8.794,65.318],[8.758,65.487],[8.725,65.656],[8.694,65.825],[8.661,65.995],[8.633,66.164],[8.598,66.334],[8.576,66.503],[8.549,66.673],[8.526,66.843],[8.504,67.013],[8.481,67.183],[8.457,67.353],[8.449,67.524],[8.462,67.694],[8.496,67.865],[8.549,68.036],[8.634,68.208],[8.671,68.379],[8.628,68.55],[8.508,68.72],[8.403,68.891],[8.327,69.062],[8.276,69.233],[8.263,69.404],[8.269,69.576],[8.275,69.748],[8.275,69.919],[8.283,70.091],[8.295,70.263],[8.308,70.436],[8.317,70.608],[8.332,70.78],[8.341,70.953],[8.349,71.125],[8.338,71.298],[8.328,71.47],[8.317,71.643],[8.307,71.815],[8.295,71.988],[8.284,72.161],[8.258,72.334],[8.225,72.507],[8.199,72.68],[8.204,72.853],[8.242,73.027],[8.298,73.201],[8.383,73.375],[8.38,73.548],[8.259,73.721],[8.033,73.894],[7.818,74.066],[7.629,74.238],[7.467,74.411],[7.324,74.583],[7.194,74.756],[7.063,74.929],[6.925,75.102],[6.786,75.275],[6.633,75.448],[6.474,75.62],[6.308,75.793],[6.133,75.965],[5.948,76.138],[5.748,76.31],[5.534,76.481],[5.303,76.653],[5.052,76.824],[4.78,76.994],[4.478,77.164],[4.152,77.334],[3.824,77.503],[3.523,77.672],[3.259,77.842],[3.013,78.013],[2.775,78.184],[2.544,78.355],[2.353,78.527],[2.174,78.699],[2.025,78.873],[1.889,79.046],[1.621,79.202],[1.029,79.307],[0.123,79.361],[-0.871,79.39],[-1.866,79.411],[-2.858,79.425],[-3.846,79.429],[-4.825,79.424],[-5.789,79.407],[-6.737,79.378],[-7.664,79.337],[-8.571,79.286],[-9.445,79.232],[-10.35,79.173]]}},{"type":"Feature","properties":{"kind":"occl","line":4,"px_len":812},"geometry":{"type":"LineString","coordinates":[[-10.35,79.173],[-11.198,79.087],[-11.992,79.001],[-12.774,78.903],[-13.484,78.79],[-13.922,78.645],[-14.093,78.468],[-14.112,78.275],[-14.176,78.078],[-14.358,77.88],[-14.669,77.673],[-15.01,77.461],[-15.262,77.245],[-15.406,77.037],[-15.589,76.842],[-15.879,76.655],[-16.26,76.46],[-16.585,76.247],[-16.82,76.027],[-16.954,75.816],[-17.024,75.613],[-17.062,75.413],[-17.086,75.215],[-17.106,75.018],[-17.126,74.821],[-17.139,74.624],[-17.165,74.426],[-17.207,74.226],[-17.294,74.02],[-17.449,73.807],[-17.676,73.593],[-17.935,73.387],[-18.098,73.189],[-18.144,72.998],[-18.149,72.802],[-18.21,72.597],[-18.335,72.382],[-18.464,72.165],[-18.532,71.959],[-18.498,71.769],[-18.43,71.584],[-18.399,71.394],[-18.44,71.192],[-18.561,70.982],[-18.753,70.768],[-19.002,70.562],[-19.268,70.365],[-19.55,70.181],[-19.841,70.006],[-20.145,69.841],[-20.456,69.683],[-20.769,69.529],[-21.071,69.37],[-21.362,69.208],[-21.65,69.045],[-21.978,68.909],[-22.353,68.802],[-22.764,68.717],[-23.179,68.636],[-23.598,68.557],[-24.003,68.472],[-24.374,68.368],[-24.715,68.249],[-25.062,68.135],[-25.414,68.025],[-25.76,67.912],[-26.076,67.785],[-26.361,67.643],[-26.637,67.498],[-26.923,67.359],[-27.228,67.232],[-27.544,67.112],[-27.875,67.0],[-28.216,66.895],[-28.573,66.798],[-28.937,66.706],[-29.304,66.616],[-29.672,66.526],[-30.036,66.436],[-30.388,66.34],[-30.719,66.237],[-30.952,66.158],[-31.078,66.117]]}},{"type":"Feature","properties":{"kind":"warm","line":5,"px_len":655},"geometry":{"type":"LineString","coordinates":[[28.466,69.587],[28.498,69.753],[28.583,69.918],[28.689,70.087],[28.793,70.257],[28.884,70.429],[28.966,70.602],[29.053,70.774],[29.157,70.945],[29.275,71.115],[29.413,71.282],[29.564,71.448],[29.747,71.611],[29.906,71.777],[29.961,71.955],[29.839,72.15],[29.597,72.355],[29.324,72.563],[29.093,72.769],[28.921,72.971],[28.782,73.169],[28.65,73.366],[28.506,73.564],[28.346,73.763],[28.169,73.964],[27.971,74.166],[27.745,74.369],[27.5,74.574],[27.243,74.779],[26.996,74.982],[26.793,75.181],[26.657,75.375],[26.587,75.563],[26.527,75.75],[26.379,75.943],[26.052,76.138],[25.564,76.314],[24.974,76.463],[24.354,76.597],[23.737,76.745],[23.129,76.913],[22.527,77.099],[21.916,77.293],[21.287,77.488],[20.636,77.677],[19.96,77.861],[19.258,78.037],[18.531,78.206],[17.78,78.368],[17.004,78.523],[16.207,78.678],[15.394,78.84],[14.595,79.015],[13.815,79.197],[13.06,79.381],[12.233,79.517],[11.336,79.585],[10.368,79.596],[9.394,79.598],[8.421,79.596],[7.448,79.591],[6.479,79.577],[5.516,79.548],[4.565,79.505],[3.626,79.451],[2.854,79.398],[2.337,79.358]]}},{"type":"Feature","properties":{"kind":"warm","line":6,"px_len":551},"geometry":{"type":"LineString","coordinates":[[65.055,56.254],[65.255,56.386],[65.445,56.514],[65.643,56.644],[65.843,56.772],[66.011,56.908],[66.098,57.066],[66.117,57.252],[66.136,57.454],[66.172,57.662],[66.217,57.873],[66.288,58.083],[66.416,58.267],[66.618,58.405],[66.868,58.505],[67.133,58.593],[67.398,58.683],[67.659,58.776],[67.914,58.875],[68.167,58.977],[68.417,59.083],[68.663,59.192],[68.915,59.298],[69.172,59.4],[69.433,59.501],[69.697,59.599],[69.967,59.693],[70.239,59.786],[70.514,59.877],[70.793,59.966],[71.077,60.051],[71.362,60.137],[71.65,60.219],[71.94,60.302],[72.235,60.379],[72.534,60.455],[72.835,60.529],[73.136,60.604],[73.434,60.682],[73.729,60.766],[74.019,60.854],[74.306,60.948],[74.587,61.049],[74.863,61.157],[75.137,61.268],[75.437,61.353],[75.77,61.403],[76.127,61.428],[76.481,61.456],[76.829,61.49],[77.171,61.532],[77.507,61.579],[77.84,61.632],[78.174,61.685],[78.501,61.735],[78.85,61.78]]}},{"type":"Feature","properties":{"kind":"warm","line":7,"px_len":645},"geometry":{"type":"LineString","coordinates":[[-29.347,53.939],[-29.51,54.073],[-29.632,54.216],[-29.741,54.372],[-29.841,54.532],[-29.928,54.699],[-30.003,54.872],[-30.064,55.051],[-30.125,55.232],[-30.224,55.395],[-30.386,55.528],[-30.591,55.642],[-30.799,55.755],[-30.997,55.873],[-31.189,55.995],[-31.373,56.12],[-31.555,56.247],[-31.731,56.377],[-31.908,56.507],[-32.085,56.638],[-32.268,56.766],[-32.45,56.895],[-32.641,57.021],[-32.836,57.145],[-33.039,57.266],[-33.242,57.386],[-33.436,57.512],[-33.62,57.644],[-33.792,57.782],[-33.959,57.923],[-34.118,58.069],[-34.299,58.204],[-34.533,58.313],[-34.827,58.392],[-35.137,58.463],[-35.441,58.536],[-35.733,58.616],[-36.017,58.701],[-36.292,58.79],[-36.563,58.881],[-36.835,58.973],[-37.112,59.062],[-37.395,59.148],[-37.683,59.231],[-37.975,59.312],[-38.271,59.392],[-38.573,59.467],[-38.878,59.542],[-39.178,59.619],[-39.468,59.703],[-39.75,59.791],[-40.028,59.882],[-40.298,59.978],[-40.573,60.072],[-40.893,60.139],[-41.285,60.162],[-41.731,60.151],[-42.185,60.133],[-42.618,60.127],[-43.021,60.137],[-43.405,60.16],[-43.78,60.187],[-44.162,60.209],[-44.557,60.221],[-44.894,60.225],[-45.124,60.227]]}},{"type":"Feature","properties":{"kind":"occl","line":7,"px_len":428},"geometry":{"type":"LineString","coordinates":[[-45.124,60.227],[-45.518,60.243],[-45.893,60.259],[-46.268,60.28],[-46.633,60.309],[-46.981,60.349],[-47.315,60.399],[-47.641,60.456],[-47.963,60.516],[-48.307,60.558],[-48.673,60.584],[-49.049,60.601],[-49.406,60.632],[-49.752,60.672],[-50.098,60.711],[-50.465,60.733],[-50.848,60.739],[-51.234,60.743],[-51.609,60.756],[-51.968,60.781],[-52.313,60.819],[-52.647,60.866],[-52.973,60.921],[-53.296,60.979],[-53.611,61.046],[-53.927,61.112],[-54.237,61.185],[-54.543,61.262],[-54.839,61.35],[-55.13,61.444],[-55.416,61.545],[-55.707,61.643],[-56.012,61.726],[-56.335,61.793],[-56.664,61.855],[-56.993,61.916],[-57.32,61.98],[-57.654,62.039],[-58.001,62.083],[-58.358,62.115],[-58.711,62.151],[-59.066,62.175],[-59.41,62.153],[-59.718,62.093]]}},{"type":"Feature","properties":{"kind":"warm","line":8,"px_len":288},"geometry":{"type":"LineString","coordinates":[[-45.639,56.484],[-46.037,56.434],[-46.432,56.391],[-46.834,56.351],[-47.226,56.316],[-47.611,56.287],[-47.99,56.26],[-48.362,56.237],[-48.725,56.22],[-49.073,56.215],[-49.403,56.226],[-49.711,56.256],[-50.007,56.297],[-50.307,56.335],[-50.632,56.348],[-50.991,56.322],[-51.357,56.263],[-51.725,56.191],[-52.096,56.125],[-52.469,56.077],[-52.826,56.048],[-53.173,56.027],[-53.518,56.006],[-53.864,55.983],[-54.212,55.955],[-54.564,55.922],[-54.918,55.884],[-55.276,55.838],[-55.609,55.791],[-55.889,55.75]]}},{"type":"Feature","properties":{"kind":"cold","line":8,"px_len":419},"geometry":{"type":"LineString","coordinates":[[-55.889,55.75],[-56.273,55.674],[-56.639,55.6],[-57.014,55.52],[-57.384,55.434],[-57.745,55.346],[-58.094,55.254],[-58.437,55.16],[-58.767,55.062],[-59.077,54.959],[-59.358,54.849],[-59.599,54.73],[-59.81,54.605],[-59.993,54.473],[-60.198,54.362],[-60.454,54.282],[-60.772,54.221],[-61.105,54.141],[-61.421,54.04],[-61.705,53.928],[-61.961,53.81],[-62.203,53.689],[-62.434,53.566],[-62.661,53.442],[-62.881,53.316],[-63.096,53.189],[-63.307,53.062],[-63.523,52.935],[-63.745,52.809],[-63.986,52.687],[-64.253,52.57],[-64.543,52.465],[-64.839,52.368],[-65.064,52.257],[-65.2,52.122],[-65.271,51.97],[-65.338,51.817],[-65.406,51.665],[-65.513,51.519],[-65.665,51.381],[-65.846,51.248],[-66.003,51.119],[-66.13,51.001]]}}]}