{"type":"FeatureCollection","properties":{"chart":"ana","src":"Z__C_EDZW_20261007190655_tka01,ana_bwkman_dwdna_O_000000_000000_202610071800_WV12.png","valid_time":"2026-10-07T18:00:00+00:00"},"features":[{"type":"Feature","properties":{"kind":"cold","line":0,"px_len":823},"geometry":{"type":"LineString","coordinates":[[-10.772,41.027],[-10.617,41.108],[-10.446,41.166],[-10.264,41.221],[-10.082,41.276],[-9.898,41.326],[-9.713,41.374],[-9.528,41.422],[-9.339,41.463],[-9.147,41.497],[-8.952,41.525],[-8.754,41.547],[-8.559,41.576],[-8.375,41.628],[-8.2,41.705],[-8.027,41.785],[-7.85,41.859],[-7.67,41.925],[-7.487,41.986],[-7.304,42.046],[-7.12,42.107],[-6.936,42.169],[-6.753,42.233],[-6.571,42.3],[-6.389,42.368],[-6.207,42.438],[-6.024,42.509],[-5.842,42.581],[-5.66,42.655],[-5.478,42.728],[-5.295,42.804],[-5.113,42.881],[-4.93,42.959],[-4.748,43.038],[-4.565,43.119],[-4.382,43.202],[-4.2,43.286],[-4.016,43.371],[-3.833,43.458],[-3.649,43.543],[-3.462,43.622],[-3.272,43.694],[-3.079,43.756],[-2.884,43.813],[-2.687,43.868],[-2.507,43.957],[-2.346,44.082],[-2.191,44.232],[-2.021,44.371],[-1.841,44.497],[-1.658,44.614],[-1.473,44.728],[-1.288,44.844],[-1.102,44.961],[-0.915,45.081],[-0.729,45.205],[-0.542,45.332],[-0.355,45.462],[-0.168,45.595],[0.02,45.733],[0.207,45.875],[0.396,46.02],[0.584,46.171],[0.772,46.328],[0.961,46.49],[1.151,46.651],[1.345,46.803],[1.544,46.935],[1.748,47.051],[1.955,47.15],[2.122,47.26],[2.225,47.394],[2.281,47.551],[2.348,47.712],[2.443,47.876],[2.562,48.041],[2.7,48.208],[2.845,48.375],[2.991,48.542],[3.133,48.708],[3.272,48.875],[3.404,49.04],[3.49,49.164],[3.527,49.236]]}},{"type":"Feature","properties":{"kind":"warm","line":1,"px_len":592},"geometry":{"type":"LineString","coordinates":[[23.711,54.025],[23.452,54.091],[23.214,54.182],[22.975,54.287],[22.735,54.393],[22.495,54.501],[22.255,54.612],[22.015,54.73],[21.778,54.858],[21.545,55.001],[21.319,55.166],[21.094,55.344],[20.863,55.509],[20.613,55.627],[20.348,55.704],[20.073,55.758],[19.799,55.815],[19.525,55.873],[19.252,55.94],[18.981,56.015],[18.712,56.1],[18.443,56.189],[18.172,56.277],[17.899,56.361],[17.624,56.442],[17.346,56.518],[17.066,56.589],[16.784,56.655],[16.499,56.715],[16.213,56.771],[15.924,56.821],[15.633,56.865],[15.341,56.901],[15.047,56.932],[14.752,56.962],[14.456,56.986],[14.158,57.004],[13.86,57.017],[13.561,57.029],[13.263,57.04],[12.963,57.048],[12.664,57.054],[12.364,57.06],[12.065,57.073],[11.766,57.088],[11.468,57.11],[11.169,57.138],[10.869,57.159],[10.568,57.142],[10.266,57.078],[9.964,56.985],[9.664,56.892],[9.367,56.806],[9.07,56.731],[8.775,56.661],[8.481,56.593],[8.189,56.521],[7.898,56.442],[7.619,56.352],[7.423,56.276],[7.324,56.226]]}},{"type":"Feature","properties":{"kind":"cold","line":2,"px_len":551},"geometry":{"type":"LineString","coordinates":[[37.914,49.133],[38.174,49.113],[38.445,49.119],[38.732,49.137],[39.019,49.152],[39.307,49.168],[39.596,49.184],[39.888,49.202],[40.183,49.223],[40.483,49.247],[40.79,49.276],[41.107,49.315],[41.433,49.363],[41.76,49.413],[42.082,49.465],[42.395,49.519],[42.705,49.575],[43.007,49.632],[43.311,49.689],[43.62,49.741],[43.937,49.78],[44.247,49.805],[44.546,49.807],[44.816,49.819],[45.05,49.868],[45.255,49.958],[45.463,50.055],[45.691,50.142],[45.942,50.218],[46.216,50.283],[46.504,50.341],[46.797,50.396],[47.093,50.449],[47.39,50.501],[47.691,50.551],[47.995,50.598],[48.304,50.642],[48.618,50.683],[48.935,50.722],[49.26,50.756],[49.591,50.785],[49.932,50.809],[50.279,50.828],[50.626,50.84],[50.966,50.845],[51.294,50.842],[51.613,50.83],[51.917,50.807],[52.202,50.771],[52.466,50.72],[52.711,50.655],[52.942,50.581],[53.174,50.534],[53.411,50.538],[53.653,50.591],[53.913,50.655]]}},{"type":"Feature","properties":{"kind":"warm","line":3,"px_len":321},"geometry":{"type":"LineString","coordinates":[[-49.387,37.747],[-49.331,37.891],[-49.273,38.027],[-49.219,38.169],[-49.175,38.316],[-49.143,38.469],[-49.119,38.626],[-49.104,38.788],[-49.074,38.942],[-49.005,39.079],[-48.899,39.198],[-48.783,39.313],[-48.675,39.431],[-48.572,39.552],[-48.472,39.676],[-48.38,39.803],[-48.295,39.933],[-48.211,40.065],[-48.125,40.196],[-48.035,40.325],[-47.943,40.454],[-47.848,40.581],[-47.752,40.708],[-47.653,40.834],[-47.553,40.96],[-47.449,41.084],[-47.343,41.207],[-47.241,41.333],[-47.14,41.459],[-47.035,41.584],[-46.926,41.706],[-46.818,41.827],[-46.705,41.952]]}},{"type":"Feature","properties":{"kind":"cold","line":3,"px_len":1207},"geometry":{"type":"LineString","coordinates":[[-46.705,41.952],[-46.592,42.078],[-46.483,42.198],[-46.365,42.318],[-46.246,42.437],[-46.127,42.557],[-46.012,42.679],[-45.897,42.802],[-45.782,42.924],[-45.662,43.045],[-45.538,43.164],[-45.414,43.283],[-45.295,43.405],[-45.176,43.527],[-45.056,43.649],[-44.936,43.77],[-44.815,43.892],[-44.693,44.014],[-44.569,44.135],[-44.437,44.252],[-44.296,44.365],[-44.145,44.473],[-43.985,44.576],[-43.836,44.685],[-43.716,44.81],[-43.624,44.95],[-43.529,45.089],[-43.425,45.223],[-43.311,45.352],[-43.187,45.477],[-43.056,45.598],[-42.924,45.718],[-42.79,45.839],[-42.657,45.96],[-42.529,46.083],[-42.399,46.207],[-42.266,46.328],[-42.128,46.448],[-41.993,46.569],[-41.86,46.692],[-41.726,46.815],[-41.589,46.936],[-41.454,47.059],[-41.318,47.182],[-41.181,47.305],[-41.044,47.427],[-40.908,47.551],[-40.769,47.673],[-40.632,47.797],[-40.493,47.92],[-40.357,48.045],[-40.216,48.169],[-40.077,48.293],[-39.939,48.418],[-39.8,48.543],[-39.661,48.669],[-39.523,48.795],[-39.383,48.921],[-39.243,49.047],[-39.102,49.174],[-38.961,49.3],[-38.818,49.425],[-38.674,49.551],[-38.529,49.677],[-38.382,49.802],[-38.232,49.925],[-38.074,50.044],[-37.908,50.159],[-37.731,50.267],[-37.543,50.37],[-37.349,50.469],[-37.185,50.587],[-37.056,50.726],[-36.946,50.876],[-36.823,51.02],[-36.691,51.159],[-36.546,51.291],[-36.393,51.418],[-36.237,51.544],[-36.081,51.67],[-35.925,51.797],[-35.768,51.924],[-35.612,52.052],[-35.457,52.18],[-35.301,52.31],[-35.147,52.44],[-34.993,52.572],[-34.839,52.703],[-34.686,52.836],[-34.534,52.971],[-34.382,53.106],[-34.232,53.242],[-34.083,53.381],[-33.936,53.521],[-33.791,53.662],[-33.647,53.806],[-33.505,53.951],[-33.365,54.098],[-33.227,54.247],[-33.09,54.397],[-32.956,54.55],[-32.825,54.705],[-32.694,54.862],[-32.565,55.02],[-32.44,55.182],[-32.325,55.351],[-32.223,55.529],[-32.123,55.709],[-32.012,55.883],[-31.881,56.045],[-31.735,56.197],[-31.634,56.356],[-31.597,56.534],[-31.608,56.738],[-31.597,56.957],[-31.558,57.175],[-31.489,57.381],[-31.385,57.566],[-31.254,57.735],[-31.107,57.895],[-30.975,58.04],[-30.874,58.154]]}},{"type":"Feature","properties":{"kind":"stat","line":3,"px_len":93},"geometry":{"type":"LineString","coordinates":[[-30.874,58.154],[-31.06,58.291],[-31.249,58.417],[-31.447,58.545],[-31.65,58.671],[-31.86,58.794],[-32.069,58.918],[-32.276,59.043],[-32.484,59.167],[-32.639,59.264],[-32.723,59.324]]}},{"type":"Feature","properties":{"kind":"occl","line":3,"px_len":688},"geometry":{"type":"LineString","coordinates":[[-32.723,59.324],[-32.922,59.46],[-33.114,59.589],[-33.307,59.724],[-33.504,59.857],[-33.713,59.986],[-33.941,60.106],[-34.195,60.214],[-34.475,60.31],[-34.777,60.396],[-35.085,60.479],[-35.387,60.565],[-35.681,60.655],[-35.969,60.749],[-36.256,60.843],[-36.591,60.907],[-36.989,60.937],[-37.436,60.94],[-37.879,60.952],[-38.309,60.97],[-38.735,60.974],[-39.141,60.945],[-39.492,60.874],[-39.79,60.781],[-40.078,60.683],[-40.375,60.589],[-40.683,60.499],[-40.999,60.414],[-41.305,60.323],[-41.592,60.226],[-41.858,60.12],[-42.109,60.008],[-42.352,59.894],[-42.624,59.791],[-42.943,59.706],[-43.295,59.634],[-43.636,59.558],[-43.952,59.472],[-44.244,59.377],[-44.546,59.293],[-44.89,59.244],[-45.292,59.223],[-45.71,59.195],[-46.123,59.149],[-46.517,59.087],[-46.896,59.02],[-47.265,58.949],[-47.637,58.877],[-48.006,58.805],[-48.383,58.734],[-48.779,58.669],[-49.191,58.618],[-49.597,58.584],[-49.97,58.549],[-50.282,58.482],[-50.546,58.379],[-50.8,58.266],[-51.069,58.158],[-51.356,58.056],[-51.64,57.952],[-51.867,57.832],[-52.024,57.691],[-52.141,57.539],[-52.259,57.388],[-52.388,57.24],[-52.522,57.094],[-52.668,56.951],[-52.823,56.812],[-52.962,56.683],[-53.062,56.569]]}},{"type":"Feature","properties":{"kind":"warm","line":4,"px_len":563},"geometry":{"type":"LineString","coordinates":[[-24.272,50.247],[-24.219,50.446],[-24.174,50.646],[-24.126,50.855],[-24.075,51.066],[-24.022,51.276],[-23.973,51.486],[-23.93,51.693],[-23.897,51.896],[-23.871,52.096],[-23.841,52.297],[-23.802,52.5],[-23.738,52.705],[-23.653,52.907],[-23.573,53.106],[-23.533,53.297],[-23.57,53.47],[-23.667,53.623],[-23.791,53.766],[-23.909,53.912],[-24.022,54.06],[-24.13,54.211],[-24.228,54.365],[-24.316,54.525],[-24.398,54.686],[-24.488,54.845],[-24.583,55.003],[-24.685,55.158],[-24.791,55.312],[-24.904,55.464],[-25.022,55.614],[-25.144,55.763],[-25.272,55.91],[-25.405,56.056],[-25.543,56.2],[-25.689,56.341],[-25.842,56.481],[-25.994,56.62],[-26.157,56.756],[-26.327,56.89],[-26.506,57.02],[-26.691,57.148],[-26.884,57.274],[-27.075,57.401],[-27.274,57.525],[-27.467,57.652],[-27.657,57.78],[-27.846,57.909],[-28.043,58.035],[-28.241,58.162],[-28.476,58.273],[-28.789,58.34],[-29.161,58.35],[-29.529,58.328],[-29.879,58.294],[-30.216,58.252],[-30.463,58.214],[-30.604,58.189]]}},{"type":"Feature","properties":{"kind":"occl","line":5,"px_len":1054},"geometry":{"type":"LineString","coordinates":[[65.224,56.318],[65.046,56.452],[64.9,56.589],[64.759,56.733],[64.628,56.881],[64.504,57.033],[64.39,57.188],[64.284,57.347],[64.154,57.498],[63.991,57.636],[63.805,57.766],[63.625,57.899],[63.444,58.031],[63.255,58.162],[63.036,58.28],[62.778,58.384],[62.502,58.481],[62.232,58.58],[61.976,58.685],[61.731,58.795],[61.5,58.91],[61.277,59.029],[61.064,59.152],[60.849,59.275],[60.638,59.4],[60.43,59.527],[60.225,59.655],[60.017,59.783],[59.81,59.911],[59.608,60.042],[59.411,60.176],[59.215,60.31],[59.026,60.448],[58.841,60.588],[58.664,60.733],[58.49,60.879],[58.322,61.028],[58.158,61.179],[58.004,61.336],[57.859,61.497],[57.722,61.662],[57.588,61.828],[57.452,61.995],[57.317,62.163],[57.191,62.335],[57.083,62.515],[57.002,62.708],[56.953,62.914],[56.939,63.136],[56.9,63.347],[56.8,63.534],[56.651,63.702],[56.521,63.878],[56.42,64.066],[56.333,64.261],[56.213,64.444],[56.039,64.605],[55.822,64.75],[55.604,64.894],[55.395,65.044],[55.204,65.201],[55.032,65.367],[54.883,65.544],[54.745,65.726],[54.612,65.91],[54.476,66.094],[54.341,66.28],[54.203,66.465],[54.063,66.65],[53.923,66.836],[53.786,67.025],[53.656,67.217],[53.53,67.411],[53.408,67.608],[53.289,67.807],[53.169,68.007],[53.052,68.209],[52.933,68.411],[52.812,68.612],[52.685,68.813],[52.575,69.021],[52.489,69.239],[52.454,69.466],[52.469,69.691],[52.443,69.897],[52.3,70.077],[52.056,70.24],[51.815,70.406],[51.595,70.581],[51.392,70.764],[51.163,70.938],[50.847,71.082],[50.442,71.194],[49.998,71.293],[49.556,71.393],[49.129,71.5],[48.714,71.612],[48.307,71.728],[47.896,71.844],[47.485,71.961],[47.058,72.073],[46.63,72.186],[46.19,72.296],[45.754,72.408],[45.316,72.52],[45.019,72.621],[44.881,72.696]]}}]}