{"type":"FeatureCollection","properties":{"chart":"ana","src":"Z__C_EDZW_20261004074232_tka01,ana_bwkman_dwdna_O_000000_000000_202610040600_WV12.png","valid_time":"2026-10-04T06:00:00+00:00"},"features":[{"type":"Feature","properties":{"kind":"warm","line":0,"px_len":547},"geometry":{"type":"LineString","coordinates":[[-3.837,55.475],[-3.633,55.658],[-3.444,55.842],[-3.249,56.031],[-3.039,56.211],[-2.819,56.373],[-2.585,56.515],[-2.337,56.638],[-2.081,56.761],[-1.846,56.902],[-1.66,57.068],[-1.542,57.244],[-1.475,57.417],[-1.414,57.589],[-1.324,57.765],[-1.195,57.945],[-1.04,58.126],[-0.866,58.31],[-0.68,58.494],[-0.493,58.678],[-0.306,58.862],[-0.12,59.045],[0.064,59.228],[0.245,59.41],[0.423,59.591],[0.594,59.772],[0.76,59.952],[0.92,60.131],[1.097,60.312],[1.316,60.495],[1.562,60.679],[1.796,60.862],[1.959,61.04],[2.015,61.211],[1.994,61.378],[1.95,61.543],[1.921,61.709],[1.904,61.876],[1.9,62.044],[1.904,62.213],[1.925,62.383],[1.958,62.553],[1.977,62.723],[1.981,62.892],[1.956,63.06],[1.912,63.226],[1.843,63.392],[1.757,63.556],[1.65,63.719],[1.515,63.88],[1.351,64.04],[1.133,64.196],[0.856,64.349],[0.528,64.498],[0.191,64.628],[-0.108,64.727]]}},{"type":"Feature","properties":{"kind":"cold","line":0,"px_len":611},"geometry":{"type":"LineString","coordinates":[[-0.108,64.727],[-0.5,64.683],[-0.844,64.571],[-1.181,64.428],[-1.516,64.288],[-1.849,64.151],[-2.173,64.002],[-2.472,63.834],[-2.737,63.647],[-2.959,63.456],[-3.144,63.266],[-3.307,63.077],[-3.469,62.889],[-3.628,62.7],[-3.771,62.513],[-3.881,62.329],[-3.95,62.15],[-4.017,61.982],[-4.175,61.845],[-4.438,61.737],[-4.75,61.642],[-5.054,61.536],[-5.35,61.419],[-5.639,61.292],[-5.924,61.163],[-6.209,61.037],[-6.494,60.915],[-6.779,60.797],[-7.062,60.68],[-7.344,60.565],[-7.624,60.448],[-7.902,60.332],[-8.18,60.218],[-8.459,60.108],[-8.737,60.0],[-9.013,59.892],[-9.284,59.779],[-9.547,59.657],[-9.802,59.525],[-10.05,59.386],[-10.316,59.275],[-10.605,59.2],[-10.916,59.156],[-11.219,59.102],[-11.519,59.044],[-11.814,58.98],[-12.105,58.912],[-12.395,58.845],[-12.686,58.779],[-12.979,58.717],[-13.271,58.654],[-13.564,58.593],[-13.858,58.534],[-14.156,58.48],[-14.455,58.427],[-14.755,58.377],[-15.056,58.328],[-15.358,58.281],[-15.662,58.236],[-15.966,58.191],[-16.265,58.149],[-16.575,58.103]]}},{"type":"Feature","properties":{"kind":"warm","line":0,"px_len":617},"geometry":{"type":"LineString","coordinates":[[-16.575,58.103],[-16.889,58.061],[-17.19,58.021],[-17.499,57.983],[-17.807,57.943],[-18.118,57.905],[-18.428,57.868],[-18.739,57.83],[-19.051,57.793],[-19.362,57.756],[-19.676,57.721],[-19.988,57.684],[-20.302,57.649],[-20.619,57.616],[-20.943,57.589],[-21.278,57.572],[-21.629,57.568],[-21.999,57.581],[-22.389,57.608],[-22.774,57.63],[-23.13,57.625],[-23.443,57.584],[-23.731,57.522],[-24.017,57.458],[-24.309,57.4],[-24.61,57.349],[-24.925,57.308],[-25.257,57.281],[-25.598,57.26],[-25.944,57.242],[-26.289,57.224],[-26.636,57.205],[-26.982,57.185],[-27.327,57.163],[-27.67,57.139],[-28.011,57.113],[-28.35,57.085],[-28.686,57.054],[-29.022,57.022],[-29.362,56.993],[-29.719,56.975],[-30.098,56.97],[-30.491,56.985],[-30.884,57.014],[-31.27,57.035],[-31.637,57.026],[-31.955,56.976],[-32.235,56.903],[-32.507,56.825],[-32.789,56.753],[-33.085,56.69],[-33.396,56.636],[-33.716,56.586],[-34.036,56.536],[-34.347,56.481],[-34.647,56.418],[-34.935,56.349],[-35.208,56.272],[-35.468,56.187],[-35.717,56.097],[-35.959,56.002],[-36.17,55.914],[-36.332,55.844]]}},{"type":"Feature","properties":{"kind":"cold","line":0,"px_len":1357},"geometry":{"type":"LineString","coordinates":[[-36.332,55.844],[-36.549,55.732],[-36.748,55.62],[-36.936,55.498],[-37.103,55.365],[-37.253,55.224],[-37.39,55.076],[-37.519,54.925],[-37.643,54.771],[-37.76,54.614],[-37.864,54.451],[-37.948,54.277],[-38.009,54.093],[-38.045,53.895],[-38.101,53.708],[-38.201,53.545],[-38.348,53.409],[-38.494,53.272],[-38.633,53.132],[-38.757,52.985],[-38.864,52.829],[-38.953,52.664],[-39.033,52.495],[-39.111,52.325],[-39.191,52.157],[-39.278,51.993],[-39.372,51.833],[-39.474,51.678],[-39.577,51.524],[-39.679,51.37],[-39.782,51.217],[-39.886,51.065],[-39.991,50.915],[-40.097,50.765],[-40.206,50.617],[-40.319,50.472],[-40.435,50.329],[-40.555,50.189],[-40.678,50.051],[-40.803,49.914],[-40.929,49.779],[-41.06,49.646],[-41.19,49.513],[-41.319,49.38],[-41.444,49.246],[-41.559,49.106],[-41.662,48.961],[-41.755,48.81],[-41.845,48.659],[-41.97,48.527],[-42.134,48.415],[-42.317,48.314],[-42.489,48.207],[-42.651,48.095],[-42.806,47.98],[-42.956,47.863],[-43.11,47.748],[-43.265,47.634],[-43.423,47.521],[-43.582,47.409],[-43.743,47.299],[-43.906,47.19],[-44.071,47.082],[-44.237,46.975],[-44.404,46.868],[-44.572,46.762],[-44.741,46.657],[-44.912,46.553],[-45.083,46.449],[-45.255,46.347],[-45.43,46.245],[-45.606,46.144],[-45.78,46.042],[-45.956,45.942],[-46.133,45.842],[-46.31,45.742],[-46.487,45.642],[-46.664,45.542],[-46.841,45.443],[-47.02,45.344],[-47.2,45.246],[-47.379,45.147],[-47.547,45.044],[-47.705,44.936],[-47.85,44.823],[-47.989,44.706],[-48.123,44.588],[-48.286,44.49],[-48.495,44.412],[-48.738,44.348],[-48.972,44.275],[-49.188,44.193],[-49.392,44.106],[-49.586,44.015],[-49.779,43.923],[-49.973,43.831],[-50.17,43.741],[-50.369,43.651],[-50.57,43.563],[-50.771,43.474],[-50.976,43.387],[-51.182,43.3],[-51.392,43.214],[-51.605,43.13],[-51.822,43.047],[-52.041,42.965],[-52.266,42.884],[-52.493,42.805],[-52.719,42.724],[-52.934,42.639],[-53.13,42.547],[-53.305,42.446],[-53.464,42.341],[-53.634,42.26],[-53.824,42.225],[-54.041,42.226],[-54.268,42.22],[-54.508,42.194],[-54.758,42.152],[-55.014,42.099],[-55.271,42.043],[-55.525,41.989],[-55.777,41.936],[-56.027,41.885],[-56.274,41.836],[-56.52,41.789],[-56.765,41.741],[-57.009,41.694],[-57.25,41.648],[-57.491,41.602],[-57.732,41.556],[-57.974,41.504],[-58.222,41.44],[-58.47,41.369],[-58.672,41.277],[-58.799,41.179],[-58.856,41.085]]}},{"type":"Feature","properties":{"kind":"cold","line":1,"px_len":241},"geometry":{"type":"LineString","coordinates":[[14.078,54.862],[14.316,55.016],[14.55,55.163],[14.792,55.312],[15.033,55.461],[15.285,55.609],[15.557,55.751],[15.856,55.882],[16.164,55.993],[16.46,56.095],[16.686,56.213],[16.836,56.357],[16.954,56.512],[17.092,56.666],[17.26,56.818],[17.455,56.968],[17.667,57.116],[17.88,57.264],[18.092,57.411],[18.302,57.559],[18.516,57.707],[18.727,57.854],[18.933,58.002],[19.132,58.147],[19.336,58.298]]}},{"type":"Feature","properties":{"kind":"occl","line":1,"px_len":960},"geometry":{"type":"LineString","coordinates":[[19.336,58.298],[19.558,58.448],[19.771,58.591],[19.994,58.737],[20.212,58.883],[20.429,59.029],[20.64,59.175],[20.865,59.32],[21.112,59.463],[21.393,59.602],[21.711,59.736],[22.021,59.871],[22.263,60.013],[22.428,60.164],[22.584,60.316],[22.771,60.464],[22.981,60.61],[23.192,60.756],[23.34,60.909],[23.425,61.07],[23.493,61.233],[23.575,61.395],[23.674,61.554],[23.787,61.713],[23.914,61.869],[24.051,62.025],[24.194,62.18],[24.338,62.335],[24.478,62.491],[24.613,62.647],[24.742,62.804],[24.859,62.963],[24.965,63.124],[25.065,63.286],[25.166,63.447],[25.266,63.609],[25.353,63.773],[25.426,63.939],[25.488,64.106],[25.541,64.274],[25.584,64.444],[25.625,64.615],[25.671,64.785],[25.733,64.953],[25.808,65.12],[25.898,65.285],[26.004,65.448],[26.111,65.612],[26.165,65.782],[26.164,65.959],[26.155,66.137],[26.181,66.311],[26.223,66.483],[26.239,66.659],[26.186,66.843],[26.049,67.036],[25.862,67.236],[25.677,67.434],[25.528,67.628],[25.414,67.818],[25.328,68.005],[25.253,68.19],[25.177,68.376],[25.091,68.562],[24.994,68.75],[24.892,68.938],[24.778,69.127],[24.654,69.317],[24.514,69.508],[24.365,69.699],[24.231,69.889],[24.137,70.075],[24.097,70.257],[24.091,70.435],[24.096,70.613],[24.018,70.797],[23.838,70.99],[23.606,71.188],[23.422,71.38],[23.289,71.569],[23.146,71.757],[22.909,71.951],[22.545,72.139],[22.109,72.321],[21.664,72.507],[21.263,72.704],[20.93,72.901],[20.662,73.093],[20.426,73.284],[20.212,73.472],[20.018,73.659],[19.844,73.845],[19.7,74.029],[19.59,74.211],[19.544,74.39],[19.564,74.559],[19.636,74.721]]}},{"type":"Feature","properties":{"kind":"occl","line":2,"px_len":523},"geometry":{"type":"LineString","coordinates":[[61.129,55.189],[60.942,55.315],[60.761,55.435],[60.575,55.558],[60.391,55.682],[60.201,55.803],[60.017,55.928],[59.839,56.056],[59.663,56.185],[59.484,56.314],[59.308,56.444],[59.125,56.572],[58.934,56.695],[58.738,56.818],[58.538,56.939],[58.337,57.059],[58.174,57.198],[58.075,57.369],[58.035,57.567],[58.006,57.772],[57.966,57.971],[57.908,58.163],[57.875,58.347],[57.923,58.515],[58.064,58.669],[58.234,58.818],[58.401,58.969],[58.568,59.122],[58.75,59.265],[58.955,59.396],[59.189,59.511],[59.446,59.613],[59.725,59.702],[60.011,59.787],[60.302,59.869],[60.594,59.951],[60.889,60.031],[61.192,60.106],[61.535,60.156],[61.923,60.178],[62.326,60.188],[62.708,60.21],[63.073,60.244],[63.425,60.283],[63.778,60.289],[64.147,60.254],[64.549,60.194],[64.975,60.147],[65.406,60.121],[65.818,60.112],[66.219,60.109],[66.619,60.105],[66.922,60.102],[67.096,60.103]]}},{"type":"Feature","properties":{"kind":"stat","line":2,"px_len":203},"geometry":{"type":"LineString","coordinates":[[67.096,60.103],[67.527,60.079],[67.955,60.041],[68.393,59.988],[68.815,59.929],[69.228,59.861],[69.631,59.792],[70.028,59.732],[70.425,59.689],[70.826,59.66],[71.223,59.624],[71.596,59.56],[71.921,59.46],[72.172,59.341],[72.413,59.224],[72.707,59.142],[73.068,59.109],[73.433,59.101],[73.783,59.107],[74.126,59.119],[74.389,59.126],[74.545,59.128]]}},{"type":"Feature","properties":{"kind":"occl","line":3,"px_len":278},"geometry":{"type":"LineString","coordinates":[[19.677,74.878],[19.758,75.055],[19.887,75.223],[20.113,75.389],[20.431,75.552],[20.813,75.711],[21.247,75.867],[21.694,76.022],[22.127,76.178],[22.511,76.336],[22.864,76.496],[23.22,76.656],[23.667,76.811],[24.286,76.955],[25.061,77.089],[25.864,77.22],[26.593,77.354],[27.252,77.493],[27.962,77.617],[28.776,77.724],[29.668,77.818],[30.495,77.924],[31.266,78.043],[31.964,78.174],[32.577,78.312],[33.115,78.456],[33.592,78.606],[34.032,78.744],[34.439,78.858]]}}]}