{"type":"FeatureCollection","properties":{"chart":"ana","src":"Z__C_EDZW_20261010072915_tka01,ana_bwkman_dwdna_O_000000_000000_202610100600_WV12.png","valid_time":"2026-10-10T06:00:00+00:00"},"features":[{"type":"Feature","properties":{"kind":"cold","line":0,"px_len":742},"geometry":{"type":"LineString","coordinates":[[7.795,35.56],[7.972,35.551],[8.141,35.532],[8.313,35.508],[8.486,35.483],[8.658,35.454],[8.831,35.42],[9.003,35.384],[9.175,35.344],[9.346,35.326],[9.518,35.337],[9.689,35.375],[9.861,35.411],[10.033,35.443],[10.206,35.47],[10.378,35.497],[10.551,35.524],[10.724,35.554],[10.897,35.591],[11.071,35.631],[11.246,35.677],[11.42,35.728],[11.596,35.786],[11.773,35.852],[11.95,35.928],[12.129,36.016],[12.31,36.117],[12.492,36.232],[12.675,36.35],[12.859,36.459],[13.042,36.553],[13.218,36.64],[13.353,36.74],[13.44,36.864],[13.495,37.003],[13.55,37.142],[13.616,37.281],[13.698,37.419],[13.784,37.557],[13.866,37.695],[13.943,37.833],[14.013,37.972],[14.078,38.112],[14.135,38.252],[14.188,38.393],[14.231,38.534],[14.27,38.676],[14.298,38.819],[14.319,38.962],[14.335,39.106],[14.346,39.25],[14.35,39.395],[14.345,39.541],[14.335,39.688],[14.32,39.834],[14.298,39.982],[14.27,40.13],[14.235,40.278],[14.199,40.427],[14.166,40.576],[14.143,40.724],[14.125,40.872],[14.11,41.02],[14.06,41.164],[13.947,41.296],[13.774,41.424],[13.593,41.561],[13.417,41.71],[13.24,41.866],[13.057,42.021],[12.869,42.169],[12.68,42.303],[12.487,42.423],[12.296,42.532],[12.155,42.605],[12.078,42.642]]}},{"type":"Feature","properties":{"kind":"cold","line":1,"px_len":579},"geometry":{"type":"LineString","coordinates":[[-48.573,37.032],[-48.472,37.153],[-48.341,37.252],[-48.168,37.333],[-47.998,37.415],[-47.859,37.514],[-47.745,37.626],[-47.622,37.733],[-47.495,37.838],[-47.358,37.938],[-47.211,38.034],[-47.058,38.126],[-46.904,38.217],[-46.749,38.308],[-46.594,38.4],[-46.438,38.491],[-46.284,38.583],[-46.129,38.674],[-45.971,38.765],[-45.808,38.852],[-45.633,38.933],[-45.446,39.007],[-45.246,39.074],[-45.063,39.151],[-44.918,39.248],[-44.803,39.362],[-44.686,39.476],[-44.561,39.585],[-44.431,39.692],[-44.294,39.795],[-44.15,39.894],[-44.004,39.992],[-43.858,40.09],[-43.713,40.189],[-43.568,40.288],[-43.424,40.388],[-43.282,40.49],[-43.14,40.591],[-42.999,40.694],[-42.857,40.796],[-42.711,40.896],[-42.559,40.992],[-42.399,41.084],[-42.232,41.172],[-42.085,41.272],[-41.967,41.39],[-41.875,41.523],[-41.778,41.654],[-41.675,41.781],[-41.561,41.903],[-41.446,42.023],[-41.327,42.143],[-41.212,42.264],[-41.096,42.386],[-40.983,42.509],[-40.869,42.633],[-40.757,42.757],[-40.654,42.877],[-40.563,42.988]]}},{"type":"Feature","properties":{"kind":"warm","line":1,"px_len":235},"geometry":{"type":"LineString","coordinates":[[-40.563,42.988],[-40.441,43.112],[-40.328,43.233],[-40.214,43.359],[-40.099,43.484],[-39.981,43.608],[-39.861,43.731],[-39.74,43.853],[-39.615,43.974],[-39.494,44.098],[-39.377,44.224],[-39.27,44.357],[-39.167,44.493],[-39.072,44.634],[-38.976,44.775],[-38.853,44.9],[-38.691,45.0],[-38.498,45.081],[-38.305,45.162],[-38.119,45.248],[-37.939,45.337],[-37.766,45.431],[-37.599,45.53],[-37.463,45.614],[-37.373,45.673]]}},{"type":"Feature","properties":{"kind":"cold","line":1,"px_len":220},"geometry":{"type":"LineString","coordinates":[[-37.373,45.673],[-37.191,45.767],[-37.018,45.857],[-36.834,45.946],[-36.642,46.029],[-36.439,46.105],[-36.22,46.17],[-35.988,46.226],[-35.771,46.293],[-35.587,46.382],[-35.431,46.49],[-35.269,46.595],[-35.103,46.697],[-34.927,46.793],[-34.746,46.886],[-34.556,46.972],[-34.361,47.055],[-34.162,47.136],[-33.961,47.215],[-33.76,47.294],[-33.554,47.37],[-33.352,47.441],[-33.156,47.509]]}},{"type":"Feature","properties":{"kind":"warm","line":1,"px_len":729},"geometry":{"type":"LineString","coordinates":[[-33.156,47.509],[-32.94,47.583],[-32.731,47.653],[-32.513,47.719],[-32.29,47.784],[-32.063,47.844],[-31.833,47.903],[-31.598,47.957],[-31.363,48.012],[-31.13,48.067],[-30.905,48.129],[-30.686,48.196],[-30.475,48.269],[-30.266,48.344],[-30.041,48.406],[-29.776,48.435],[-29.487,48.421],[-29.196,48.381],[-28.906,48.337],[-28.599,48.304],[-28.29,48.289],[-27.995,48.287],[-27.71,48.294],[-27.427,48.301],[-27.144,48.308],[-26.861,48.313],[-26.577,48.317],[-26.292,48.319],[-26.006,48.319],[-25.717,48.316],[-25.428,48.311],[-25.137,48.304],[-24.845,48.294],[-24.557,48.287],[-24.278,48.288],[-24.015,48.304],[-23.764,48.332],[-23.521,48.368],[-23.265,48.39],[-22.984,48.379],[-22.706,48.328],[-22.459,48.249],[-22.237,48.158],[-22.005,48.072],[-21.748,47.996],[-21.47,47.928],[-21.183,47.863],[-20.896,47.797],[-20.615,47.728],[-20.338,47.658],[-20.066,47.585],[-19.798,47.51],[-19.535,47.433],[-19.273,47.355],[-19.009,47.277],[-18.728,47.205],[-18.438,47.148],[-18.152,47.108],[-17.878,47.082],[-17.607,47.046],[-17.345,46.983],[-17.117,46.892],[-16.927,46.786],[-16.753,46.674],[-16.566,46.566],[-16.351,46.468],[-16.109,46.379],[-15.838,46.299],[-15.55,46.224],[-15.26,46.152],[-14.973,46.085],[-14.695,46.027],[-14.435,45.975],[-14.2,45.927]]}},{"type":"Feature","properties":{"kind":"cold","line":1,"px_len":1698},"geometry":{"type":"LineString","coordinates":[[-14.2,45.927],[-13.929,45.885],[-13.669,45.84],[-13.405,45.796],[-13.142,45.752],[-12.881,45.709],[-12.622,45.668],[-12.365,45.628],[-12.109,45.59],[-11.853,45.548],[-11.589,45.492],[-11.321,45.416],[-11.063,45.326],[-10.825,45.262],[-10.603,45.244],[-10.385,45.262],[-10.165,45.281],[-9.942,45.291],[-9.713,45.289],[-9.479,45.277],[-9.243,45.259],[-9.007,45.241],[-8.773,45.224],[-8.54,45.21],[-8.308,45.197],[-8.077,45.186],[-7.848,45.177],[-7.62,45.169],[-7.393,45.163],[-7.167,45.159],[-6.942,45.157],[-6.716,45.151],[-6.488,45.139],[-6.256,45.117],[-6.02,45.084],[-5.786,45.053],[-5.564,45.054],[-5.355,45.088],[-5.149,45.131],[-4.941,45.166],[-4.729,45.194],[-4.516,45.218],[-4.3,45.235],[-4.085,45.252],[-3.868,45.267],[-3.653,45.283],[-3.438,45.302],[-3.224,45.324],[-3.01,45.346],[-2.797,45.373],[-2.585,45.402],[-2.374,45.434],[-2.163,45.468],[-1.953,45.508],[-1.745,45.552],[-1.537,45.6],[-1.33,45.652],[-1.124,45.707],[-0.918,45.766],[-0.71,45.821],[-0.501,45.87],[-0.289,45.912],[-0.077,45.95],[0.137,45.984],[0.352,46.018],[0.558,46.088],[0.756,46.197],[0.953,46.318],[1.154,46.425],[1.359,46.519],[1.566,46.604],[1.775,46.687],[1.984,46.771],[2.193,46.858],[2.403,46.947],[2.614,47.036],[2.825,47.124],[3.038,47.214],[3.251,47.303],[3.465,47.393],[3.68,47.484],[3.896,47.571],[4.115,47.647],[4.337,47.706],[4.561,47.754],[4.786,47.797],[5.002,47.853],[5.199,47.943],[5.391,48.069],[5.597,48.201],[5.818,48.321],[6.042,48.425],[6.269,48.518],[6.496,48.607],[6.724,48.698],[6.953,48.791],[7.183,48.889],[7.415,48.989],[7.647,49.093],[7.88,49.197],[8.115,49.299],[8.351,49.39],[8.589,49.465],[8.828,49.526],[9.067,49.577],[9.279,49.653],[9.453,49.768],[9.609,49.919],[9.795,50.075],[10.019,50.231],[10.265,50.379],[10.515,50.519],[10.767,50.651],[11.02,50.782],[11.276,50.913],[11.533,51.047],[11.793,51.185],[12.055,51.324],[12.314,51.467],[12.569,51.612],[12.814,51.762],[13.054,51.911],[13.289,52.061],[13.536,52.209],[13.801,52.352],[14.077,52.479],[14.313,52.603],[14.475,52.739],[14.566,52.892],[14.644,53.048],[14.734,53.203],[14.846,53.357],[14.976,53.51],[15.113,53.663],[15.239,53.817],[15.355,53.971],[15.461,54.125],[15.559,54.281],[15.65,54.436],[15.732,54.593],[15.807,54.75],[15.878,54.907],[15.946,55.065],[15.998,55.224],[16.036,55.384],[16.052,55.546],[16.047,55.709],[16.028,55.873],[16.011,56.037],[15.998,56.202],[15.98,56.366],[15.97,56.53],[15.962,56.694],[15.958,56.858],[15.945,57.021],[15.839,57.169],[15.629,57.302],[15.35,57.428],[15.07,57.561],[14.781,57.658],[14.482,57.709],[14.178,57.724],[13.872,57.737],[13.567,57.751],[13.262,57.77],[12.957,57.793],[12.653,57.818],[12.347,57.841],[12.041,57.865],[11.759,57.885],[11.521,57.907]]}},{"type":"Feature","properties":{"kind":"occl","line":1,"px_len":530},"geometry":{"type":"LineString","coordinates":[[11.521,57.907],[11.206,57.918],[10.906,57.931],[10.597,57.938],[10.289,57.937],[9.981,57.96],[9.673,58.008],[9.363,58.07],[9.053,58.121],[8.742,58.159],[8.43,58.188],[8.117,58.244],[7.8,58.348],[7.477,58.491],[7.152,58.632],[6.826,58.757],[6.497,58.87],[6.166,58.985],[5.83,59.113],[5.489,59.256],[5.144,59.406],[4.795,59.557],[4.442,59.708],[4.086,59.858],[3.726,60.006],[3.368,60.154],[3.015,60.301],[2.668,60.448],[2.319,60.594],[1.963,60.739],[1.603,60.883],[1.24,61.026],[0.884,61.169],[0.554,61.312],[0.266,61.459],[0.024,61.609],[-0.215,61.748],[-0.511,61.854],[-0.877,61.932],[-1.27,62.012],[-1.673,62.109],[-2.082,62.214],[-2.49,62.307],[-2.88,62.355],[-3.253,62.363],[-3.618,62.354],[-3.986,62.35],[-4.359,62.354],[-4.737,62.367],[-5.122,62.389],[-5.512,62.42],[-5.908,62.456],[-6.28,62.502],[-6.616,62.568]]}},{"type":"Feature","properties":{"kind":"warm","line":2,"px_len":465},"geometry":{"type":"LineString","coordinates":[[22.764,51.56],[22.766,51.712],[22.796,51.864],[22.842,52.02],[22.904,52.174],[22.981,52.326],[23.073,52.475],[23.152,52.627],[23.181,52.787],[23.144,52.956],[23.076,53.13],[23.011,53.304],[22.959,53.476],[22.92,53.646],[22.892,53.814],[22.864,53.983],[22.821,54.154],[22.76,54.327],[22.682,54.503],[22.587,54.681],[22.476,54.861],[22.345,55.044],[22.199,55.228],[22.049,55.413],[21.916,55.595],[21.815,55.774],[21.731,55.95],[21.618,56.126],[21.437,56.29],[21.195,56.416],[20.927,56.501],[20.648,56.562],[20.37,56.625],[20.091,56.691],[19.815,56.765],[19.54,56.847],[19.264,56.93],[18.983,57.002],[18.698,57.06],[18.408,57.108],[18.116,57.15],[17.821,57.184],[17.523,57.206],[17.223,57.221],[16.92,57.226],[16.615,57.222],[16.36,57.212],[16.186,57.205]]}},{"type":"Feature","properties":{"kind":"occl","line":3,"px_len":401},"geometry":{"type":"LineString","coordinates":[[24.039,59.029],[24.423,59.118],[24.791,59.198],[25.167,59.275],[25.543,59.347],[25.92,59.417],[26.298,59.484],[26.68,59.553],[27.063,59.619],[27.444,59.678],[27.817,59.721],[28.18,59.748],[28.535,59.76],[28.88,59.784],[29.199,59.852],[29.505,59.962],[29.819,60.08],[30.158,60.194],[30.518,60.302],[30.867,60.413],[31.154,60.535],[31.373,60.671],[31.559,60.813],[31.751,60.954],[31.95,61.094],[32.17,61.23],[32.422,61.36],[32.7,61.484],[32.994,61.605],[33.29,61.725],[33.587,61.845],[33.883,61.965],[34.174,62.086],[34.456,62.209],[34.73,62.333],[35.001,62.459],[35.272,62.584],[35.545,62.709],[35.824,62.833],[36.073,62.959],[36.294,63.101]]}},{"type":"Feature","properties":{"kind":"cold","line":4,"px_len":1137},"geometry":{"type":"LineString","coordinates":[[35.125,47.44],[35.299,47.558],[35.457,47.673],[35.62,47.791],[35.79,47.907],[35.974,48.018],[36.175,48.124],[36.396,48.222],[36.632,48.316],[36.833,48.421],[36.988,48.542],[37.11,48.675],[37.242,48.805],[37.38,48.933],[37.53,49.056],[37.694,49.175],[37.868,49.291],[38.043,49.406],[38.218,49.522],[38.391,49.638],[38.566,49.754],[38.748,49.868],[38.941,49.977],[39.147,50.082],[39.369,50.181],[39.574,50.286],[39.733,50.409],[39.849,50.547],[39.961,50.688],[40.083,50.825],[40.218,50.957],[40.363,51.086],[40.512,51.214],[40.665,51.34],[40.819,51.467],[40.972,51.593],[41.126,51.72],[41.278,51.848],[41.429,51.977],[41.582,52.105],[41.729,52.236],[41.88,52.365],[42.028,52.496],[42.178,52.626],[42.331,52.756],[42.498,52.88],[42.675,53.001],[42.866,53.116],[43.059,53.231],[43.218,53.359],[43.337,53.504],[43.436,53.657],[43.542,53.808],[43.663,53.953],[43.793,54.095],[43.932,54.234],[44.074,54.372],[44.214,54.511],[44.356,54.65],[44.494,54.79],[44.628,54.933],[44.761,55.076],[44.891,55.221],[45.022,55.367],[45.159,55.51],[45.303,55.651],[45.454,55.789],[45.615,55.923],[45.789,56.053],[45.956,56.186],[46.076,56.338],[46.144,56.513],[46.198,56.693],[46.269,56.868],[46.356,57.036],[46.457,57.199],[46.567,57.358],[46.68,57.517],[46.792,57.677],[46.901,57.838],[47.01,58.0],[47.118,58.163],[47.224,58.327],[47.33,58.491],[47.435,58.657],[47.546,58.821],[47.67,58.979],[47.816,59.13],[47.974,59.276],[48.143,59.418],[48.307,59.563],[48.401,59.737],[48.425,59.939],[48.43,60.15],[48.467,60.348],[48.528,60.537],[48.605,60.72],[48.687,60.902],[48.766,61.085],[48.836,61.272],[48.897,61.464],[48.942,61.662],[48.968,61.868],[48.966,62.085],[48.936,62.313],[48.899,62.544],[48.881,62.767],[48.898,62.978],[48.948,63.176],[48.99,63.375],[48.99,63.585],[48.954,63.807],[48.936,64.03],[48.935,64.225],[48.947,64.375]]}},{"type":"Feature","properties":{"kind":"warm","line":4,"px_len":944},"geometry":{"type":"LineString","coordinates":[[48.947,64.375],[49.214,64.503],[49.61,64.576],[50.059,64.633],[50.484,64.699],[50.928,64.757],[51.402,64.792],[51.897,64.799],[52.377,64.776],[52.819,64.73],[53.227,64.669],[53.602,64.592],[53.953,64.505],[54.277,64.407],[54.584,64.301],[54.876,64.19],[55.164,64.078],[55.449,63.964],[55.736,63.852],[56.032,63.745],[56.332,63.639],[56.633,63.534],[56.88,63.408],[57.039,63.245],[57.107,63.046],[57.148,62.837],[57.195,62.63],[57.265,62.434],[57.351,62.245],[57.441,62.058],[57.527,61.87],[57.603,61.678],[57.668,61.482],[57.726,61.284],[57.776,61.083],[57.812,60.876],[57.828,60.661],[57.824,60.438],[57.798,60.214],[57.757,59.99],[57.703,59.771],[57.637,59.561],[57.564,59.356],[57.487,59.152],[57.422,58.943],[57.387,58.729],[57.389,58.513],[57.419,58.306],[57.44,58.098],[57.411,57.894],[57.315,57.708],[57.171,57.55],[57.008,57.404],[56.856,57.252],[56.727,57.087],[56.623,56.908],[56.535,56.721],[56.452,56.531],[56.366,56.345],[56.274,56.161],[56.177,55.982],[56.076,55.806],[55.971,55.633],[55.862,55.463],[55.75,55.296],[55.634,55.132],[55.518,54.968],[55.399,54.807],[55.279,54.647],[55.158,54.489],[55.035,54.332],[54.913,54.176],[54.794,54.018],[54.686,53.854],[54.593,53.683],[54.52,53.5],[54.466,53.306],[54.42,53.108],[54.352,52.923],[54.231,52.771],[54.074,52.642],[53.904,52.52],[53.746,52.392],[53.595,52.261],[53.452,52.125],[53.324,51.98],[53.211,51.828],[53.107,51.67],[53.014,51.507],[52.936,51.335],[52.881,51.152],[52.891,50.981],[52.988,50.838],[53.157,50.725],[53.299,50.638],[53.389,50.583]]}},{"type":"Feature","properties":{"kind":"cold","line":5,"px_len":1193},"geometry":{"type":"LineString","coordinates":[[-52.844,39.275],[-52.676,39.374],[-52.515,39.468],[-52.353,39.566],[-52.194,39.664],[-52.04,39.765],[-51.89,39.868],[-51.744,39.973],[-51.601,40.078],[-51.461,40.186],[-51.326,40.295],[-51.189,40.404],[-51.048,40.511],[-50.901,40.616],[-50.744,40.717],[-50.581,40.815],[-50.445,40.924],[-50.347,41.051],[-50.274,41.189],[-50.195,41.325],[-50.107,41.456],[-50.01,41.585],[-49.91,41.712],[-49.808,41.839],[-49.707,41.966],[-49.604,42.093],[-49.503,42.22],[-49.406,42.35],[-49.312,42.481],[-49.217,42.613],[-49.125,42.745],[-49.033,42.879],[-48.942,43.013],[-48.853,43.148],[-48.765,43.284],[-48.678,43.42],[-48.591,43.557],[-48.505,43.695],[-48.42,43.833],[-48.333,43.971],[-48.245,44.109],[-48.15,44.244],[-48.05,44.377],[-47.94,44.505],[-47.823,44.631],[-47.701,44.755],[-47.604,44.89],[-47.545,45.043],[-47.51,45.207],[-47.466,45.369],[-47.41,45.524],[-47.345,45.676],[-47.27,45.823],[-47.19,45.969],[-47.107,46.114],[-47.025,46.259],[-46.943,46.405],[-46.86,46.55],[-46.777,46.696],[-46.693,46.842],[-46.609,46.988],[-46.524,47.134],[-46.441,47.281],[-46.358,47.429],[-46.278,47.578],[-46.198,47.728],[-46.113,47.876],[-46.021,48.021],[-45.917,48.161],[-45.809,48.299],[-45.691,48.433],[-45.597,48.579],[-45.549,48.746],[-45.546,48.934],[-45.537,49.12],[-45.508,49.297],[-45.46,49.465],[-45.4,49.629],[-45.334,49.79],[-45.266,49.95],[-45.198,50.111],[-45.13,50.273],[-45.06,50.433],[-44.991,50.595],[-44.922,50.757],[-44.853,50.919],[-44.785,51.083],[-44.718,51.247],[-44.652,51.412],[-44.585,51.577],[-44.52,51.743],[-44.456,51.91],[-44.394,52.078],[-44.333,52.247],[-44.275,52.418],[-44.22,52.59],[-44.168,52.765],[-44.117,52.94],[-44.059,53.112],[-43.984,53.278],[-43.891,53.435],[-43.781,53.586],[-43.662,53.733],[-43.573,53.89],[-43.553,54.069],[-43.588,54.27],[-43.615,54.475],[-43.613,54.675],[-43.591,54.867],[-43.556,55.054],[-43.521,55.241],[-43.489,55.429],[-43.463,55.621],[-43.443,55.815],[-43.431,56.013],[-43.426,56.215],[-43.432,56.421],[-43.447,56.631],[-43.474,56.845],[-43.502,57.012],[-43.522,57.111]]}},{"type":"Feature","properties":{"kind":"occl","line":5,"px_len":305},"geometry":{"type":"LineString","coordinates":[[-43.522,57.111],[-43.595,57.335],[-43.674,57.545],[-43.765,57.752],[-43.873,57.949],[-43.998,58.134],[-44.14,58.309],[-44.305,58.468],[-44.487,58.616],[-44.69,58.751],[-44.904,58.878],[-45.131,58.997],[-45.359,59.117],[-45.584,59.239],[-45.806,59.365],[-46.059,59.469],[-46.351,59.544],[-46.67,59.6],[-46.982,59.661],[-47.291,59.724],[-47.608,59.782],[-47.953,59.817],[-48.339,59.816],[-48.742,59.777],[-49.148,59.713],[-49.563,59.647],[-49.993,59.594],[-50.423,59.548],[-50.846,59.506],[-51.266,59.465],[-51.616,59.428],[-51.854,59.401]]}}]}