{"type":"FeatureCollection","properties":{"chart":"ana","src":"Z__C_EDZW_20261009135609_tka01,ana_bwkman_dwdna_O_000000_000000_202610091200_WV12.png","valid_time":"2026-10-09T12:00:00+00:00"},"features":[{"type":"Feature","properties":{"kind":"occl","line":0,"px_len":229},"geometry":{"type":"LineString","coordinates":[[6.757,42.091],[6.66,42.226],[6.606,42.367],[6.567,42.514],[6.528,42.662],[6.488,42.809],[6.444,42.957],[6.394,43.104],[6.339,43.251],[6.288,43.399],[6.279,43.548],[6.332,43.7],[6.426,43.854],[6.527,44.008],[6.622,44.162],[6.708,44.316],[6.791,44.464],[6.917,44.583],[7.095,44.673],[7.303,44.749],[7.512,44.84],[7.721,44.944],[7.919,45.043],[8.099,45.121]]}},{"type":"Feature","properties":{"kind":"cold","line":1,"px_len":407},"geometry":{"type":"LineString","coordinates":[[7.099,36.385],[7.272,36.526],[7.438,36.655],[7.61,36.776],[7.783,36.881],[7.957,36.97],[8.133,37.04],[8.309,37.097],[8.459,37.175],[8.576,37.286],[8.673,37.426],[8.79,37.57],[8.929,37.714],[9.093,37.854],[9.266,37.992],[9.441,38.131],[9.61,38.274],[9.774,38.417],[9.929,38.56],[10.073,38.703],[10.21,38.845],[10.342,38.988],[10.473,39.131],[10.605,39.274],[10.745,39.416],[10.908,39.556],[11.084,39.686],[11.237,39.811],[11.333,39.942],[11.383,40.085],[11.424,40.23],[11.474,40.375],[11.537,40.519],[11.615,40.663],[11.701,40.807],[11.784,40.951],[11.867,41.096],[11.949,41.24],[12.026,41.385],[12.101,41.53],[12.169,41.66],[12.222,41.762]]}},{"type":"Feature","properties":{"kind":"warm","line":1,"px_len":238},"geometry":{"type":"LineString","coordinates":[[12.222,41.762],[12.288,41.91],[12.352,42.053],[12.416,42.199],[12.479,42.345],[12.536,42.491],[12.588,42.638],[12.63,42.785],[12.66,42.933],[12.678,43.081],[12.681,43.231],[12.673,43.381],[12.654,43.531],[12.634,43.682],[12.641,43.832],[12.668,43.981],[12.697,44.13],[12.708,44.28],[12.705,44.431],[12.695,44.583],[12.67,44.735],[12.615,44.888],[12.522,45.043],[12.43,45.187],[12.363,45.307]]}},{"type":"Feature","properties":{"kind":"warm","line":2,"px_len":1175},"geometry":{"type":"LineString","coordinates":[[-50.364,38.903],[-50.199,38.985],[-50.058,39.082],[-49.921,39.187],[-49.785,39.293],[-49.65,39.399],[-49.52,39.508],[-49.399,39.621],[-49.285,39.737],[-49.178,39.857],[-49.076,39.98],[-48.984,40.108],[-48.901,40.24],[-48.811,40.369],[-48.689,40.483],[-48.525,40.578],[-48.346,40.665],[-48.171,40.755],[-48.007,40.849],[-47.853,40.949],[-47.708,41.053],[-47.569,41.16],[-47.431,41.268],[-47.293,41.376],[-47.152,41.483],[-47.007,41.588],[-46.859,41.691],[-46.708,41.793],[-46.555,41.895],[-46.397,41.993],[-46.233,42.09],[-46.07,42.186],[-45.914,42.287],[-45.769,42.393],[-45.631,42.503],[-45.499,42.616],[-45.373,42.733],[-45.25,42.851],[-45.103,42.957],[-44.912,43.04],[-44.681,43.103],[-44.439,43.159],[-44.205,43.219],[-43.987,43.288],[-43.785,43.364],[-43.591,43.445],[-43.403,43.53],[-43.214,43.614],[-43.023,43.696],[-42.831,43.779],[-42.637,43.86],[-42.443,43.941],[-42.247,44.021],[-42.049,44.1],[-41.852,44.18],[-41.656,44.26],[-41.467,44.344],[-41.288,44.434],[-41.117,44.529],[-40.954,44.628],[-40.795,44.73],[-40.636,44.833],[-40.455,44.923],[-40.233,44.988],[-39.962,45.024],[-39.678,45.05],[-39.408,45.085],[-39.159,45.132],[-38.925,45.188],[-38.699,45.249],[-38.475,45.311],[-38.25,45.373],[-38.024,45.433],[-37.795,45.491],[-37.565,45.549],[-37.333,45.605],[-37.1,45.66],[-36.865,45.714],[-36.63,45.768],[-36.402,45.825],[-36.185,45.891],[-35.979,45.963],[-35.785,46.044],[-35.597,46.129],[-35.404,46.212],[-35.185,46.275],[-34.93,46.308],[-34.653,46.307],[-34.363,46.295],[-34.07,46.291],[-33.782,46.303],[-33.511,46.327],[-33.252,46.358],[-32.997,46.393],[-32.743,46.427],[-32.487,46.46],[-32.231,46.492],[-31.974,46.523],[-31.717,46.553],[-31.459,46.583],[-31.203,46.613],[-30.954,46.649],[-30.719,46.695],[-30.496,46.751],[-30.284,46.816],[-30.079,46.887],[-29.865,46.951],[-29.626,46.993],[-29.352,46.998],[-29.065,46.973],[-28.771,46.938],[-28.474,46.916],[-28.185,46.912],[-27.911,46.919],[-27.643,46.932],[-27.379,46.947],[-27.113,46.961],[-26.889,46.969],[-26.733,46.971]]}},{"type":"Feature","properties":{"kind":"cold","line":2,"px_len":1391},"geometry":{"type":"LineString","coordinates":[[-26.733,46.971],[-26.464,46.985],[-26.202,46.994],[-25.932,46.999],[-25.662,47.004],[-25.39,47.008],[-25.113,47.004],[-24.827,46.988],[-24.538,46.951],[-24.266,46.895],[-24.016,46.848],[-23.784,46.844],[-23.56,46.881],[-23.336,46.927],[-23.103,46.962],[-22.857,46.984],[-22.597,46.99],[-22.33,46.988],[-22.062,46.984],[-21.796,46.98],[-21.531,46.978],[-21.267,46.975],[-21.004,46.973],[-20.742,46.972],[-20.482,46.971],[-20.223,46.971],[-19.966,46.972],[-19.711,46.976],[-19.457,46.98],[-19.204,46.984],[-18.954,46.991],[-18.705,47.0],[-18.457,47.009],[-18.205,47.011],[-17.946,47.004],[-17.677,46.983],[-17.404,46.955],[-17.152,46.954],[-16.924,46.987],[-16.714,47.043],[-16.502,47.098],[-16.287,47.147],[-16.067,47.191],[-15.843,47.228],[-15.617,47.263],[-15.391,47.298],[-15.167,47.335],[-14.943,47.374],[-14.722,47.416],[-14.501,47.459],[-14.282,47.505],[-14.064,47.553],[-13.847,47.602],[-13.631,47.654],[-13.417,47.708],[-13.206,47.768],[-12.994,47.827],[-12.781,47.886],[-12.568,47.944],[-12.355,48.004],[-12.144,48.067],[-11.934,48.134],[-11.725,48.201],[-11.515,48.269],[-11.305,48.337],[-11.093,48.402],[-10.879,48.464],[-10.66,48.519],[-10.438,48.569],[-10.211,48.61],[-9.991,48.663],[-9.786,48.746],[-9.596,48.859],[-9.405,48.972],[-9.208,49.075],[-9.006,49.17],[-8.799,49.258],[-8.59,49.343],[-8.38,49.427],[-8.17,49.512],[-7.96,49.599],[-7.75,49.688],[-7.541,49.778],[-7.331,49.871],[-7.122,49.966],[-6.912,50.062],[-6.701,50.158],[-6.491,50.258],[-6.281,50.359],[-6.071,50.463],[-5.861,50.569],[-5.651,50.677],[-5.44,50.787],[-5.229,50.9],[-5.018,51.013],[-4.802,51.12],[-4.581,51.214],[-4.354,51.297],[-4.123,51.37],[-3.899,51.447],[-3.713,51.561],[-3.56,51.72],[-3.399,51.904],[-3.211,52.082],[-3.006,52.247],[-2.795,52.401],[-2.582,52.553],[-2.368,52.709],[-2.154,52.87],[-1.941,53.037],[-1.727,53.208],[-1.513,53.386],[-1.299,53.569],[-1.095,53.755],[-0.9,53.939],[-0.717,54.121],[-0.543,54.302],[-0.38,54.482],[-0.224,54.661],[-0.074,54.838],[0.07,55.015],[0.222,55.193],[0.401,55.372],[0.608,55.545],[0.8,55.714],[0.911,55.877],[0.934,56.042],[0.934,56.205],[0.941,56.37],[0.958,56.536],[0.991,56.703],[1.037,56.871],[1.087,57.04],[1.148,57.21],[1.225,57.38],[1.318,57.553],[1.427,57.726],[1.557,57.901],[1.719,58.056],[1.944,58.176]]}},{"type":"Feature","properties":{"kind":"warm","line":2,"px_len":904},"geometry":{"type":"LineString","coordinates":[[1.944,58.176],[2.268,58.164],[2.576,58.153],[2.891,58.144],[3.204,58.14],[3.516,58.142],[3.828,58.143],[4.141,58.134],[4.459,58.096],[4.776,58.006],[5.047,57.87],[5.241,57.714],[5.385,57.555],[5.534,57.397],[5.717,57.24],[5.925,57.084],[6.141,56.928],[6.352,56.771],[6.541,56.614],[6.706,56.455],[6.859,56.297],[6.998,56.138],[7.127,55.978],[7.255,55.819],[7.403,55.66],[7.567,55.502],[7.735,55.343],[7.876,55.184],[7.945,55.023],[7.933,54.862],[7.866,54.7],[7.8,54.538],[7.748,54.376],[7.705,54.215],[7.668,54.054],[7.63,53.893],[7.588,53.732],[7.548,53.571],[7.507,53.41],[7.456,53.249],[7.394,53.088],[7.336,52.928],[7.293,52.767],[7.261,52.607],[7.235,52.448],[7.217,52.288],[7.212,52.13],[7.18,51.97],[7.086,51.809],[6.908,51.65],[6.689,51.495],[6.463,51.341],[6.255,51.183],[6.066,51.019],[5.89,50.854],[5.718,50.69],[5.536,50.525],[5.342,50.359],[5.148,50.193],[4.97,50.027],[4.814,49.862],[4.688,49.698],[4.569,49.535],[4.428,49.374],[4.241,49.228],[4.024,49.115],[3.798,49.034],[3.57,48.964],[3.346,48.883],[3.124,48.786],[2.907,48.673],[2.692,48.551],[2.479,48.424],[2.268,48.298],[2.057,48.177],[1.848,48.056],[1.639,47.937],[1.432,47.815],[1.228,47.681],[1.041,47.538],[0.872,47.388],[0.708,47.241],[0.526,47.106],[0.324,47.008],[0.111,46.943],[-0.103,46.891],[-0.317,46.835],[-0.529,46.776],[-0.738,46.706],[-0.943,46.624],[-1.108,46.566],[-1.215,46.541]]}},{"type":"Feature","properties":{"kind":"occl","line":3,"px_len":560},"geometry":{"type":"LineString","coordinates":[[1.699,58.275],[1.543,58.433],[1.406,58.585],[1.28,58.742],[1.168,58.899],[1.068,59.058],[0.983,59.218],[0.906,59.379],[0.824,59.539],[0.729,59.699],[0.629,59.858],[0.525,60.018],[0.407,60.176],[0.272,60.333],[0.129,60.489],[-0.01,60.646],[-0.143,60.803],[-0.266,60.961],[-0.403,61.118],[-0.601,61.271],[-0.862,61.417],[-1.134,61.562],[-1.375,61.71],[-1.598,61.86],[-1.851,62.006],[-2.168,62.14],[-2.543,62.25],[-2.948,62.342],[-3.359,62.437],[-3.766,62.551],[-4.158,62.677],[-4.542,62.806],[-4.938,62.933],[-5.352,63.058],[-5.787,63.178],[-6.224,63.298],[-6.653,63.418],[-7.039,63.542],[-7.388,63.671],[-7.739,63.766],[-8.114,63.811],[-8.514,63.819],[-8.922,63.829],[-9.338,63.848],[-9.76,63.87],[-10.179,63.887],[-10.569,63.869],[-10.923,63.806],[-11.254,63.717],[-11.586,63.632],[-11.917,63.547],[-12.25,63.466],[-12.585,63.389],[-12.923,63.316],[-13.257,63.24],[-13.578,63.167],[-13.883,63.09]]}},{"type":"Feature","properties":{"kind":"cold","line":4,"px_len":942},"geometry":{"type":"LineString","coordinates":[[28.725,47.497],[28.76,47.642],[28.826,47.784],[28.902,47.929],[28.976,48.075],[29.051,48.222],[29.134,48.366],[29.237,48.506],[29.351,48.644],[29.477,48.779],[29.579,48.92],[29.637,49.071],[29.663,49.231],[29.694,49.39],[29.738,49.545],[29.794,49.698],[29.86,49.849],[29.929,50.0],[29.998,50.15],[30.068,50.301],[30.143,50.451],[30.217,50.6],[30.297,50.749],[30.377,50.898],[30.459,51.047],[30.54,51.197],[30.624,51.345],[30.708,51.494],[30.792,51.644],[30.874,51.794],[30.959,51.943],[31.043,52.093],[31.127,52.243],[31.214,52.393],[31.315,52.539],[31.426,52.684],[31.548,52.825],[31.665,52.969],[31.732,53.125],[31.747,53.293],[31.743,53.467],[31.755,53.637],[31.781,53.804],[31.821,53.967],[31.869,54.129],[31.923,54.289],[31.976,54.451],[32.027,54.612],[32.075,54.775],[32.12,54.939],[32.159,55.104],[32.195,55.271],[32.225,55.438],[32.249,55.608],[32.263,55.78],[32.268,55.955],[32.262,56.132],[32.252,56.311],[32.249,56.487],[32.269,56.659],[32.305,56.827],[32.341,56.993],[32.294,57.15],[32.155,57.304],[31.953,57.462],[31.762,57.641],[31.582,57.84],[31.411,58.051],[31.238,58.264],[31.062,58.475],[30.878,58.68],[30.683,58.873],[30.479,59.057],[30.268,59.234],[30.047,59.402],[29.815,59.559],[29.576,59.708],[29.33,59.851],[29.074,59.982],[28.807,60.101],[28.533,60.213],[28.253,60.318],[27.966,60.415],[27.675,60.508],[27.382,60.602],[27.091,60.7],[26.797,60.796],[26.5,60.891],[26.194,60.972],[25.881,61.044],[25.565,61.113],[25.251,61.188],[24.938,61.268],[24.631,61.351],[24.405,61.413],[24.283,61.445]]}},{"type":"Feature","properties":{"kind":"warm","line":4,"px_len":297},"geometry":{"type":"LineString","coordinates":[[24.283,61.445],[24.03,61.571],[23.96,61.703],[24.077,61.849],[24.327,61.991],[24.625,62.126],[24.932,62.26],[25.203,62.398],[25.447,62.54],[25.676,62.684],[25.923,62.825],[26.213,62.959],[26.557,63.08],[26.961,63.192],[27.41,63.293],[27.87,63.396],[28.305,63.503],[28.707,63.616],[29.103,63.717],[29.517,63.787],[29.936,63.815],[30.334,63.805],[30.717,63.776],[31.1,63.748],[31.49,63.726],[31.89,63.715],[32.304,63.718],[32.732,63.734],[33.166,63.754],[33.536,63.752],[33.805,63.728]]}},{"type":"Feature","properties":{"kind":"cold","line":5,"px_len":398},"geometry":{"type":"LineString","coordinates":[[-60.621,41.746],[-60.529,41.882],[-60.384,41.996],[-60.24,42.114],[-60.138,42.244],[-60.065,42.382],[-59.985,42.519],[-59.897,42.653],[-59.802,42.786],[-59.696,42.916],[-59.583,43.043],[-59.463,43.17],[-59.342,43.296],[-59.222,43.422],[-59.099,43.548],[-58.977,43.674],[-58.855,43.8],[-58.733,43.927],[-58.611,44.053],[-58.488,44.179],[-58.365,44.306],[-58.243,44.433],[-58.121,44.56],[-57.997,44.687],[-57.869,44.813],[-57.734,44.936],[-57.587,45.057],[-57.426,45.173],[-57.256,45.286],[-57.114,45.408],[-57.014,45.543],[-56.943,45.688],[-56.865,45.83],[-56.777,45.969],[-56.679,46.106],[-56.579,46.242],[-56.47,46.376],[-56.361,46.509],[-56.252,46.643],[-56.152,46.767],[-56.064,46.871]]}},{"type":"Feature","properties":{"kind":"occl","line":5,"px_len":509},"geometry":{"type":"LineString","coordinates":[[-56.064,46.871],[-55.965,47.012],[-55.866,47.146],[-55.759,47.282],[-55.65,47.417],[-55.528,47.549],[-55.392,47.676],[-55.244,47.799],[-55.112,47.928],[-55.005,48.065],[-54.92,48.21],[-54.828,48.352],[-54.734,48.493],[-54.638,48.635],[-54.562,48.783],[-54.515,48.941],[-54.493,49.107],[-54.468,49.272],[-54.432,49.435],[-54.384,49.593],[-54.324,49.748],[-54.25,49.899],[-54.172,50.048],[-54.092,50.198],[-54.016,50.349],[-53.941,50.5],[-53.867,50.653],[-53.8,50.807],[-53.732,50.962],[-53.662,51.116],[-53.579,51.266],[-53.491,51.416],[-53.396,51.563],[-53.328,51.719],[-53.316,51.893],[-53.364,52.086],[-53.414,52.28],[-53.449,52.47],[-53.483,52.657],[-53.557,52.841],[-53.698,52.999],[-53.89,53.124],[-54.103,53.225],[-54.319,53.325],[-54.533,53.427],[-54.743,53.536],[-54.946,53.654],[-55.144,53.78],[-55.343,53.906],[-55.543,54.033],[-55.708,54.164],[-55.819,54.294]]}},{"type":"Feature","properties":{"kind":"occl","line":6,"px_len":937},"geometry":{"type":"LineString","coordinates":[[69.81,59.098],[69.689,59.257],[69.58,59.411],[69.472,59.569],[69.362,59.728],[69.25,59.886],[69.139,60.045],[69.024,60.203],[68.903,60.36],[68.778,60.516],[68.661,60.675],[68.556,60.838],[68.474,61.007],[68.409,61.182],[68.368,61.365],[68.343,61.552],[68.285,61.73],[68.182,61.895],[68.045,62.051],[67.926,62.213],[67.826,62.38],[67.736,62.551],[67.618,62.714],[67.457,62.866],[67.28,63.013],[67.114,63.164],[66.965,63.32],[66.826,63.479],[66.71,63.646],[66.613,63.818],[66.534,63.996],[66.469,64.178],[66.429,64.367],[66.417,64.565],[66.419,64.767],[66.439,64.974],[66.48,65.186],[66.538,65.403],[66.609,65.624],[66.701,65.849],[66.826,66.07],[66.99,66.28],[67.196,66.467],[67.439,66.632],[67.684,66.789],[67.857,66.963],[67.969,67.17],[68.085,67.394],[68.249,67.616],[68.434,67.828],[68.594,68.039],[68.734,68.261],[68.881,68.485],[69.079,68.7],[69.319,68.891],[69.512,69.067],[69.559,69.236],[69.453,69.405],[69.304,69.573],[69.144,69.739],[68.968,69.903],[68.782,70.065],[68.587,70.226],[68.378,70.384],[68.146,70.538],[67.902,70.691],[67.644,70.841],[67.382,70.99],[67.088,71.134],[66.784,71.276],[66.467,71.416],[66.152,71.557],[65.82,71.695],[65.477,71.831],[65.109,71.962],[64.731,72.092],[64.345,72.22],[63.95,72.347],[63.541,72.471],[63.12,72.593],[62.693,72.715],[62.232,72.822],[61.672,72.881],[60.998,72.898],[60.302,72.903],[59.583,72.917],[58.841,72.939],[58.079,72.972],[57.37,73.019],[56.703,73.076],[56.064,73.14],[55.431,73.205],[54.794,73.268],[54.212,73.313],[53.752,73.336]]}},{"type":"Feature","properties":{"kind":"warm","line":7,"px_len":374},"geometry":{"type":"LineString","coordinates":[[45.856,71.518],[45.414,71.626],[45.011,71.739],[44.603,71.858],[44.175,71.969],[43.739,72.079],[43.284,72.181],[42.808,72.275],[42.327,72.368],[41.9,72.488],[41.566,72.653],[41.321,72.864],[41.107,73.092],[40.873,73.314],[40.604,73.521],[40.329,73.729],[40.07,73.948],[39.826,74.177],[39.596,74.407],[39.435,74.631],[39.326,74.849],[39.222,75.065],[39.062,75.289],[38.852,75.519],[38.661,75.746],[38.607,75.953],[38.771,76.131],[39.097,76.288],[39.465,76.44],[39.833,76.592],[40.177,76.748],[40.513,76.906],[40.825,77.068],[41.122,77.233],[41.415,77.399],[41.718,77.565],[42.049,77.727],[42.342,77.853],[42.558,77.929]]}}]}