{"type":"FeatureCollection","properties":{"chart":"ana","src":"Z__C_EDZW_20261010133013_tka01,ana_bwkman_dwdna_O_000000_000000_202610101200_WV12.png","valid_time":"2026-10-10T12:00:00+00:00"},"features":[{"type":"Feature","properties":{"kind":"cold","line":0,"px_len":491},"geometry":{"type":"LineString","coordinates":[[14.371,36.111],[14.399,36.253],[14.459,36.388],[14.538,36.524],[14.632,36.659],[14.743,36.793],[14.845,36.928],[14.91,37.065],[14.936,37.206],[14.955,37.348],[14.984,37.489],[15.017,37.629],[15.057,37.77],[15.102,37.91],[15.146,38.05],[15.187,38.191],[15.219,38.333],[15.245,38.475],[15.274,38.617],[15.31,38.759],[15.358,38.9],[15.401,39.042],[15.406,39.187],[15.367,39.335],[15.308,39.486],[15.259,39.635],[15.216,39.785],[15.18,39.934],[15.144,40.083],[15.105,40.232],[15.059,40.382],[15.004,40.533],[14.945,40.684],[14.888,40.836],[14.845,40.986],[14.813,41.136],[14.783,41.286],[14.715,41.422],[14.587,41.534],[14.409,41.629],[14.222,41.727],[14.035,41.837],[13.848,41.953],[13.66,42.068],[13.471,42.173],[13.279,42.269],[13.086,42.357],[12.891,42.436],[12.708,42.514],[12.541,42.61]]}},{"type":"Feature","properties":{"kind":"cold","line":1,"px_len":1637},"geometry":{"type":"LineString","coordinates":[[21.487,54.922],[21.289,54.818],[21.132,54.685],[20.979,54.539],[20.826,54.393],[20.684,54.246],[20.564,54.096],[20.456,53.945],[20.357,53.793],[20.222,53.652],[20.014,53.529],[19.75,53.423],[19.486,53.309],[19.237,53.183],[18.999,53.047],[18.772,52.908],[18.549,52.768],[18.323,52.629],[18.093,52.49],[17.859,52.35],[17.621,52.211],[17.379,52.072],[17.136,51.933],[16.891,51.793],[16.655,51.653],[16.437,51.51],[16.246,51.366],[16.09,51.218],[15.962,51.069],[15.814,50.943],[15.613,50.856],[15.36,50.795],[15.099,50.722],[14.836,50.629],[14.571,50.514],[14.305,50.384],[14.041,50.248],[13.78,50.116],[13.521,49.987],[13.263,49.861],[13.009,49.738],[12.756,49.619],[12.505,49.503],[12.256,49.39],[12.008,49.28],[11.763,49.174],[11.519,49.068],[11.276,48.957],[11.034,48.832],[10.798,48.693],[10.581,48.545],[10.37,48.434],[10.151,48.367],[9.918,48.335],[9.685,48.303],[9.452,48.263],[9.22,48.21],[8.989,48.144],[8.758,48.074],[8.529,48.002],[8.3,47.929],[8.072,47.854],[7.845,47.777],[7.62,47.697],[7.395,47.613],[7.171,47.527],[6.949,47.443],[6.727,47.36],[6.505,47.279],[6.285,47.2],[6.065,47.124],[5.846,47.046],[5.629,46.961],[5.413,46.865],[5.201,46.754],[4.99,46.636],[4.776,46.551],[4.559,46.504],[4.339,46.479],[4.121,46.447],[3.903,46.41],[3.688,46.362],[3.474,46.306],[3.262,46.241],[3.05,46.176],[2.839,46.111],[2.629,46.047],[2.419,45.983],[2.21,45.919],[2.001,45.856],[1.792,45.793],[1.585,45.731],[1.377,45.669],[1.17,45.607],[0.964,45.546],[0.758,45.486],[0.552,45.426],[0.347,45.367],[0.142,45.306],[-0.061,45.239],[-0.261,45.167],[-0.459,45.086],[-0.654,44.995],[-0.849,44.907],[-1.05,44.849],[-1.26,44.821],[-1.471,44.801],[-1.681,44.775],[-1.888,44.74],[-2.093,44.699],[-2.296,44.653],[-2.499,44.604],[-2.699,44.552],[-2.9,44.499],[-3.1,44.447],[-3.3,44.396],[-3.499,44.344],[-3.699,44.295],[-3.899,44.245],[-4.099,44.199],[-4.3,44.154],[-4.501,44.113],[-4.704,44.076],[-4.908,44.042],[-5.113,44.011],[-5.319,43.985],[-5.525,43.959],[-5.731,43.933],[-5.937,43.906],[-6.14,43.873],[-6.343,43.838],[-6.551,43.817],[-6.776,43.839],[-7.015,43.895],[-7.256,43.951],[-7.491,43.992],[-7.723,44.023],[-7.951,44.046],[-8.18,44.067],[-8.409,44.088],[-8.639,44.11],[-8.87,44.133],[-9.102,44.159],[-9.336,44.186],[-9.571,44.213],[-9.807,44.242],[-10.045,44.273],[-10.284,44.305],[-10.524,44.338],[-10.767,44.373],[-11.01,44.408],[-11.249,44.434],[-11.479,44.442],[-11.701,44.435],[-11.918,44.422],[-12.117,44.447],[-12.294,44.521],[-12.46,44.633],[-12.644,44.743],[-12.851,44.846],[-13.072,44.945],[-13.295,45.043],[-13.511,45.143],[-13.697,45.235],[-13.839,45.308]]}},{"type":"Feature","properties":{"kind":"warm","line":1,"px_len":595},"geometry":{"type":"LineString","coordinates":[[-13.839,45.308],[-14.047,45.414],[-14.231,45.52],[-14.402,45.633],[-14.553,45.752],[-14.689,45.877],[-14.812,46.005],[-14.931,46.135],[-15.045,46.267],[-15.186,46.39],[-15.378,46.498],[-15.614,46.591],[-15.857,46.681],[-16.084,46.777],[-16.293,46.878],[-16.485,46.985],[-16.664,47.096],[-16.837,47.21],[-17.01,47.323],[-17.185,47.436],[-17.363,47.548],[-17.544,47.659],[-17.726,47.769],[-17.911,47.879],[-18.1,47.987],[-18.284,48.097],[-18.453,48.212],[-18.608,48.333],[-18.755,48.456],[-18.899,48.581],[-19.053,48.702],[-19.253,48.806],[-19.511,48.875],[-19.795,48.911],[-20.084,48.933],[-20.382,48.963],[-20.695,49.007],[-21.017,49.061],[-21.342,49.115],[-21.661,49.16],[-21.972,49.195],[-22.276,49.221],[-22.575,49.24],[-22.873,49.257],[-23.175,49.277],[-23.489,49.312],[-23.802,49.36],[-24.114,49.406],[-24.409,49.423],[-24.666,49.392],[-24.888,49.328],[-25.099,49.253],[-25.312,49.181],[-25.529,49.112],[-25.748,49.046],[-25.975,48.987],[-26.206,48.931],[-26.434,48.874],[-26.656,48.81],[-26.832,48.75],[-26.946,48.704]]}},{"type":"Feature","properties":{"kind":"cold","line":1,"px_len":247},"geometry":{"type":"LineString","coordinates":[[-26.946,48.704],[-27.147,48.617],[-27.329,48.524],[-27.505,48.422],[-27.681,48.32],[-27.854,48.215],[-28.022,48.108],[-28.184,47.995],[-28.336,47.874],[-28.478,47.745],[-28.608,47.607],[-28.726,47.459],[-28.85,47.317],[-29.001,47.199],[-29.177,47.102],[-29.357,47.01],[-29.528,46.911],[-29.693,46.807],[-29.853,46.698],[-30.006,46.586],[-30.158,46.472],[-30.31,46.359],[-30.463,46.248],[-30.62,46.139],[-30.761,46.043],[-30.873,45.969]]}},{"type":"Feature","properties":{"kind":"cold","line":2,"px_len":428},"geometry":{"type":"LineString","coordinates":[[-35.114,44.089],[-35.284,43.994],[-35.425,43.888],[-35.556,43.77],[-35.679,43.647],[-35.793,43.518],[-35.893,43.38],[-35.983,43.235],[-36.059,43.08],[-36.121,42.915],[-36.194,42.76],[-36.297,42.625],[-36.427,42.511],[-36.557,42.398],[-36.682,42.281],[-36.801,42.16],[-36.912,42.034],[-37.019,41.906],[-37.124,41.777],[-37.232,41.649],[-37.341,41.524],[-37.454,41.401],[-37.57,41.281],[-37.687,41.162],[-37.804,41.044],[-37.92,40.925],[-38.037,40.808],[-38.155,40.691],[-38.273,40.574],[-38.392,40.459],[-38.51,40.343],[-38.622,40.224],[-38.727,40.1],[-38.825,39.971],[-38.919,39.841],[-39.037,39.727],[-39.183,39.633],[-39.348,39.551],[-39.509,39.467],[-39.665,39.38],[-39.816,39.29],[-39.969,39.201],[-40.111,39.119],[-40.232,39.052]]}},{"type":"Feature","properties":{"kind":"warm","line":2,"px_len":382},"geometry":{"type":"LineString","coordinates":[[-40.232,39.052],[-40.409,38.975],[-40.588,38.908],[-40.786,38.849],[-41.002,38.801],[-41.236,38.764],[-41.474,38.73],[-41.693,38.683],[-41.876,38.613],[-42.036,38.529],[-42.189,38.44],[-42.351,38.358],[-42.528,38.284],[-42.726,38.224],[-42.945,38.175],[-43.179,38.136],[-43.426,38.104],[-43.679,38.074],[-43.932,38.044],[-44.181,38.011],[-44.43,37.977],[-44.681,37.944],[-44.934,37.912],[-45.181,37.885],[-45.418,37.868],[-45.64,37.867],[-45.85,37.88],[-46.062,37.889],[-46.282,37.876],[-46.49,37.826],[-46.665,37.747],[-46.813,37.654],[-46.957,37.558],[-47.106,37.465],[-47.265,37.378],[-47.436,37.297],[-47.607,37.216],[-47.77,37.132],[-47.883,37.068],[-47.941,37.032]]}},{"type":"Feature","properties":{"kind":"occl","line":3,"px_len":731},"geometry":{"type":"LineString","coordinates":[[21.1,58.339],[20.79,58.381],[20.494,58.425],[20.193,58.475],[19.895,58.536],[19.598,58.601],[19.297,58.657],[18.991,58.704],[18.683,58.745],[18.374,58.783],[18.064,58.82],[17.753,58.855],[17.44,58.884],[17.125,58.909],[16.81,58.934],[16.495,58.96],[16.178,58.98],[15.854,58.969],[15.523,58.923],[15.19,58.858],[14.86,58.8],[14.533,58.75],[14.206,58.693],[13.876,58.607],[13.555,58.483],[13.251,58.341],[12.956,58.205],[12.648,58.085],[12.33,57.981],[12.013,57.89],[11.699,57.814],[11.387,57.739],[11.076,57.658],[10.766,57.569],[10.459,57.481],[10.153,57.407],[9.85,57.371],[9.547,57.377],[9.244,57.414],[8.94,57.454],[8.635,57.493],[8.33,57.529],[8.024,57.566],[7.744,57.628],[7.531,57.738],[7.385,57.891],[7.252,58.052],[7.103,58.213],[6.932,58.373],[6.762,58.533],[6.615,58.694],[6.508,58.856],[6.425,59.018],[6.364,59.182],[6.332,59.346],[6.325,59.511],[6.342,59.676],[6.345,59.842],[6.328,60.007],[6.298,60.172],[6.277,60.337],[6.259,60.503],[6.237,60.668],[6.182,60.833],[6.053,60.995],[5.838,61.155],[5.575,61.314],[5.303,61.472],[5.055,61.63],[4.829,61.788],[4.626,61.948],[4.428,62.107],[4.274,62.265],[4.178,62.432]]}},{"type":"Feature","properties":{"kind":"cold","line":4,"px_len":763},"geometry":{"type":"LineString","coordinates":[[-50.156,39.58],[-49.925,39.647],[-49.714,39.716],[-49.541,39.805],[-49.413,39.916],[-49.297,40.032],[-49.173,40.145],[-49.043,40.255],[-48.901,40.36],[-48.752,40.461],[-48.599,40.561],[-48.448,40.662],[-48.3,40.765],[-48.158,40.87],[-48.018,40.976],[-47.88,41.084],[-47.74,41.191],[-47.596,41.296],[-47.445,41.398],[-47.285,41.495],[-47.118,41.589],[-46.969,41.693],[-46.857,41.814],[-46.773,41.95],[-46.686,42.085],[-46.591,42.216],[-46.489,42.344],[-46.38,42.468],[-46.27,42.593],[-46.163,42.719],[-46.062,42.849],[-45.961,42.979],[-45.863,43.111],[-45.766,43.243],[-45.669,43.376],[-45.572,43.509],[-45.476,43.643],[-45.377,43.776],[-45.278,43.909],[-45.171,44.039],[-45.061,44.167],[-44.939,44.29],[-44.813,44.41],[-44.692,44.534],[-44.608,44.677],[-44.558,44.837],[-44.514,45.002],[-44.456,45.159],[-44.387,45.311],[-44.309,45.459],[-44.226,45.605],[-44.14,45.749],[-44.051,45.893],[-43.965,46.038],[-43.88,46.184],[-43.794,46.33],[-43.706,46.475],[-43.617,46.621],[-43.529,46.767],[-43.44,46.913],[-43.351,47.059],[-43.261,47.206],[-43.168,47.351],[-43.068,47.493],[-42.959,47.631],[-42.841,47.764],[-42.715,47.894],[-42.58,48.019],[-42.464,48.155],[-42.396,48.316],[-42.366,48.497],[-42.336,48.679],[-42.291,48.853],[-42.235,49.022],[-42.167,49.186],[-42.096,49.347],[-42.03,49.464],[-41.979,49.526]]}},{"type":"Feature","properties":{"kind":"occl","line":5,"px_len":435},"geometry":{"type":"LineString","coordinates":[[-41.471,52.913],[-41.524,53.115],[-41.58,53.314],[-41.656,53.512],[-41.754,53.695],[-41.844,53.878],[-41.897,54.072],[-41.893,54.266],[-41.856,54.454],[-41.81,54.639],[-41.785,54.834],[-41.774,55.036],[-41.732,55.223],[-41.635,55.386],[-41.503,55.533],[-41.375,55.683],[-41.261,55.84],[-41.16,56.003],[-41.076,56.174],[-40.999,56.349],[-40.925,56.526],[-40.85,56.703],[-40.774,56.88],[-40.689,57.054],[-40.586,57.22],[-40.463,57.377],[-40.321,57.526],[-40.171,57.672],[-40.033,57.824],[-39.944,57.999],[-39.893,58.192],[-39.84,58.384],[-39.764,58.567],[-39.682,58.747],[-39.629,58.936],[-39.652,59.128],[-39.766,59.302],[-39.942,59.451],[-40.142,59.586],[-40.348,59.718],[-40.563,59.846],[-40.797,59.963],[-41.055,60.067],[-41.269,60.154],[-41.41,60.216]]}},{"type":"Feature","properties":{"kind":"cold","line":6,"px_len":1108},"geometry":{"type":"LineString","coordinates":[[41.35,49.158],[41.478,49.293],[41.643,49.406],[41.832,49.513],[42.035,49.614],[42.252,49.709],[42.459,49.809],[42.626,49.925],[42.757,50.057],[42.885,50.191],[43.022,50.321],[43.169,50.447],[43.327,50.568],[43.494,50.686],[43.671,50.8],[43.85,50.914],[44.03,51.027],[44.209,51.141],[44.39,51.254],[44.572,51.367],[44.755,51.48],[44.937,51.593],[45.121,51.706],[45.311,51.816],[45.506,51.924],[45.712,52.027],[45.928,52.126],[46.158,52.219],[46.37,52.32],[46.541,52.441],[46.675,52.579],[46.803,52.719],[46.946,52.853],[47.1,52.983],[47.263,53.109],[47.426,53.235],[47.585,53.363],[47.744,53.492],[47.896,53.624],[48.051,53.756],[48.199,53.891],[48.342,54.029],[48.484,54.168],[48.626,54.307],[48.767,54.448],[48.904,54.591],[49.036,54.736],[49.165,54.883],[49.292,55.032],[49.415,55.184],[49.539,55.335],[49.671,55.484],[49.816,55.626],[49.973,55.763],[50.139,55.897],[50.308,56.029],[50.421,56.189],[50.476,56.378],[50.498,56.582],[50.544,56.776],[50.61,56.961],[50.691,57.139],[50.776,57.315],[50.863,57.492],[50.948,57.67],[51.033,57.848],[51.118,58.027],[51.204,58.206],[51.288,58.386],[51.37,58.569],[51.451,58.751],[51.532,58.935],[51.616,59.118],[51.71,59.297],[51.825,59.467],[51.965,59.625],[52.123,59.776],[52.272,59.925],[52.331,60.087],[52.304,60.27],[52.234,60.476],[52.201,60.693],[52.201,60.913],[52.229,61.126],[52.266,61.337],[52.304,61.547],[52.341,61.758],[52.375,61.971],[52.401,62.187],[52.418,62.408],[52.424,62.635],[52.423,62.864],[52.416,63.096],[52.42,63.323],[52.448,63.541],[52.515,63.743],[52.58,63.933],[52.56,64.113],[52.448,64.289],[52.296,64.466],[52.149,64.646],[52.009,64.83],[51.871,65.016],[51.74,65.206],[51.635,65.41],[51.475,65.589],[51.143,65.69],[50.622,65.703],[50.055,65.692],[49.505,65.687],[49.018,65.69],[48.609,65.693]]}},{"type":"Feature","properties":{"kind":"occl","line":6,"px_len":583},"geometry":{"type":"LineString","coordinates":[[48.609,65.693],[48.086,65.702],[47.561,65.696],[47.013,65.673],[46.491,65.625],[46.03,65.556],[45.627,65.468],[45.248,65.374],[44.846,65.286],[44.38,65.217],[43.886,65.155],[43.416,65.085],[42.998,64.999],[42.608,64.906],[42.188,64.82],[41.74,64.742],[41.315,64.657],[40.943,64.557],[40.614,64.446],[40.326,64.324],[40.068,64.195],[39.844,64.057],[39.65,63.912],[39.477,63.762],[39.315,63.609],[39.158,63.456],[39.014,63.299],[38.885,63.139],[38.758,62.98],[38.637,62.818],[38.523,62.656],[38.419,62.491],[38.314,62.327],[38.208,62.164],[38.096,62.002],[37.981,61.841],[37.868,61.681],[37.759,61.52],[37.66,61.356],[37.58,61.188],[37.523,61.014],[37.487,60.836],[37.455,60.656],[37.389,60.485],[37.269,60.329],[37.113,60.183],[36.96,60.036],[36.807,59.89],[36.658,59.742],[36.496,59.599],[36.292,59.466],[36.046,59.345],[35.79,59.226],[35.546,59.104],[35.32,58.977],[35.11,58.847],[34.916,58.713],[34.738,58.576],[34.626,58.466],[34.583,58.395]]}},{"type":"Feature","properties":{"kind":"warm","line":7,"px_len":493},"geometry":{"type":"LineString","coordinates":[[60.969,59.556],[61.066,59.743],[61.208,59.909],[61.387,60.063],[61.574,60.213],[61.74,60.377],[61.852,60.571],[61.889,60.776],[61.859,60.973],[61.809,61.164],[61.782,61.364],[61.792,61.578],[61.824,61.8],[61.849,62.02],[61.845,62.229],[61.811,62.428],[61.761,62.621],[61.69,62.808],[61.603,62.989],[61.506,63.167],[61.411,63.346],[61.326,63.53],[61.259,63.72],[61.206,63.916],[61.145,64.109],[61.041,64.288],[60.84,64.434],[60.563,64.554],[60.25,64.663],[59.952,64.776],[59.659,64.892],[59.374,65.012],[59.086,65.13],[58.794,65.248],[58.488,65.361],[58.17,65.47],[57.851,65.579],[57.522,65.685],[57.172,65.784],[56.787,65.869],[56.362,65.939],[55.894,65.992],[55.379,66.026],[54.838,66.031],[54.3,66.015],[53.782,65.984],[53.259,65.955],[52.753,65.917],[52.291,65.863],[51.978,65.805],[51.81,65.766]]}}]}