{"type":"FeatureCollection","properties":{"chart":"ana","src":"Z__C_EDZW_20261005190547_tka01,ana_bwkman_dwdna_O_000000_000000_202610051800_WV12.png","valid_time":"2026-10-05T18:00:00+00:00"},"features":[{"type":"Feature","properties":{"kind":"cold","line":0,"px_len":567},"geometry":{"type":"LineString","coordinates":[[-31.276,44.829],[-31.07,44.876],[-30.885,44.947],[-30.698,45.025],[-30.508,45.101],[-30.312,45.171],[-30.108,45.235],[-29.895,45.292],[-29.684,45.35],[-29.496,45.428],[-29.335,45.529],[-29.183,45.639],[-29.022,45.742],[-28.855,45.84],[-28.678,45.93],[-28.497,46.016],[-28.311,46.099],[-28.123,46.179],[-27.935,46.261],[-27.749,46.344],[-27.562,46.427],[-27.379,46.514],[-27.195,46.6],[-27.011,46.686],[-26.826,46.772],[-26.646,46.863],[-26.464,46.953],[-26.282,47.043],[-26.099,47.133],[-25.92,47.227],[-25.74,47.32],[-25.557,47.411],[-25.375,47.504],[-25.193,47.597],[-25.01,47.689],[-24.825,47.781],[-24.64,47.872],[-24.45,47.959],[-24.255,48.043],[-24.053,48.119],[-23.842,48.186],[-23.624,48.247],[-23.417,48.318],[-23.23,48.411],[-23.063,48.527],[-22.895,48.641],[-22.722,48.75],[-22.538,48.849],[-22.348,48.943],[-22.156,49.034],[-21.963,49.126],[-21.77,49.218],[-21.578,49.312],[-21.385,49.405],[-21.192,49.5],[-21.001,49.596],[-20.83,49.685],[-20.701,49.759]]}},{"type":"Feature","properties":{"kind":"warm","line":0,"px_len":300},"geometry":{"type":"LineString","coordinates":[[-20.701,49.759],[-20.502,49.857],[-20.316,49.955],[-20.126,50.057],[-19.936,50.16],[-19.746,50.263],[-19.558,50.369],[-19.37,50.478],[-19.186,50.591],[-19.008,50.712],[-18.837,50.843],[-18.673,50.983],[-18.516,51.133],[-18.358,51.283],[-18.175,51.405],[-17.963,51.492],[-17.73,51.556],[-17.5,51.624],[-17.272,51.695],[-17.05,51.774],[-16.831,51.857],[-16.617,51.946],[-16.405,52.041],[-16.195,52.138],[-15.983,52.234],[-15.769,52.329],[-15.554,52.423],[-15.337,52.515],[-15.117,52.605],[-14.904,52.691],[-14.693,52.77]]}},{"type":"Feature","properties":{"kind":"cold","line":0,"px_len":1297},"geometry":{"type":"LineString","coordinates":[[-14.693,52.77],[-14.465,52.861],[-14.244,52.945],[-14.016,53.029],[-13.786,53.11],[-13.555,53.192],[-13.322,53.273],[-13.088,53.352],[-12.853,53.43],[-12.614,53.506],[-12.374,53.58],[-12.129,53.646],[-11.88,53.709],[-11.626,53.764],[-11.365,53.809],[-11.1,53.848],[-10.845,53.904],[-10.606,53.986],[-10.38,54.089],[-10.148,54.186],[-9.91,54.274],[-9.664,54.351],[-9.413,54.42],[-9.159,54.484],[-8.902,54.545],[-8.645,54.606],[-8.385,54.664],[-8.125,54.722],[-7.864,54.779],[-7.601,54.835],[-7.339,54.892],[-7.075,54.947],[-6.811,55.003],[-6.545,55.056],[-6.278,55.11],[-6.012,55.164],[-5.745,55.219],[-5.478,55.274],[-5.21,55.329],[-4.942,55.386],[-4.674,55.442],[-4.404,55.497],[-4.134,55.551],[-3.863,55.606],[-3.591,55.661],[-3.319,55.715],[-3.046,55.769],[-2.772,55.823],[-2.497,55.877],[-2.221,55.928],[-1.944,55.977],[-1.664,56.021],[-1.382,56.062],[-1.097,56.092],[-0.808,56.114],[-0.518,56.131],[-0.238,56.18],[0.033,56.261],[0.301,56.36],[0.573,56.448],[0.848,56.527],[1.128,56.598],[1.41,56.661],[1.694,56.721],[1.979,56.781],[2.264,56.842],[2.551,56.902],[2.838,56.962],[3.127,57.023],[3.416,57.083],[3.706,57.144],[3.998,57.205],[4.29,57.267],[4.583,57.329],[4.877,57.393],[5.172,57.457],[5.468,57.522],[5.764,57.59],[6.062,57.661],[6.361,57.733],[6.661,57.809],[6.962,57.887],[7.264,57.97],[7.567,58.058],[7.872,58.154],[8.179,58.257],[8.487,58.367],[8.797,58.477],[9.11,58.581],[9.425,58.669],[9.742,58.74],[10.056,58.799],[10.314,58.884],[10.501,59.009],[10.648,59.168],[10.826,59.331],[11.044,59.493],[11.296,59.654],[11.568,59.815],[11.843,59.974],[12.11,60.134],[12.37,60.294],[12.625,60.453],[12.879,60.611],[13.131,60.77],[13.38,60.928],[13.628,61.086],[13.873,61.244],[14.114,61.402],[14.352,61.559],[14.587,61.717],[14.819,61.874],[15.047,62.031],[15.271,62.188],[15.492,62.346],[15.728,62.502],[15.989,62.657],[16.297,62.808],[16.634,62.95],[16.959,63.087],[17.195,63.232],[17.352,63.389],[17.495,63.55],[17.671,63.708],[17.878,63.865],[18.11,64.02],[18.369,64.172],[18.657,64.323],[18.982,64.467],[19.302,64.555],[19.571,64.581]]}},{"type":"Feature","properties":{"kind":"warm","line":0,"px_len":480},"geometry":{"type":"LineString","coordinates":[[19.571,64.581],[19.953,64.52],[20.318,64.464],[20.694,64.414],[21.072,64.372],[21.448,64.327],[21.815,64.266],[22.162,64.169],[22.448,64.028],[22.633,63.857],[22.722,63.677],[22.779,63.498],[22.852,63.318],[22.956,63.134],[23.081,62.948],[23.21,62.761],[23.337,62.575],[23.46,62.388],[23.584,62.201],[23.703,62.015],[23.814,61.83],[23.91,61.646],[23.99,61.464],[24.053,61.284],[24.099,61.107],[24.131,60.931],[24.156,60.756],[24.174,60.582],[24.192,60.408],[24.221,60.234],[24.264,60.057],[24.325,59.878],[24.399,59.697],[24.465,59.517],[24.465,59.346],[24.382,59.187],[24.245,59.035],[24.114,58.883],[23.992,58.73],[23.888,58.574],[23.799,58.416],[23.716,58.258],[23.626,58.101],[23.523,57.946],[23.417,57.791],[23.301,57.638],[23.185,57.485],[23.075,57.338],[22.976,57.193]]}},{"type":"Feature","properties":{"kind":"occl","line":1,"px_len":321},"geometry":{"type":"LineString","coordinates":[[19.316,64.737],[19.231,64.918],[19.168,65.091],[19.109,65.266],[19.076,65.44],[19.057,65.613],[19.062,65.785],[19.079,65.955],[19.118,66.125],[19.177,66.293],[19.24,66.461],[19.289,66.63],[19.328,66.8],[19.37,66.969],[19.412,67.139],[19.464,67.309],[19.472,67.481],[19.358,67.662],[19.124,67.851],[18.864,68.04],[18.632,68.227],[18.405,68.414],[18.125,68.595],[17.758,68.752],[17.329,68.87],[16.881,68.957],[16.43,69.043],[15.977,69.137],[15.526,69.247],[15.071,69.36],[14.611,69.472],[14.176,69.588],[13.783,69.729]]}},{"type":"Feature","properties":{"kind":"occl","line":2,"px_len":1293},"geometry":{"type":"LineString","coordinates":[[42.641,51.932],[42.592,52.145],[42.54,52.351],[42.506,52.554],[42.503,52.745],[42.534,52.923],[42.568,53.094],[42.545,53.266],[42.459,53.451],[42.359,53.65],[42.285,53.859],[42.228,54.069],[42.153,54.272],[42.034,54.454],[41.874,54.607],[41.703,54.751],[41.542,54.907],[41.401,55.081],[41.278,55.274],[41.168,55.479],[41.062,55.69],[40.959,55.905],[40.853,56.119],[40.75,56.337],[40.646,56.555],[40.546,56.778],[40.448,57.001],[40.354,57.221],[40.268,57.439],[40.185,57.656],[40.11,57.87],[40.052,58.078],[40.025,58.277],[40.036,58.464],[40.085,58.64],[40.159,58.808],[40.201,58.987],[40.193,59.181],[40.152,59.385],[40.141,59.58],[40.165,59.765],[40.197,59.948],[40.198,60.14],[40.139,60.344],[40.042,60.558],[39.953,60.77],[39.904,60.977],[39.886,61.174],[39.893,61.365],[39.912,61.553],[39.933,61.741],[39.956,61.928],[39.989,62.112],[40.032,62.294],[40.08,62.475],[40.139,62.654],[40.2,62.832],[40.273,63.007],[40.351,63.181],[40.441,63.353],[40.537,63.523],[40.639,63.692],[40.746,63.86],[40.857,64.027],[40.974,64.193],[41.098,64.358],[41.232,64.52],[41.374,64.681],[41.523,64.84],[41.683,64.997],[41.863,65.149],[42.062,65.296],[42.28,65.439],[42.515,65.577],[42.77,65.711],[43.027,65.844],[43.253,65.987],[43.454,66.136],[43.659,66.285],[43.877,66.431],[44.09,66.579],[44.287,66.731],[44.436,66.898],[44.538,67.078],[44.631,67.26],[44.742,67.439],[44.879,67.611],[45.041,67.776],[45.228,67.936],[45.43,68.092],[45.643,68.246],[45.855,68.401],[46.067,68.556],[46.284,68.71],[46.502,68.865],[46.721,69.02],[46.938,69.177],[47.153,69.335],[47.359,69.496],[47.556,69.66],[47.74,69.828],[47.914,70.0],[48.082,70.174],[48.239,70.352],[48.382,70.535],[48.512,70.722],[48.62,70.915],[48.701,71.116],[48.748,71.326],[48.775,71.542],[48.815,71.755],[48.89,71.96],[49.006,72.155],[49.063,72.336],[48.962,72.508],[48.718,72.678],[48.461,72.859],[48.23,73.052],[48.02,73.253],[47.784,73.447],[47.45,73.607],[47.0,73.727],[46.498,73.83],[46.0,73.935],[45.507,74.044],[45.015,74.154],[44.518,74.264],[44.008,74.37],[43.473,74.467],[43.049,74.535],[42.792,74.572]]}},{"type":"Feature","properties":{"kind":"warm","line":3,"px_len":398},"geometry":{"type":"LineString","coordinates":[[-57.407,42.767],[-57.58,42.857],[-57.732,42.968],[-57.882,43.093],[-58.027,43.227],[-58.167,43.371],[-58.306,43.519],[-58.452,43.656],[-58.621,43.754],[-58.808,43.82],[-59.004,43.871],[-59.197,43.926],[-59.388,43.987],[-59.577,44.053],[-59.763,44.123],[-59.948,44.199],[-60.131,44.277],[-60.315,44.355],[-60.501,44.43],[-60.689,44.501],[-60.88,44.569],[-61.072,44.634],[-61.267,44.695],[-61.464,44.751],[-61.665,44.801],[-61.867,44.85],[-62.07,44.896],[-62.272,44.943],[-62.474,44.993],[-62.672,45.052],[-62.868,45.117],[-63.062,45.187],[-63.259,45.249],[-63.472,45.278],[-63.705,45.261],[-63.95,45.212],[-64.197,45.159],[-64.439,45.114],[-64.675,45.083],[-64.881,45.08],[-65.047,45.099]]}}]}