{"type":"FeatureCollection","properties":{"chart":"ana","src":"Z__C_EDZW_20261006185618_tka01,ana_bwkman_dwdna_O_000000_000000_202610061800_WV12.png","valid_time":"2026-10-06T18:00:00+00:00"},"features":[{"type":"Feature","properties":{"kind":"cold","line":0,"px_len":1057},"geometry":{"type":"LineString","coordinates":[[-21.302,41.686],[-21.138,41.776],[-20.984,41.865],[-20.824,41.954],[-20.664,42.044],[-20.503,42.133],[-20.341,42.222],[-20.179,42.311],[-20.016,42.399],[-19.852,42.487],[-19.689,42.575],[-19.525,42.665],[-19.36,42.753],[-19.194,42.839],[-19.023,42.921],[-18.849,42.999],[-18.67,43.07],[-18.485,43.134],[-18.307,43.208],[-18.15,43.312],[-18.012,43.443],[-17.874,43.575],[-17.728,43.697],[-17.576,43.81],[-17.417,43.917],[-17.257,44.021],[-17.095,44.125],[-16.934,44.23],[-16.773,44.336],[-16.612,44.444],[-16.451,44.553],[-16.29,44.662],[-16.131,44.775],[-15.971,44.888],[-15.811,45.003],[-15.653,45.121],[-15.495,45.24],[-15.338,45.362],[-15.181,45.486],[-15.025,45.612],[-14.868,45.738],[-14.712,45.868],[-14.556,45.999],[-14.402,46.133],[-14.249,46.271],[-14.095,46.409],[-13.942,46.551],[-13.79,46.695],[-13.637,46.84],[-13.481,46.981],[-13.318,47.112],[-13.145,47.229],[-12.964,47.334],[-12.778,47.432],[-12.631,47.553],[-12.523,47.708],[-12.427,47.896],[-12.302,48.081],[-12.154,48.252],[-11.995,48.406],[-11.829,48.551],[-11.66,48.691],[-11.488,48.83],[-11.315,48.968],[-11.14,49.104],[-10.963,49.239],[-10.784,49.372],[-10.603,49.505],[-10.42,49.634],[-10.235,49.764],[-10.049,49.893],[-9.862,50.021],[-9.672,50.147],[-9.48,50.272],[-9.287,50.397],[-9.094,50.523],[-8.9,50.65],[-8.704,50.777],[-8.507,50.901],[-8.308,51.027],[-8.109,51.153],[-7.905,51.273],[-7.695,51.383],[-7.478,51.48],[-7.255,51.566],[-7.026,51.643],[-6.801,51.721],[-6.601,51.831],[-6.423,51.98],[-6.243,52.144],[-6.046,52.298],[-5.837,52.432],[-5.621,52.554],[-5.4,52.668],[-5.176,52.777],[-4.949,52.883],[-4.72,52.987],[-4.489,53.088],[-4.256,53.187],[-4.021,53.286],[-3.785,53.382],[-3.546,53.476],[-3.305,53.565],[-3.062,53.654],[-2.816,53.738],[-2.594,53.81],[-2.417,53.861]]}},{"type":"Feature","properties":{"kind":"warm","line":0,"px_len":345},"geometry":{"type":"LineString","coordinates":[[-2.417,53.861],[-2.163,53.945],[-1.917,54.021],[-1.664,54.095],[-1.408,54.166],[-1.151,54.233],[-0.891,54.296],[-0.63,54.356],[-0.367,54.414],[-0.103,54.469],[0.162,54.522],[0.429,54.573],[0.697,54.621],[0.966,54.67],[1.233,54.725],[1.499,54.789],[1.765,54.858],[2.03,54.935],[2.295,55.014],[2.565,55.077],[2.844,55.101],[3.129,55.093],[3.416,55.077],[3.7,55.068],[3.984,55.065],[4.266,55.068],[4.548,55.076],[4.828,55.09],[5.109,55.102],[5.391,55.115],[5.672,55.127],[5.953,55.137],[6.235,55.145],[6.517,55.151],[6.753,55.152],[6.913,55.148]]}},{"type":"Feature","properties":{"kind":"cold","line":0,"px_len":1369},"geometry":{"type":"LineString","coordinates":[[6.913,55.148],[7.202,55.149],[7.479,55.146],[7.761,55.139],[8.044,55.131],[8.327,55.121],[8.609,55.109],[8.891,55.096],[9.173,55.08],[9.455,55.059],[9.736,55.029],[10.017,54.989],[10.296,54.94],[10.575,54.878],[10.852,54.809],[11.129,54.763],[11.407,54.748],[11.686,54.748],[11.965,54.738],[12.243,54.722],[12.52,54.699],[12.796,54.67],[13.07,54.633],[13.344,54.591],[13.617,54.548],[13.889,54.505],[14.16,54.462],[14.431,54.418],[14.702,54.376],[14.972,54.333],[15.242,54.292],[15.511,54.251],[15.78,54.213],[16.049,54.177],[16.318,54.143],[16.587,54.109],[16.856,54.079],[17.125,54.049],[17.394,54.022],[17.663,53.996],[17.933,53.973],[18.202,53.949],[18.471,53.924],[18.74,53.898],[19.009,53.876],[19.278,53.855],[19.548,53.836],[19.817,53.813],[20.087,53.796],[20.357,53.777],[20.627,53.76],[20.897,53.74],[21.165,53.719],[21.432,53.692],[21.698,53.662],[21.959,53.621],[22.216,53.571],[22.477,53.532],[22.751,53.525],[23.037,53.55],[23.325,53.577],[23.61,53.594],[23.892,53.603],[24.172,53.606],[24.45,53.604],[24.729,53.603],[25.009,53.603],[25.29,53.606],[25.572,53.609],[25.855,53.614],[26.14,53.621],[26.426,53.63],[26.714,53.64],[27.003,53.652],[27.294,53.667],[27.588,53.683],[27.883,53.702],[28.181,53.724],[28.48,53.748],[28.782,53.774],[29.086,53.801],[29.393,53.831],[29.701,53.863],[30.013,53.897],[30.327,53.933],[30.641,53.967],[30.951,53.993],[31.252,54.004],[31.545,54.003],[31.829,53.995],[32.094,54.024],[32.34,54.102],[32.582,54.214],[32.858,54.32],[33.164,54.417],[33.497,54.507],[33.845,54.593],[34.194,54.678],[34.541,54.762],[34.879,54.848],[35.213,54.934],[35.543,55.022],[35.868,55.109],[36.189,55.198],[36.508,55.287],[36.824,55.376],[37.136,55.466],[37.442,55.557],[37.739,55.651],[38.026,55.747],[38.312,55.844],[38.608,55.937],[38.925,56.022],[39.256,56.094],[39.599,56.152],[39.96,56.204],[40.337,56.256],[40.716,56.303],[41.08,56.325],[41.428,56.328],[41.767,56.321],[42.102,56.32],[42.367,56.367],[42.544,56.474],[42.658,56.626],[42.781,56.776],[42.911,56.924],[43.047,57.07],[43.181,57.218],[43.317,57.365],[43.452,57.513],[43.585,57.662],[43.713,57.813],[43.845,57.964],[43.976,58.115],[44.111,58.265],[44.255,58.401],[44.407,58.517]]}},{"type":"Feature","properties":{"kind":"occl","line":0,"px_len":684},"geometry":{"type":"LineString","coordinates":[[44.407,58.517],[44.589,58.655],[44.77,58.785],[44.954,58.919],[45.14,59.053],[45.318,59.19],[45.492,59.329],[45.654,59.473],[45.8,59.624],[45.929,59.781],[46.045,59.944],[46.159,60.107],[46.283,60.268],[46.428,60.421],[46.583,60.571],[46.746,60.718],[46.909,60.867],[47.024,61.033],[47.09,61.219],[47.146,61.408],[47.227,61.589],[47.325,61.763],[47.403,61.946],[47.418,62.149],[47.364,62.363],[47.277,62.583],[47.21,62.802],[47.184,63.02],[47.197,63.227],[47.23,63.428],[47.265,63.629],[47.292,63.832],[47.31,64.039],[47.319,64.249],[47.318,64.463],[47.309,64.68],[47.289,64.9],[47.258,65.124],[47.215,65.352],[47.164,65.583],[47.115,65.812],[47.092,66.033],[47.114,66.241],[47.18,66.435],[47.252,66.617],[47.231,66.795],[47.103,66.98],[46.946,67.18],[46.819,67.396],[46.717,67.626],[46.597,67.848],[46.405,68.036],[46.133,68.186],[45.825,68.319],[45.52,68.455],[45.226,68.598],[44.945,68.749],[44.681,68.91],[44.422,69.076],[44.162,69.243],[43.895,69.409],[43.617,69.57],[43.337,69.733],[43.052,69.895],[42.764,70.057],[42.471,70.22],[42.176,70.383],[41.888,70.548],[41.695,70.679],[41.613,70.762]]}},{"type":"Feature","properties":{"kind":"warm","line":1,"px_len":417},"geometry":{"type":"LineString","coordinates":[[36.055,51.045],[36.268,51.157],[36.512,51.253],[36.781,51.344],[37.051,51.434],[37.32,51.524],[37.585,51.616],[37.845,51.709],[38.094,51.805],[38.335,51.903],[38.571,52.004],[38.813,52.102],[39.067,52.196],[39.342,52.283],[39.636,52.362],[39.924,52.444],[40.158,52.544],[40.324,52.669],[40.451,52.808],[40.58,52.947],[40.721,53.082],[40.872,53.214],[41.033,53.342],[41.203,53.467],[41.382,53.589],[41.566,53.71],[41.75,53.831],[41.93,53.953],[42.099,54.08],[42.261,54.209],[42.407,54.346],[42.541,54.486],[42.658,54.634],[42.754,54.79],[42.837,54.952],[42.911,55.117],[42.977,55.286],[43.025,55.461],[43.047,55.647],[43.017,55.843],[42.905,56.017],[42.744,56.144],[42.591,56.223]]}},{"type":"Feature","properties":{"kind":"cold","line":2,"px_len":830},"geometry":{"type":"LineString","coordinates":[[-54.754,40.0],[-54.636,40.122],[-54.524,40.239],[-54.411,40.359],[-54.297,40.479],[-54.183,40.599],[-54.071,40.72],[-53.958,40.842],[-53.845,40.963],[-53.734,41.085],[-53.623,41.207],[-53.511,41.33],[-53.401,41.453],[-53.291,41.576],[-53.183,41.7],[-53.074,41.825],[-52.965,41.949],[-52.852,42.072],[-52.728,42.191],[-52.596,42.307],[-52.454,42.419],[-52.323,42.535],[-52.226,42.666],[-52.161,42.809],[-52.099,42.954],[-52.028,43.095],[-51.946,43.232],[-51.855,43.366],[-51.758,43.498],[-51.665,43.632],[-51.573,43.767],[-51.482,43.902],[-51.392,44.037],[-51.302,44.173],[-51.215,44.311],[-51.126,44.448],[-51.04,44.586],[-50.954,44.725],[-50.87,44.865],[-50.786,45.005],[-50.704,45.147],[-50.622,45.288],[-50.541,45.43],[-50.462,45.574],[-50.383,45.718],[-50.307,45.862],[-50.23,46.008],[-50.155,46.154],[-50.08,46.3],[-50.006,46.448],[-49.934,46.596],[-49.863,46.745],[-49.794,46.895],[-49.726,47.046],[-49.661,47.198],[-49.599,47.353],[-49.541,47.508],[-49.483,47.665],[-49.428,47.822],[-49.376,47.982],[-49.321,48.14],[-49.256,48.295],[-49.177,48.444],[-49.091,48.591],[-48.999,48.736],[-48.917,48.885],[-48.898,49.049],[-48.933,49.226],[-48.988,49.412],[-49.029,49.606],[-49.055,49.8],[-49.076,49.991],[-49.097,50.183],[-49.127,50.379],[-49.166,50.578],[-49.213,50.78],[-49.259,50.982],[-49.292,51.179],[-49.303,51.368],[-49.284,51.545],[-49.244,51.715],[-49.195,51.882],[-49.152,52.044],[-49.119,52.206]]}},{"type":"Feature","properties":{"kind":"warm","line":2,"px_len":569},"geometry":{"type":"LineString","coordinates":[[-49.119,52.206],[-48.826,52.286],[-48.511,52.347],[-48.174,52.383],[-47.854,52.394],[-47.558,52.381],[-47.281,52.35],[-47.021,52.302],[-46.777,52.24],[-46.542,52.17],[-46.309,52.098],[-46.075,52.028],[-45.837,51.961],[-45.597,51.896],[-45.371,51.82],[-45.184,51.709],[-45.047,51.557],[-44.931,51.386],[-44.814,51.218],[-44.688,51.057],[-44.555,50.905],[-44.417,50.758],[-44.276,50.613],[-44.141,50.465],[-44.009,50.315],[-43.885,50.159],[-43.765,50.0],[-43.651,49.838],[-43.54,49.673],[-43.433,49.506],[-43.331,49.335],[-43.233,49.162],[-43.135,48.99],[-43.027,48.827],[-42.907,48.676],[-42.772,48.538],[-42.632,48.404],[-42.507,48.259],[-42.416,48.091],[-42.38,47.907],[-42.399,47.728],[-42.446,47.557],[-42.49,47.385],[-42.517,47.204],[-42.526,47.014],[-42.524,46.818],[-42.519,46.621],[-42.517,46.426],[-42.519,46.233],[-42.524,46.042],[-42.531,45.852],[-42.538,45.663],[-42.547,45.475],[-42.554,45.287],[-42.559,45.097],[-42.561,44.906],[-42.561,44.725],[-42.564,44.563]]}},{"type":"Feature","properties":{"kind":"occl","line":3,"px_len":454},"geometry":{"type":"LineString","coordinates":[[-49.26,52.277],[-49.482,52.367],[-49.69,52.457],[-49.9,52.553],[-50.107,52.652],[-50.313,52.754],[-50.518,52.858],[-50.721,52.965],[-50.921,53.075],[-51.12,53.188],[-51.324,53.296],[-51.534,53.4],[-51.748,53.5],[-51.967,53.594],[-52.193,53.684],[-52.421,53.771],[-52.654,53.853],[-52.892,53.93],[-53.139,53.998],[-53.389,54.063],[-53.639,54.129],[-53.892,54.191],[-54.143,54.257],[-54.394,54.322],[-54.642,54.393],[-54.887,54.468],[-55.13,54.545],[-55.389,54.603],[-55.668,54.637],[-55.959,54.657],[-56.242,54.685],[-56.521,54.72],[-56.803,54.749],[-57.103,54.755],[-57.432,54.721],[-57.774,54.652],[-58.126,54.567],[-58.472,54.488],[-58.814,54.424],[-59.15,54.366],[-59.488,54.302],[-59.831,54.228],[-60.177,54.145],[-60.522,54.06],[-60.866,53.972],[-61.136,53.906],[-61.306,53.864]]}}]}