{"type":"FeatureCollection","properties":{"chart":"ana","src":"Z__C_EDZW_20261007080212_tka01,ana_bwkman_dwdna_O_000000_000000_202610070600_WV12.png","valid_time":"2026-10-07T06:00:00+00:00"},"features":[{"type":"Feature","properties":{"kind":"cold","line":0,"px_len":936},"geometry":{"type":"LineString","coordinates":[[-15.207,43.144],[-15.083,43.284],[-14.943,43.405],[-14.791,43.524],[-14.637,43.643],[-14.483,43.76],[-14.328,43.878],[-14.171,43.995],[-14.015,44.112],[-13.857,44.229],[-13.698,44.347],[-13.539,44.465],[-13.378,44.58],[-13.211,44.687],[-13.036,44.781],[-12.855,44.866],[-12.673,44.949],[-12.497,45.042],[-12.35,45.175],[-12.222,45.344],[-12.093,45.52],[-11.949,45.679],[-11.796,45.823],[-11.637,45.959],[-11.475,46.092],[-11.313,46.226],[-11.151,46.36],[-10.987,46.496],[-10.824,46.632],[-10.659,46.769],[-10.493,46.905],[-10.328,47.043],[-10.161,47.182],[-9.993,47.321],[-9.825,47.461],[-9.656,47.601],[-9.486,47.742],[-9.315,47.883],[-9.142,48.023],[-8.969,48.165],[-8.795,48.307],[-8.62,48.449],[-8.443,48.591],[-8.264,48.73],[-8.08,48.86],[-7.886,48.975],[-7.684,49.073],[-7.476,49.158],[-7.279,49.254],[-7.127,49.384],[-7.005,49.553],[-6.88,49.733],[-6.727,49.905],[-6.555,50.063],[-6.37,50.213],[-6.179,50.359],[-5.987,50.506],[-5.794,50.652],[-5.599,50.797],[-5.402,50.942],[-5.203,51.086],[-5.003,51.229],[-4.8,51.371],[-4.596,51.511],[-4.39,51.652],[-4.182,51.791],[-3.972,51.929],[-3.759,52.063],[-3.544,52.195],[-3.326,52.325],[-3.106,52.451],[-2.882,52.57],[-2.652,52.677],[-2.416,52.769],[-2.174,52.847],[-1.927,52.915],[-1.69,52.992],[-1.483,53.105],[-1.291,53.257],[-1.086,53.416],[-0.858,53.561],[-0.622,53.687],[-0.38,53.799],[-0.134,53.901],[0.114,53.998],[0.365,54.092],[0.618,54.184],[0.872,54.273],[1.129,54.357],[1.388,54.438],[1.648,54.516],[1.911,54.591],[2.176,54.656],[2.408,54.71],[2.577,54.749]]}},{"type":"Feature","properties":{"kind":"warm","line":0,"px_len":867},"geometry":{"type":"LineString","coordinates":[[2.577,54.749],[2.852,54.812],[3.115,54.872],[3.386,54.93],[3.659,54.98],[3.934,55.025],[4.21,55.065],[4.488,55.099],[4.766,55.129],[5.045,55.157],[5.325,55.189],[5.604,55.224],[5.883,55.264],[6.162,55.308],[6.442,55.36],[6.722,55.411],[7.005,55.43],[7.292,55.411],[7.579,55.365],[7.866,55.318],[8.151,55.277],[8.436,55.242],[8.719,55.216],[9.003,55.197],[9.285,55.178],[9.568,55.158],[9.85,55.135],[10.132,55.11],[10.413,55.082],[10.694,55.052],[10.974,55.021],[11.253,54.987],[11.532,54.951],[11.81,54.915],[12.088,54.876],[12.364,54.836],[12.64,54.796],[12.917,54.761],[13.193,54.734],[13.47,54.715],[13.747,54.699],[14.026,54.691],[14.304,54.687],[14.581,54.666],[14.85,54.606],[15.113,54.51],[15.372,54.406],[15.633,54.315],[15.894,54.233],[16.157,54.165],[16.42,54.105],[16.684,54.051],[16.948,53.999],[17.211,53.946],[17.473,53.893],[17.735,53.841],[17.996,53.789],[18.256,53.737],[18.516,53.685],[18.776,53.634],[19.035,53.582],[19.293,53.531],[19.551,53.48],[19.809,53.431],[20.068,53.39],[20.33,53.357],[20.594,53.329],[20.859,53.308],[21.128,53.295],[21.398,53.288],[21.664,53.269],[21.919,53.219],[22.161,53.136],[22.399,53.046],[22.64,52.966],[22.884,52.895],[23.13,52.831],[23.379,52.779],[23.631,52.731],[23.883,52.686],[24.134,52.64],[24.388,52.6],[24.64,52.558],[24.894,52.521],[25.148,52.484],[25.402,52.446],[25.629,52.412],[25.809,52.39]]}},{"type":"Feature","properties":{"kind":"cold","line":0,"px_len":1097},"geometry":{"type":"LineString","coordinates":[[25.809,52.39],[26.065,52.346],[26.311,52.307],[26.565,52.272],[26.819,52.237],[27.073,52.204],[27.327,52.17],[27.581,52.137],[27.836,52.105],[28.091,52.073],[28.343,52.038],[28.595,52.002],[28.844,51.96],[29.091,51.915],[29.332,51.861],[29.568,51.799],[29.81,51.747],[30.071,51.729],[30.353,51.742],[30.635,51.756],[30.911,51.759],[31.182,51.752],[31.448,51.738],[31.711,51.719],[31.974,51.699],[32.238,51.68],[32.501,51.66],[32.765,51.641],[33.029,51.622],[33.295,51.604],[33.561,51.587],[33.827,51.569],[34.094,51.553],[34.363,51.537],[34.632,51.522],[34.902,51.508],[35.174,51.496],[35.447,51.485],[35.722,51.475],[35.999,51.468],[36.277,51.461],[36.558,51.457],[36.842,51.455],[37.127,51.454],[37.408,51.448],[37.679,51.429],[37.942,51.401],[38.198,51.364],[38.454,51.334],[38.713,51.347],[38.984,51.407],[39.276,51.485],[39.597,51.552],[39.937,51.606],[40.277,51.653],[40.618,51.697],[40.964,51.745],[41.316,51.797],[41.663,51.849],[42.002,51.904],[42.329,51.962],[42.649,52.023],[42.961,52.087],[43.267,52.152],[43.565,52.22],[43.858,52.29],[44.145,52.362],[44.425,52.436],[44.698,52.514],[44.966,52.593],[45.237,52.671],[45.518,52.744],[45.819,52.808],[46.127,52.868],[46.385,52.951],[46.586,53.059],[46.75,53.184],[46.923,53.306],[47.104,53.425],[47.293,53.54],[47.488,53.652],[47.69,53.762],[47.891,53.872],[48.089,53.984],[48.283,54.098],[48.475,54.214],[48.662,54.332],[48.849,54.45],[49.033,54.571],[49.214,54.692],[49.386,54.819],[49.558,54.947],[49.725,55.077],[49.891,55.208],[50.051,55.342],[50.211,55.477],[50.374,55.612],[50.54,55.744],[50.713,55.874],[50.894,56.001],[51.086,56.122],[51.289,56.239],[51.503,56.351],[51.724,56.459],[51.957,56.562],[52.202,56.659],[52.461,56.749],[52.727,56.835],[52.947,56.946],[53.097,57.07],[53.183,57.184]]}},{"type":"Feature","properties":{"kind":"stat","line":0,"px_len":136},"geometry":{"type":"LineString","coordinates":[[53.183,57.184],[53.327,57.34],[53.431,57.508],[53.47,57.698],[53.429,57.888],[53.328,58.067],[53.217,58.243],[53.122,58.428],[53.057,58.63],[53.018,58.847],[52.993,59.072],[52.967,59.297],[52.938,59.522],[52.916,59.718],[52.902,59.862]]}},{"type":"Feature","properties":{"kind":"occl","line":0,"px_len":660},"geometry":{"type":"LineString","coordinates":[[52.902,59.862],[52.927,60.084],[52.959,60.292],[52.992,60.504],[53.021,60.72],[53.04,60.94],[53.053,61.164],[53.065,61.388],[53.097,61.603],[53.161,61.805],[53.257,61.992],[53.37,62.168],[53.411,62.344],[53.367,62.527],[53.276,62.725],[53.214,62.938],[53.182,63.165],[53.142,63.389],[53.045,63.586],[52.872,63.75],[52.659,63.895],[52.445,64.041],[52.242,64.193],[52.055,64.353],[51.889,64.525],[51.735,64.702],[51.584,64.883],[51.427,65.061],[51.265,65.238],[51.097,65.414],[50.926,65.589],[50.748,65.762],[50.566,65.934],[50.376,66.104],[50.183,66.273],[49.985,66.441],[49.781,66.608],[49.571,66.773],[49.364,66.94],[49.165,67.113],[48.983,67.295],[48.825,67.489],[48.698,67.699],[48.556,67.903],[48.35,68.079],[48.078,68.226],[47.803,68.373],[47.548,68.53],[47.31,68.697],[47.058,68.859],[46.754,68.998],[46.39,69.11],[46.011,69.216],[45.638,69.326],[45.279,69.444],[44.923,69.565],[44.579,69.692],[44.243,69.826],[43.91,69.963],[43.574,70.099],[43.235,70.236],[42.89,70.372],[42.541,70.508],[42.185,70.642],[41.825,70.776],[41.478,70.906],[41.149,71.039]]}},{"type":"Feature","properties":{"kind":"warm","line":1,"px_len":494},"geometry":{"type":"LineString","coordinates":[[49.845,49.252],[50.047,49.349],[50.243,49.44],[50.456,49.527],[50.683,49.605],[50.928,49.674],[51.181,49.736],[51.343,49.844],[51.418,50.003],[51.445,50.194],[51.5,50.374],[51.569,50.545],[51.64,50.716],[51.712,50.888],[51.788,51.057],[51.876,51.22],[51.978,51.376],[52.093,51.525],[52.217,51.668],[52.345,51.811],[52.474,51.953],[52.602,52.096],[52.731,52.24],[52.858,52.385],[52.983,52.531],[53.106,52.679],[53.233,52.826],[53.371,52.967],[53.519,53.103],[53.677,53.233],[53.839,53.362],[54.005,53.488],[54.143,53.633],[54.226,53.805],[54.239,54.003],[54.215,54.21],[54.194,54.423],[54.198,54.639],[54.219,54.854],[54.233,55.071],[54.217,55.285],[54.166,55.486],[54.073,55.662],[53.952,55.824],[53.817,55.978],[53.677,56.13],[53.536,56.282],[53.391,56.433],[53.243,56.582],[53.125,56.702],[53.052,56.779]]}},{"type":"Feature","properties":{"kind":"cold","line":2,"px_len":1413},"geometry":{"type":"LineString","coordinates":[[-52.44,39.093],[-52.225,39.171],[-52.015,39.243],[-51.831,39.33],[-51.693,39.437],[-51.593,39.56],[-51.491,39.683],[-51.38,39.801],[-51.262,39.917],[-51.135,40.029],[-51.002,40.139],[-50.866,40.248],[-50.732,40.357],[-50.599,40.467],[-50.467,40.578],[-50.336,40.69],[-50.205,40.802],[-50.075,40.914],[-49.945,41.026],[-49.816,41.139],[-49.69,41.254],[-49.563,41.368],[-49.437,41.483],[-49.311,41.598],[-49.185,41.714],[-49.062,41.831],[-48.939,41.948],[-48.815,42.065],[-48.692,42.183],[-48.57,42.301],[-48.449,42.42],[-48.329,42.539],[-48.208,42.659],[-48.088,42.779],[-47.968,42.9],[-47.846,43.019],[-47.717,43.136],[-47.576,43.247],[-47.427,43.355],[-47.271,43.459],[-47.139,43.576],[-47.039,43.707],[-46.96,43.849],[-46.875,43.989],[-46.78,44.124],[-46.675,44.254],[-46.561,44.381],[-46.443,44.506],[-46.324,44.631],[-46.204,44.755],[-46.087,44.881],[-45.972,45.009],[-45.857,45.137],[-45.741,45.265],[-45.625,45.392],[-45.512,45.522],[-45.394,45.65],[-45.281,45.78],[-45.165,45.91],[-45.051,46.04],[-44.937,46.171],[-44.823,46.302],[-44.71,46.434],[-44.597,46.567],[-44.485,46.7],[-44.373,46.834],[-44.262,46.968],[-44.151,47.103],[-44.042,47.239],[-43.932,47.375],[-43.823,47.512],[-43.715,47.65],[-43.607,47.788],[-43.501,47.928],[-43.394,48.068],[-43.289,48.208],[-43.184,48.35],[-43.073,48.488],[-42.959,48.626],[-42.833,48.758],[-42.703,48.888],[-42.564,49.014],[-42.419,49.137],[-42.309,49.278],[-42.24,49.442],[-42.204,49.622],[-42.153,49.795],[-42.088,49.961],[-42.01,50.122],[-41.925,50.279],[-41.837,50.435],[-41.751,50.592],[-41.668,50.752],[-41.586,50.912],[-41.505,51.074],[-41.428,51.238],[-41.354,51.403],[-41.281,51.57],[-41.211,51.739],[-41.144,51.91],[-41.082,52.083],[-41.024,52.259],[-40.97,52.438],[-40.919,52.619],[-40.874,52.803],[-40.832,52.989],[-40.793,53.177],[-40.759,53.367],[-40.73,53.561],[-40.71,53.76],[-40.697,53.962],[-40.695,54.17],[-40.69,54.377],[-40.675,54.579],[-40.638,54.771],[-40.576,54.951],[-40.512,55.127],[-40.498,55.312],[-40.532,55.516],[-40.572,55.722],[-40.58,55.929],[-40.552,56.121],[-40.498,56.308],[-40.436,56.491],[-40.388,56.679],[-40.421,56.85],[-40.556,56.992],[-40.793,57.091],[-41.076,57.161],[-41.397,57.206],[-41.729,57.243],[-42.053,57.286],[-42.362,57.338],[-42.661,57.396],[-42.953,57.46],[-43.245,57.524],[-43.54,57.585],[-43.842,57.642],[-44.15,57.694],[-44.464,57.743],[-44.778,57.789],[-45.014,57.827],[-45.148,57.852]]}},{"type":"Feature","properties":{"kind":"occl","line":2,"px_len":414},"geometry":{"type":"LineString","coordinates":[[-45.148,57.852],[-45.468,57.901],[-45.771,57.95],[-46.084,57.998],[-46.401,58.043],[-46.724,58.082],[-47.052,58.118],[-47.385,58.149],[-47.724,58.175],[-48.069,58.195],[-48.42,58.208],[-48.776,58.217],[-49.138,58.221],[-49.501,58.222],[-49.859,58.226],[-50.204,58.241],[-50.532,58.27],[-50.851,58.308],[-51.178,58.327],[-51.535,58.303],[-51.926,58.244],[-52.33,58.188],[-52.723,58.147],[-53.113,58.104],[-53.482,58.042],[-53.799,57.946],[-54.055,57.831],[-54.284,57.709],[-54.525,57.591],[-54.787,57.477],[-55.075,57.37],[-55.375,57.266],[-55.671,57.161],[-55.957,57.053],[-56.23,56.942],[-56.494,56.829],[-56.748,56.712],[-56.995,56.594],[-57.23,56.473],[-57.456,56.35],[-57.674,56.225],[-57.833,56.122],[-57.923,56.055]]}},{"type":"Feature","properties":{"kind":"warm","line":3,"px_len":501},"geometry":{"type":"LineString","coordinates":[[-30.404,51.235],[-30.525,51.382],[-30.612,51.538],[-30.684,51.707],[-30.739,51.885],[-30.78,52.072],[-30.799,52.263],[-30.822,52.451],[-30.881,52.623],[-31.006,52.767],[-31.177,52.888],[-31.358,53.005],[-31.529,53.126],[-31.694,53.252],[-31.852,53.382],[-32.004,53.515],[-32.15,53.652],[-32.294,53.79],[-32.44,53.928],[-32.591,54.064],[-32.745,54.198],[-32.903,54.332],[-33.066,54.462],[-33.233,54.591],[-33.403,54.72],[-33.575,54.847],[-33.744,54.977],[-33.906,55.111],[-34.058,55.251],[-34.204,55.395],[-34.343,55.543],[-34.493,55.686],[-34.686,55.807],[-34.928,55.9],[-35.196,55.98],[-35.465,56.059],[-35.724,56.144],[-35.974,56.234],[-36.219,56.327],[-36.46,56.423],[-36.705,56.517],[-36.955,56.608],[-37.218,56.691],[-37.501,56.764],[-37.805,56.824],[-38.129,56.872],[-38.478,56.904],[-38.853,56.92],[-39.247,56.922],[-39.648,56.914],[-40.074,56.899]]}}]}