{"type":"FeatureCollection","properties":{"chart":"ana","src":"Z__C_EDZW_20261010021822_tka01,ana_bwkman_dwdna_O_000000_000000_202610100000_WV12.png","valid_time":"2026-10-10T00:00:00+00:00"},"features":[{"type":"Feature","properties":{"kind":"cold","line":0,"px_len":304},"geometry":{"type":"LineString","coordinates":[[10.746,36.964],[10.875,37.095],[11.004,37.228],[11.147,37.361],[11.302,37.489],[11.42,37.619],[11.49,37.758],[11.524,37.9],[11.56,38.042],[11.603,38.185],[11.653,38.327],[11.712,38.469],[11.771,38.611],[11.823,38.753],[11.867,38.896],[11.905,39.039],[11.94,39.183],[11.966,39.327],[11.99,39.471],[12.011,39.615],[12.039,39.76],[12.07,39.904],[12.111,40.048],[12.137,40.193],[12.119,40.34],[12.049,40.488],[11.969,40.638],[11.892,40.787],[11.823,40.936],[11.768,41.084],[11.734,41.202],[11.721,41.277]]}},{"type":"Feature","properties":{"kind":"cold","line":1,"px_len":433},"geometry":{"type":"LineString","coordinates":[[-48.828,37.46],[-48.673,37.555],[-48.534,37.65],[-48.394,37.75],[-48.257,37.851],[-48.123,37.953],[-47.988,38.055],[-47.848,38.154],[-47.702,38.251],[-47.549,38.344],[-47.397,38.438],[-47.272,38.546],[-47.18,38.671],[-47.106,38.805],[-47.027,38.938],[-46.939,39.066],[-46.844,39.19],[-46.741,39.311],[-46.637,39.431],[-46.538,39.554],[-46.439,39.678],[-46.342,39.803],[-46.244,39.928],[-46.147,40.053],[-46.05,40.179],[-45.954,40.305],[-45.854,40.43],[-45.75,40.553],[-45.638,40.673],[-45.519,40.788],[-45.391,40.899],[-45.255,41.006],[-45.139,41.124],[-45.051,41.258],[-44.982,41.401],[-44.906,41.541],[-44.82,41.677],[-44.723,41.807],[-44.616,41.931],[-44.499,42.051],[-44.377,42.169],[-44.253,42.285],[-44.125,42.399],[-44.028,42.486],[-43.968,42.535]]}},{"type":"Feature","properties":{"kind":"warm","line":1,"px_len":1148},"geometry":{"type":"LineString","coordinates":[[-43.968,42.535],[-43.833,42.651],[-43.699,42.758],[-43.564,42.87],[-43.434,42.985],[-43.31,43.103],[-43.192,43.225],[-43.081,43.352],[-42.976,43.481],[-42.855,43.603],[-42.695,43.703],[-42.49,43.777],[-42.271,43.844],[-42.056,43.912],[-41.853,43.987],[-41.661,44.069],[-41.478,44.156],[-41.299,44.246],[-41.12,44.335],[-40.939,44.424],[-40.758,44.512],[-40.574,44.599],[-40.388,44.685],[-40.203,44.771],[-40.022,44.861],[-39.847,44.954],[-39.681,45.052],[-39.521,45.155],[-39.367,45.261],[-39.215,45.369],[-39.054,45.472],[-38.858,45.553],[-38.612,45.602],[-38.341,45.636],[-38.07,45.669],[-37.816,45.712],[-37.575,45.764],[-37.346,45.823],[-37.121,45.884],[-36.897,45.946],[-36.673,46.007],[-36.445,46.067],[-36.219,46.127],[-35.994,46.187],[-35.776,46.253],[-35.568,46.326],[-35.371,46.405],[-35.181,46.49],[-34.994,46.578],[-34.805,46.664],[-34.586,46.728],[-34.325,46.76],[-34.031,46.762],[-33.73,46.758],[-33.435,46.765],[-33.156,46.784],[-32.892,46.813],[-32.634,46.847],[-32.378,46.881],[-32.118,46.912],[-31.856,46.941],[-31.591,46.967],[-31.326,46.993],[-31.067,47.023],[-30.823,47.064],[-30.593,47.116],[-30.373,47.177],[-30.156,47.24],[-29.92,47.287],[-29.649,47.303],[-29.366,47.28],[-29.092,47.233],[-28.825,47.181],[-28.542,47.142],[-28.247,47.119],[-27.954,47.109],[-27.666,47.106],[-27.382,47.104],[-27.098,47.102],[-26.814,47.098],[-26.53,47.094],[-26.246,47.088],[-25.967,47.086],[-25.698,47.093],[-25.444,47.114],[-25.204,47.148],[-24.975,47.192],[-24.736,47.227],[-24.477,47.238],[-24.205,47.209],[-23.947,47.149],[-23.703,47.075],[-23.446,47.005],[-23.161,46.948],[-22.864,46.905],[-22.568,46.871],[-22.277,46.842],[-21.988,46.813],[-21.699,46.783],[-21.412,46.752],[-21.127,46.723],[-20.849,46.702],[-20.586,46.695],[-20.337,46.706],[-20.1,46.73],[-19.865,46.756],[-19.616,46.764],[-19.346,46.737],[-19.086,46.673],[-18.845,46.588],[-18.609,46.502],[-18.345,46.425],[-18.063,46.362],[-17.779,46.316],[-17.526,46.283],[-17.316,46.259]]}},{"type":"Feature","properties":{"kind":"cold","line":1,"px_len":1218},"geometry":{"type":"LineString","coordinates":[[-17.316,46.259],[-17.04,46.226],[-16.779,46.198],[-16.517,46.173],[-16.253,46.146],[-15.982,46.107],[-15.702,46.049],[-15.43,45.981],[-15.179,45.94],[-14.953,45.943],[-14.735,45.978],[-14.517,46.012],[-14.292,46.036],[-14.062,46.051],[-13.825,46.054],[-13.584,46.051],[-13.343,46.046],[-13.101,46.041],[-12.861,46.036],[-12.62,46.029],[-12.381,46.025],[-12.144,46.024],[-11.908,46.023],[-11.671,46.02],[-11.429,46.008],[-11.182,45.985],[-10.93,45.952],[-10.69,45.938],[-10.468,45.96],[-10.261,46.011],[-10.052,46.056],[-9.838,46.094],[-9.623,46.13],[-9.405,46.16],[-9.185,46.185],[-8.963,46.206],[-8.741,46.229],[-8.52,46.252],[-8.3,46.277],[-8.079,46.302],[-7.859,46.328],[-7.641,46.356],[-7.422,46.386],[-7.204,46.416],[-6.984,46.441],[-6.76,46.458],[-6.533,46.467],[-6.302,46.468],[-6.076,46.477],[-5.859,46.511],[-5.653,46.573],[-5.448,46.639],[-5.24,46.699],[-5.029,46.751],[-4.815,46.795],[-4.598,46.832],[-4.381,46.873],[-4.165,46.914],[-3.95,46.958],[-3.733,47.0],[-3.518,47.046],[-3.302,47.092],[-3.087,47.141],[-2.872,47.192],[-2.657,47.243],[-2.441,47.292],[-2.224,47.34],[-2.005,47.382],[-1.785,47.422],[-1.562,47.452],[-1.338,47.479],[-1.116,47.514],[-0.903,47.583],[-0.697,47.684],[-0.491,47.787],[-0.283,47.881],[-0.07,47.966],[0.145,48.042],[0.362,48.112],[0.58,48.182],[0.799,48.252],[1.018,48.322],[1.238,48.393],[1.459,48.465],[1.68,48.538],[1.901,48.611],[2.123,48.685],[2.348,48.752],[2.574,48.81],[2.803,48.856],[3.034,48.897],[3.265,48.939],[3.483,49.017],[3.695,49.137],[3.904,49.284],[4.125,49.419],[4.348,49.541],[4.575,49.654],[4.803,49.765],[5.032,49.879],[5.262,49.995],[5.494,50.114],[5.726,50.238],[5.959,50.365],[6.195,50.489],[6.432,50.608],[6.672,50.712],[6.914,50.801],[7.159,50.873],[7.404,50.945],[7.649,51.046],[7.894,51.17],[8.142,51.288],[8.391,51.379],[8.643,51.451],[8.895,51.511],[9.148,51.571],[9.403,51.631],[9.658,51.692],[9.914,51.754],[10.17,51.816],[10.408,51.875],[10.609,51.927]]}},{"type":"Feature","properties":{"kind":"stat","line":1,"px_len":377},"geometry":{"type":"LineString","coordinates":[[10.609,51.927],[10.871,51.985],[11.07,52.068],[11.203,52.19],[11.275,52.344],[11.346,52.502],[11.434,52.659],[11.54,52.816],[11.657,52.973],[11.773,53.13],[11.88,53.287],[11.976,53.444],[12.062,53.602],[12.139,53.76],[12.206,53.918],[12.262,54.077],[12.279,54.237],[12.264,54.399],[12.237,54.56],[12.211,54.722],[12.183,54.884],[12.149,55.046],[12.111,55.209],[12.07,55.372],[12.029,55.534],[11.994,55.697],[11.971,55.86],[11.961,56.022],[11.963,56.184],[11.976,56.347],[11.971,56.509],[11.926,56.673],[11.813,56.839],[11.615,56.99],[11.348,57.114],[11.052,57.21],[10.755,57.3],[10.487,57.383],[10.276,57.449]]}},{"type":"Feature","properties":{"kind":"occl","line":1,"px_len":496},"geometry":{"type":"LineString","coordinates":[[10.276,57.449],[9.967,57.556],[9.67,57.648],[9.364,57.744],[9.056,57.861],[8.745,58.007],[8.431,58.16],[8.115,58.293],[7.797,58.402],[7.507,58.508],[7.269,58.634],[7.065,58.787],[6.834,58.946],[6.551,59.104],[6.231,59.255],[5.892,59.404],[5.557,59.553],[5.249,59.708],[4.993,59.863],[4.787,60.021],[4.624,60.18],[4.479,60.338],[4.27,60.489],[3.986,60.637],[3.666,60.786],[3.381,60.938],[3.124,61.092],[2.848,61.243],[2.521,61.377],[2.153,61.475],[1.782,61.544],[1.411,61.607],[1.033,61.685],[0.647,61.779],[0.255,61.882],[-0.142,61.988],[-0.544,62.101],[-0.941,62.226],[-1.313,62.361],[-1.65,62.5],[-1.992,62.605],[-2.361,62.672],[-2.754,62.716],[-3.155,62.773],[-3.566,62.844],[-3.983,62.92],[-4.385,62.964],[-4.762,62.958],[-5.119,62.917],[-5.425,62.877],[-5.649,62.848]]}},{"type":"Feature","properties":{"kind":"cold","line":2,"px_len":1032},"geometry":{"type":"LineString","coordinates":[[30.779,46.718],[30.996,46.787],[31.222,46.878],[31.468,46.966],[31.698,47.055],[31.878,47.161],[32.013,47.288],[32.14,47.419],[32.272,47.548],[32.419,47.674],[32.587,47.793],[32.767,47.909],[32.952,48.024],[33.135,48.139],[33.317,48.255],[33.498,48.371],[33.68,48.486],[33.867,48.6],[34.066,48.711],[34.282,48.816],[34.518,48.915],[34.756,49.014],[34.944,49.127],[35.08,49.257],[35.2,49.393],[35.327,49.526],[35.459,49.658],[35.603,49.786],[35.757,49.911],[35.92,50.034],[36.081,50.158],[36.24,50.282],[36.397,50.407],[36.553,50.533],[36.707,50.659],[36.865,50.784],[37.031,50.907],[37.208,51.026],[37.397,51.142],[37.598,51.253],[37.774,51.373],[37.904,51.509],[37.997,51.657],[38.09,51.806],[38.2,51.95],[38.319,52.09],[38.444,52.229],[38.576,52.366],[38.711,52.501],[38.848,52.637],[38.977,52.776],[39.107,52.914],[39.239,53.052],[39.371,53.191],[39.509,53.327],[39.657,53.461],[39.818,53.59],[39.99,53.716],[40.171,53.838],[40.327,53.97],[40.436,54.119],[40.507,54.281],[40.58,54.443],[40.667,54.6],[40.765,54.754],[40.873,54.905],[40.983,55.055],[41.096,55.205],[41.209,55.355],[41.325,55.504],[41.441,55.654],[41.556,55.804],[41.672,55.955],[41.797,56.102],[41.93,56.248],[42.069,56.391],[42.221,56.53],[42.389,56.664],[42.533,56.806],[42.613,56.972],[42.635,57.159],[42.654,57.348],[42.689,57.53],[42.737,57.709],[42.793,57.885],[42.842,58.064],[42.882,58.247],[42.91,58.433],[42.928,58.624],[42.947,58.815],[42.981,59.0],[43.045,59.176],[43.133,59.344],[43.191,59.518],[43.167,59.704],[43.066,59.908],[42.963,60.121],[42.889,60.338],[42.851,60.549],[42.847,60.749],[42.879,60.937],[42.925,61.122],[42.967,61.305],[42.993,61.441],[43.008,61.514]]}},{"type":"Feature","properties":{"kind":"stat","line":2,"px_len":236},"geometry":{"type":"LineString","coordinates":[[43.008,61.514],[42.807,61.655],[42.549,61.759],[42.253,61.849],[41.953,61.938],[41.646,62.022],[41.331,62.101],[41.016,62.181],[40.704,62.263],[40.397,62.349],[40.087,62.435],[39.775,62.52],[39.461,62.604],[39.146,62.687],[38.826,62.768],[38.484,62.831],[38.103,62.863],[37.682,62.86],[37.246,62.842],[36.811,62.824],[36.385,62.812],[35.965,62.802],[35.546,62.793],[35.183,62.783],[34.916,62.774]]}},{"type":"Feature","properties":{"kind":"occl","line":2,"px_len":283},"geometry":{"type":"LineString","coordinates":[[34.916,62.774],[34.498,62.769],[34.081,62.747],[33.639,62.705],[33.185,62.644],[32.738,62.564],[32.323,62.466],[31.959,62.355],[31.654,62.233],[31.373,62.106],[31.072,61.983],[30.712,61.875],[30.315,61.775],[29.926,61.673],[29.568,61.558],[29.251,61.437],[28.92,61.333],[28.541,61.24],[28.134,61.146],[27.758,61.033],[27.431,60.911],[27.146,60.781],[26.882,60.648],[26.631,60.512],[26.378,60.378],[26.13,60.242],[25.878,60.106],[25.632,59.971],[25.464,59.864],[25.392,59.798]]}},{"type":"Feature","properties":{"kind":"cold","line":3,"px_len":1037},"geometry":{"type":"LineString","coordinates":[[-55.903,40.43],[-55.8,40.558],[-55.692,40.678],[-55.578,40.799],[-55.459,40.919],[-55.342,41.04],[-55.224,41.16],[-55.109,41.282],[-54.995,41.404],[-54.882,41.527],[-54.77,41.65],[-54.66,41.774],[-54.552,41.899],[-54.445,42.025],[-54.338,42.151],[-54.232,42.277],[-54.12,42.402],[-54.001,42.524],[-53.87,42.642],[-53.731,42.757],[-53.604,42.876],[-53.508,43.008],[-53.444,43.151],[-53.381,43.296],[-53.312,43.438],[-53.234,43.577],[-53.145,43.712],[-53.049,43.845],[-52.959,43.981],[-52.868,44.116],[-52.776,44.251],[-52.681,44.385],[-52.589,44.521],[-52.497,44.657],[-52.406,44.794],[-52.314,44.93],[-52.223,45.068],[-52.133,45.205],[-52.042,45.343],[-51.952,45.481],[-51.858,45.618],[-51.757,45.753],[-51.653,45.887],[-51.539,46.017],[-51.415,46.144],[-51.284,46.268],[-51.18,46.403],[-51.113,46.552],[-51.072,46.712],[-51.022,46.869],[-50.959,47.02],[-50.886,47.169],[-50.806,47.315],[-50.721,47.459],[-50.636,47.604],[-50.551,47.749],[-50.467,47.894],[-50.382,48.04],[-50.298,48.186],[-50.214,48.332],[-50.13,48.479],[-50.048,48.627],[-49.964,48.775],[-49.882,48.923],[-49.793,49.069],[-49.701,49.215],[-49.596,49.355],[-49.486,49.494],[-49.361,49.628],[-49.23,49.759],[-49.122,49.899],[-49.057,50.057],[-49.028,50.229],[-48.994,50.4],[-48.943,50.565],[-48.882,50.725],[-48.81,50.882],[-48.736,51.039],[-48.662,51.195],[-48.588,51.352],[-48.517,51.511],[-48.449,51.671],[-48.382,51.831],[-48.315,51.993],[-48.247,52.154],[-48.183,52.316],[-48.119,52.48],[-48.056,52.644],[-47.994,52.809],[-47.934,52.975],[-47.862,53.137],[-47.78,53.294],[-47.679,53.446],[-47.573,53.595],[-47.478,53.748],[-47.463,53.919],[-47.522,54.111],[-47.605,54.312],[-47.66,54.514],[-47.695,54.712],[-47.722,54.914],[-47.755,55.118],[-47.798,55.326],[-47.853,55.518],[-47.905,55.672]]}}]}