{"type":"FeatureCollection","properties":{"chart":"ana","src":"Z__C_EDZW_20261006080948_tka01,ana_bwkman_dwdna_O_000000_000000_202610060600_WV12.png","valid_time":"2026-10-06T06:00:00+00:00"},"features":[{"type":"Feature","properties":{"kind":"cold","line":0,"px_len":1055},"geometry":{"type":"LineString","coordinates":[[-26.656,43.429],[-26.446,43.457],[-26.253,43.51],[-26.06,43.571],[-25.864,43.629],[-25.667,43.688],[-25.469,43.744],[-25.271,43.801],[-25.071,43.857],[-24.872,43.912],[-24.671,43.966],[-24.47,44.02],[-24.268,44.073],[-24.065,44.126],[-23.864,44.18],[-23.663,44.234],[-23.461,44.288],[-23.26,44.342],[-23.059,44.397],[-22.858,44.453],[-22.658,44.509],[-22.458,44.565],[-22.256,44.62],[-22.052,44.671],[-21.842,44.717],[-21.628,44.757],[-21.409,44.791],[-21.201,44.839],[-21.016,44.914],[-20.848,45.01],[-20.679,45.106],[-20.506,45.198],[-20.326,45.281],[-20.142,45.36],[-19.958,45.439],[-19.774,45.521],[-19.592,45.603],[-19.41,45.687],[-19.228,45.773],[-19.048,45.86],[-18.868,45.948],[-18.688,46.038],[-18.509,46.129],[-18.331,46.222],[-18.153,46.316],[-17.975,46.411],[-17.798,46.507],[-17.62,46.604],[-17.442,46.701],[-17.264,46.799],[-17.086,46.899],[-16.908,46.999],[-16.731,47.101],[-16.55,47.199],[-16.365,47.292],[-16.174,47.378],[-15.979,47.459],[-15.779,47.533],[-15.576,47.604],[-15.388,47.697],[-15.221,47.822],[-15.069,47.97],[-14.91,48.109],[-14.743,48.239],[-14.569,48.358],[-14.389,48.471],[-14.206,48.582],[-14.022,48.691],[-13.837,48.8],[-13.651,48.909],[-13.465,49.018],[-13.279,49.129],[-13.091,49.24],[-12.903,49.351],[-12.714,49.462],[-12.524,49.574],[-12.334,49.686],[-12.143,49.798],[-11.951,49.91],[-11.758,50.022],[-11.564,50.134],[-11.368,50.246],[-11.173,50.359],[-10.976,50.471],[-10.776,50.58],[-10.568,50.677],[-10.353,50.763],[-10.134,50.843],[-9.911,50.918],[-9.699,51.003],[-9.51,51.125],[-9.34,51.282],[-9.161,51.44],[-8.97,51.582],[-8.768,51.708],[-8.561,51.825],[-8.35,51.936],[-8.136,52.045],[-7.92,52.152],[-7.703,52.257],[-7.483,52.361],[-7.262,52.463],[-7.038,52.563],[-6.813,52.662],[-6.586,52.759],[-6.394,52.836],[-6.263,52.887]]}},{"type":"Feature","properties":{"kind":"warm","line":0,"px_len":310},"geometry":{"type":"LineString","coordinates":[[-6.263,52.887],[-6.024,52.977],[-5.795,53.065],[-5.559,53.151],[-5.32,53.235],[-5.08,53.315],[-4.837,53.393],[-4.592,53.467],[-4.345,53.54],[-4.098,53.612],[-3.851,53.689],[-3.606,53.772],[-3.364,53.864],[-3.124,53.968],[-2.887,54.08],[-2.646,54.185],[-2.389,54.252],[-2.119,54.281],[-1.842,54.291],[-1.566,54.304],[-1.292,54.324],[-1.02,54.351],[-0.751,54.386],[-0.483,54.425],[-0.216,54.471],[0.052,54.515],[0.321,54.558],[0.59,54.6],[0.861,54.639],[1.132,54.678],[1.394,54.713],[1.65,54.745]]}},{"type":"Feature","properties":{"kind":"cold","line":0,"px_len":895},"geometry":{"type":"LineString","coordinates":[[1.65,54.745],[1.929,54.783],[2.197,54.816],[2.472,54.849],[2.747,54.88],[3.023,54.911],[3.3,54.941],[3.577,54.968],[3.855,54.991],[4.134,55.014],[4.413,55.031],[4.694,55.039],[4.977,55.034],[5.261,55.022],[5.545,55.003],[5.827,54.999],[6.107,55.019],[6.385,55.061],[6.663,55.098],[6.944,55.124],[7.225,55.143],[7.506,55.152],[7.789,55.157],[8.071,55.161],[8.353,55.17],[8.636,55.177],[8.918,55.178],[9.201,55.179],[9.483,55.183],[9.766,55.189],[10.049,55.198],[10.332,55.203],[10.615,55.212],[10.898,55.22],[11.182,55.231],[11.466,55.244],[11.75,55.258],[12.035,55.274],[12.32,55.292],[12.606,55.312],[12.893,55.334],[13.18,55.359],[13.467,55.379],[13.754,55.396],[14.041,55.403],[14.327,55.405],[14.611,55.399],[14.897,55.401],[15.19,55.442],[15.491,55.52],[15.795,55.605],[16.098,55.675],[16.399,55.732],[16.7,55.78],[17.0,55.823],[17.302,55.868],[17.606,55.915],[17.911,55.964],[18.218,56.016],[18.527,56.07],[18.838,56.128],[19.152,56.19],[19.469,56.256],[19.789,56.326],[20.112,56.399],[20.438,56.478],[20.769,56.563],[21.102,56.647],[21.433,56.722],[21.759,56.78],[22.079,56.818],[22.393,56.84],[22.699,56.86],[22.974,56.92],[23.234,57.025],[23.511,57.156],[23.834,57.275],[24.183,57.379],[24.537,57.459],[24.882,57.518],[25.218,57.555],[25.546,57.576],[25.867,57.583],[26.183,57.58],[26.498,57.574],[26.812,57.565],[27.123,57.551],[27.431,57.532],[27.735,57.504],[27.985,57.478],[28.153,57.456]]}},{"type":"Feature","properties":{"kind":"stat","line":0,"px_len":311},"geometry":{"type":"LineString","coordinates":[[28.153,57.456],[28.442,57.539],[28.702,57.649],[28.958,57.774],[29.205,57.901],[29.445,58.029],[29.679,58.158],[29.907,58.288],[30.136,58.418],[30.369,58.548],[30.624,58.672],[30.905,58.792],[31.197,58.909],[31.436,59.037],[31.599,59.18],[31.716,59.334],[31.841,59.486],[31.983,59.635],[32.134,59.782],[32.294,59.928],[32.452,60.074],[32.604,60.221],[32.755,60.369],[32.902,60.519],[33.047,60.668],[33.191,60.819],[33.34,60.968],[33.486,61.119],[33.629,61.27],[33.771,61.422],[33.918,61.569],[34.093,61.718]]}},{"type":"Feature","properties":{"kind":"occl","line":0,"px_len":547},"geometry":{"type":"LineString","coordinates":[[34.093,61.718],[34.257,61.87],[34.423,62.013],[34.593,62.16],[34.764,62.307],[34.931,62.456],[35.1,62.604],[35.257,62.755],[35.408,62.907],[35.567,63.059],[35.739,63.207],[35.93,63.352],[36.127,63.496],[36.294,63.646],[36.408,63.809],[36.484,63.981],[36.583,64.148],[36.699,64.311],[36.801,64.478],[36.86,64.655],[36.845,64.848],[36.75,65.059],[36.619,65.278],[36.509,65.491],[36.444,65.695],[36.401,65.894],[36.373,66.09],[36.341,66.287],[36.299,66.486],[36.239,66.688],[36.156,66.895],[36.039,67.109],[35.881,67.329],[35.691,67.552],[35.479,67.775],[35.271,67.996],[35.097,68.215],[34.969,68.427],[34.86,68.629],[34.667,68.8],[34.364,68.939],[33.994,69.061],[33.634,69.193],[33.283,69.335],[32.933,69.482],[32.557,69.611],[32.137,69.707],[31.677,69.771],[31.212,69.832],[30.751,69.898],[30.296,69.97],[29.844,70.048],[29.397,70.132],[28.956,70.224],[28.548,70.298],[28.214,70.343]]}},{"type":"Feature","properties":{"kind":"warm","line":1,"px_len":607},"geometry":{"type":"LineString","coordinates":[[-46.525,44.527],[-46.71,44.607],[-46.865,44.707],[-47.013,44.822],[-47.154,44.946],[-47.287,45.077],[-47.414,45.217],[-47.544,45.355],[-47.7,45.464],[-47.884,45.544],[-48.084,45.607],[-48.28,45.676],[-48.471,45.749],[-48.657,45.828],[-48.839,45.913],[-49.018,46.001],[-49.195,46.092],[-49.371,46.185],[-49.548,46.278],[-49.726,46.369],[-49.906,46.46],[-50.089,46.547],[-50.273,46.634],[-50.461,46.717],[-50.649,46.801],[-50.839,46.882],[-51.032,46.96],[-51.226,47.038],[-51.418,47.118],[-51.612,47.198],[-51.809,47.273],[-52.003,47.352],[-52.194,47.436],[-52.38,47.528],[-52.559,47.629],[-52.733,47.737],[-52.915,47.837],[-53.12,47.907],[-53.349,47.945],[-53.59,47.969],[-53.825,48.001],[-54.056,48.037],[-54.28,48.082],[-54.499,48.135],[-54.716,48.191],[-54.932,48.249],[-55.148,48.307],[-55.366,48.363],[-55.582,48.421],[-55.8,48.478],[-56.018,48.536],[-56.237,48.591],[-56.458,48.644],[-56.683,48.691],[-56.914,48.731],[-57.15,48.763],[-57.392,48.784],[-57.64,48.798],[-57.89,48.805],[-58.147,48.804],[-58.38,48.795],[-58.566,48.785]]}},{"type":"Feature","properties":{"kind":"cold","line":1,"px_len":461},"geometry":{"type":"LineString","coordinates":[[-58.566,48.785],[-58.68,48.657],[-58.715,48.507],[-58.718,48.341],[-58.723,48.175],[-58.73,48.011],[-58.736,47.846],[-58.724,47.677],[-58.686,47.5],[-58.624,47.318],[-58.551,47.132],[-58.476,46.946],[-58.411,46.762],[-58.355,46.581],[-58.309,46.403],[-58.27,46.227],[-58.242,46.054],[-58.221,45.884],[-58.205,45.714],[-58.193,45.547],[-58.188,45.381],[-58.189,45.217],[-58.193,45.055],[-58.203,44.894],[-58.215,44.735],[-58.231,44.576],[-58.246,44.418],[-58.258,44.258],[-58.262,44.097],[-58.254,43.932],[-58.246,43.768],[-58.277,43.615],[-58.35,43.475],[-58.444,43.341],[-58.528,43.205],[-58.604,43.067],[-58.675,42.927],[-58.743,42.787],[-58.806,42.645],[-58.873,42.505],[-58.941,42.365],[-59.017,42.228],[-59.097,42.092],[-59.179,41.957],[-59.26,41.822],[-59.344,41.691],[-59.431,41.555]]}},{"type":"Feature","properties":{"kind":"occl","line":2,"px_len":402},"geometry":{"type":"LineString","coordinates":[[49.431,67.74],[49.762,67.863],[50.068,67.984],[50.39,68.106],[50.714,68.228],[51.003,68.362],[51.254,68.508],[51.503,68.657],[51.773,68.799],[52.054,68.938],[52.311,69.087],[52.526,69.25],[52.686,69.432],[52.826,69.622],[52.976,69.809],[53.159,69.986],[53.372,70.155],[53.612,70.316],[53.872,70.471],[54.149,70.622],[54.436,70.77],[54.73,70.918],[55.026,71.066],[55.314,71.217],[55.585,71.375],[55.836,71.542],[56.066,71.716],[56.285,71.896],[56.516,72.072],[56.807,72.231],[57.163,72.369],[57.556,72.496],[57.965,72.619],[58.371,72.743],[58.775,72.87],[59.213,72.986],[59.7,73.087],[60.212,73.179],[60.722,73.273],[61.217,73.37],[61.585,73.439],[61.791,73.473]]}}]}