{"type":"FeatureCollection","properties":{"chart":"ana","src":"Z__C_EDZW_20261001135105_tka01,ana_bwkman_dwdna_O_000000_000000_202610011200_WV12.png","valid_time":"2026-10-01T12:00:00+00:00"},"features":[{"type":"Feature","properties":{"kind":"cold","line":0,"px_len":513},"geometry":{"type":"LineString","coordinates":[[-21.531,53.866],[-21.777,53.789],[-21.992,53.697],[-22.205,53.597],[-22.417,53.497],[-22.626,53.395],[-22.833,53.292],[-23.04,53.189],[-23.246,53.086],[-23.449,52.981],[-23.652,52.877],[-23.854,52.772],[-24.054,52.667],[-24.253,52.562],[-24.449,52.455],[-24.639,52.342],[-24.819,52.222],[-24.989,52.094],[-25.151,51.959],[-25.332,51.842],[-25.541,51.751],[-25.77,51.677],[-25.996,51.602],[-26.213,51.519],[-26.422,51.43],[-26.623,51.334],[-26.821,51.236],[-27.018,51.138],[-27.22,51.044],[-27.42,50.95],[-27.62,50.855],[-27.818,50.76],[-28.015,50.665],[-28.213,50.57],[-28.414,50.479],[-28.618,50.39],[-28.821,50.301],[-29.025,50.213],[-29.222,50.12],[-29.416,50.025],[-29.604,49.926],[-29.785,49.821],[-29.962,49.714],[-30.167,49.63],[-30.407,49.573],[-30.67,49.533],[-30.923,49.486],[-31.167,49.431],[-31.403,49.371],[-31.635,49.307],[-31.868,49.246],[-32.048,49.2],[-32.155,49.175]]}},{"type":"Feature","properties":{"kind":"warm","line":0,"px_len":224},"geometry":{"type":"LineString","coordinates":[[-32.155,49.175],[-32.391,49.109],[-32.627,49.053],[-32.876,49.002],[-33.138,48.96],[-33.413,48.926],[-33.703,48.902],[-33.992,48.878],[-34.253,48.833],[-34.466,48.755],[-34.645,48.653],[-34.817,48.548],[-34.995,48.447],[-35.181,48.352],[-35.369,48.258],[-35.569,48.173],[-35.775,48.092],[-35.986,48.014],[-36.196,47.935],[-36.405,47.856],[-36.612,47.776],[-36.816,47.694],[-36.976,47.627],[-37.076,47.584]]}},{"type":"Feature","properties":{"kind":"cold","line":0,"px_len":512},"geometry":{"type":"LineString","coordinates":[[-37.076,47.584],[-37.278,47.497],[-37.479,47.418],[-37.687,47.339],[-37.892,47.258],[-38.092,47.174],[-38.292,47.091],[-38.486,47.003],[-38.672,46.911],[-38.849,46.814],[-39.019,46.712],[-39.179,46.605],[-39.334,46.495],[-39.515,46.401],[-39.733,46.33],[-39.984,46.277],[-40.224,46.219],[-40.451,46.151],[-40.664,46.076],[-40.868,45.996],[-41.067,45.913],[-41.268,45.831],[-41.469,45.749],[-41.671,45.667],[-41.874,45.586],[-42.078,45.506],[-42.28,45.425],[-42.472,45.338],[-42.651,45.244],[-42.817,45.143],[-42.98,45.041],[-43.159,44.95],[-43.384,44.894],[-43.653,44.862],[-43.931,44.829],[-44.197,44.781],[-44.452,44.726],[-44.703,44.669],[-44.958,44.614],[-45.219,44.561],[-45.483,44.51],[-45.741,44.455],[-45.983,44.391],[-46.199,44.314],[-46.393,44.227],[-46.585,44.155],[-46.787,44.129],[-47.011,44.142],[-47.25,44.156],[-47.507,44.149],[-47.775,44.122],[-47.974,44.09],[-48.077,44.068]]}},{"type":"Feature","properties":{"kind":"warm","line":1,"px_len":1017},"geometry":{"type":"LineString","coordinates":[[-11.643,32.637],[-11.516,32.747],[-11.4,32.867],[-11.283,32.994],[-11.166,33.12],[-11.047,33.246],[-10.928,33.372],[-10.808,33.499],[-10.689,33.626],[-10.569,33.756],[-10.45,33.888],[-10.332,34.022],[-10.213,34.158],[-10.096,34.299],[-9.981,34.445],[-9.876,34.599],[-9.789,34.761],[-9.723,34.925],[-9.681,35.084],[-9.643,35.243],[-9.587,35.404],[-9.496,35.563],[-9.376,35.702],[-9.243,35.821],[-9.109,35.938],[-8.98,36.07],[-8.865,36.223],[-8.759,36.39],[-8.657,36.565],[-8.555,36.74],[-8.449,36.917],[-8.341,37.094],[-8.231,37.271],[-8.123,37.447],[-8.02,37.623],[-7.921,37.797],[-7.828,37.97],[-7.739,38.141],[-7.655,38.312],[-7.584,38.479],[-7.53,38.642],[-7.496,38.801],[-7.481,38.955],[-7.479,39.107],[-7.461,39.262],[-7.402,39.427],[-7.294,39.588],[-7.154,39.725],[-7.001,39.842],[-6.849,39.96],[-6.702,40.094],[-6.56,40.245],[-6.42,40.402],[-6.278,40.557],[-6.132,40.704],[-5.981,40.841],[-5.827,40.969],[-5.668,41.088],[-5.506,41.201],[-5.342,41.31],[-5.177,41.416],[-5.01,41.521],[-4.842,41.625],[-4.676,41.736],[-4.511,41.854],[-4.35,41.984],[-4.19,42.121],[-4.025,42.248],[-3.848,42.337],[-3.657,42.386],[-3.459,42.411],[-3.261,42.438],[-3.066,42.476],[-2.873,42.517],[-2.68,42.565],[-2.49,42.621],[-2.302,42.683],[-2.115,42.753],[-1.927,42.825],[-1.74,42.898],[-1.553,42.972],[-1.365,43.047],[-1.177,43.123],[-0.989,43.201],[-0.801,43.285],[-0.616,43.379],[-0.433,43.488],[-0.256,43.611],[-0.086,43.748],[0.086,43.886],[0.268,44.003],[0.462,44.082],[0.662,44.136],[0.864,44.186],[1.065,44.238],[1.264,44.301],[1.462,44.376],[1.657,44.467],[1.851,44.571],[2.044,44.684],[2.237,44.8],[2.411,44.907],[2.548,44.991]]}},{"type":"Feature","properties":{"kind":"cold","line":1,"px_len":1195},"geometry":{"type":"LineString","coordinates":[[2.548,44.991],[2.746,45.125],[2.936,45.255],[3.131,45.392],[3.327,45.534],[3.524,45.678],[3.722,45.818],[3.924,45.947],[4.129,46.06],[4.337,46.153],[4.537,46.237],[4.683,46.342],[4.773,46.478],[4.843,46.635],[4.937,46.794],[5.06,46.954],[5.206,47.115],[5.366,47.277],[5.528,47.439],[5.688,47.601],[5.843,47.762],[5.995,47.923],[6.145,48.083],[6.294,48.244],[6.452,48.405],[6.635,48.566],[6.841,48.725],[7.05,48.88],[7.189,49.034],[7.257,49.19],[7.288,49.347],[7.326,49.504],[7.374,49.661],[7.441,49.819],[7.518,49.977],[7.599,50.135],[7.677,50.294],[7.749,50.452],[7.817,50.61],[7.879,50.769],[7.937,50.927],[7.989,51.085],[8.036,51.244],[8.078,51.402],[8.116,51.561],[8.149,51.719],[8.18,51.878],[8.207,52.037],[8.243,52.196],[8.286,52.355],[8.339,52.515],[8.38,52.674],[8.364,52.833],[8.287,52.992],[8.193,53.15],[8.109,53.309],[8.034,53.467],[7.966,53.626],[7.89,53.785],[7.801,53.944],[7.699,54.102],[7.589,54.261],[7.467,54.419],[7.338,54.577],[7.203,54.736],[7.062,54.893],[6.914,55.051],[6.765,55.209],[6.632,55.367],[6.526,55.525],[6.439,55.685],[6.365,55.845],[6.271,56.004],[6.093,56.161],[5.838,56.315],[5.572,56.468],[5.347,56.622],[5.155,56.778],[4.987,56.934],[4.831,57.091],[4.675,57.247],[4.515,57.404],[4.349,57.56],[4.186,57.716],[4.044,57.873],[3.929,58.032],[3.831,58.192],[3.747,58.352],[3.617,58.503],[3.401,58.645],[3.109,58.782],[2.821,58.928],[2.565,59.078],[2.34,59.23],[2.137,59.383],[1.945,59.537],[1.753,59.69],[1.567,59.844],[1.387,59.998],[1.222,60.154],[1.071,60.31],[0.93,60.467],[0.795,60.625],[0.675,60.784],[0.573,60.944],[0.488,61.106],[0.423,61.269],[0.371,61.433],[0.311,61.597],[0.188,61.757],[0.006,61.912],[-0.187,62.066],[-0.357,62.221],[-0.497,62.38],[-0.611,62.54],[-0.71,62.702],[-0.793,62.865],[-0.868,63.029],[-0.935,63.194],[-0.991,63.332],[-1.029,63.425]]}},{"type":"Feature","properties":{"kind":"stat","line":1,"px_len":932},"geometry":{"type":"LineString","coordinates":[[-1.029,63.425],[-1.08,63.595],[-1.12,63.759],[-1.157,63.927],[-1.19,64.096],[-1.23,64.264],[-1.28,64.431],[-1.345,64.598],[-1.433,64.762],[-1.54,64.925],[-1.66,65.087],[-1.729,65.254],[-1.7,65.429],[-1.572,65.612],[-1.426,65.796],[-1.303,65.978],[-1.202,66.158],[-1.134,66.336],[-1.09,66.512],[-1.051,66.688],[-1.007,66.864],[-0.956,67.041],[-0.897,67.218],[-0.838,67.395],[-0.789,67.572],[-0.77,67.746],[-0.776,67.919],[-0.799,68.091],[-0.846,68.262],[-0.919,68.431],[-0.969,68.601],[-0.918,68.779],[-0.736,68.965],[-0.497,69.154],[-0.272,69.342],[-0.097,69.526],[0.027,69.707],[0.11,69.886],[0.159,70.063],[0.194,70.239],[0.215,70.415],[0.227,70.59],[0.238,70.765],[0.264,70.941],[0.31,71.118],[0.386,71.296],[0.479,71.476],[0.486,71.651],[0.369,71.82],[0.158,71.985],[-0.038,72.15],[-0.231,72.315],[-0.431,72.481],[-0.649,72.645],[-0.884,72.808],[-1.146,72.97],[-1.434,73.131],[-1.747,73.29],[-2.058,73.449],[-2.346,73.609],[-2.617,73.771],[-2.887,73.932],[-3.231,74.087],[-3.751,74.225],[-4.455,74.344],[-5.228,74.456],[-5.996,74.571],[-6.722,74.692],[-7.404,74.821],[-8.089,74.944],[-8.772,75.006],[-9.43,74.992],[-10.046,74.922],[-10.661,74.852],[-11.279,74.788],[-11.897,74.726],[-12.51,74.661],[-13.118,74.596],[-13.717,74.526],[-14.287,74.44],[-14.811,74.33],[-15.277,74.187],[-15.694,74.021],[-16.08,73.84],[-16.466,73.664],[-16.858,73.496],[-17.258,73.336],[-17.656,73.179],[-18.048,73.021],[-18.427,72.86],[-18.799,72.699],[-19.161,72.534],[-19.51,72.37],[-19.76,72.25],[-19.89,72.183]]}},{"type":"Feature","properties":{"kind":"occl","line":1,"px_len":891},"geometry":{"type":"LineString","coordinates":[[-19.89,72.183],[-20.246,72.018],[-20.579,71.858],[-20.912,71.693],[-21.243,71.531],[-21.583,71.375],[-21.945,71.233],[-22.326,71.104],[-22.73,70.989],[-23.142,70.879],[-23.566,70.777],[-24.002,70.682],[-24.454,70.597],[-24.903,70.51],[-25.328,70.413],[-25.731,70.307],[-26.125,70.197],[-26.525,70.092],[-26.928,69.989],[-27.312,69.878],[-27.659,69.751],[-27.976,69.612],[-28.292,69.474],[-28.624,69.345],[-28.969,69.223],[-29.326,69.107],[-29.686,68.994],[-30.059,68.887],[-30.45,68.789],[-30.842,68.692],[-31.225,68.592],[-31.591,68.485],[-31.937,68.371],[-32.268,68.251],[-32.587,68.127],[-32.898,68.001],[-33.198,67.871],[-33.49,67.739],[-33.775,67.605],[-34.068,67.475],[-34.369,67.35],[-34.685,67.231],[-35.005,67.114],[-35.334,67.002],[-35.664,66.89],[-35.951,66.763],[-36.199,66.621],[-36.44,66.477],[-36.691,66.338],[-36.945,66.201],[-37.177,66.057],[-37.361,65.894],[-37.47,65.704],[-37.54,65.499],[-37.593,65.288],[-37.662,65.084],[-37.733,64.882],[-37.768,64.666],[-37.752,64.442],[-37.696,64.22],[-37.611,64.013],[-37.499,63.819],[-37.366,63.636],[-37.225,63.458],[-37.085,63.28],[-36.952,63.1],[-36.83,62.915],[-36.726,62.722],[-36.621,62.531],[-36.466,62.365],[-36.253,62.227],[-36.008,62.105],[-35.768,61.982],[-35.538,61.854],[-35.319,61.722],[-35.077,61.601],[-34.786,61.504],[-34.435,61.435],[-34.058,61.377],[-33.682,61.318],[-33.313,61.256],[-32.956,61.188],[-32.602,61.119],[-32.244,61.05],[-31.882,60.984],[-31.52,60.917],[-31.161,60.848],[-30.808,60.777],[-30.466,60.713],[-30.113,60.672]]}},{"type":"Feature","properties":{"kind":"warm","line":2,"px_len":428},"geometry":{"type":"LineString","coordinates":[[17.222,74.066],[16.699,74.264],[16.219,74.452],[15.755,74.641],[15.348,74.828],[15.013,75.011],[14.765,75.193],[14.556,75.372],[14.286,75.553],[13.852,75.73],[13.263,75.883],[12.582,75.995],[11.874,76.075],[11.157,76.148],[10.433,76.234],[9.701,76.332],[8.958,76.435],[8.204,76.531],[7.441,76.614],[6.67,76.685],[5.893,76.746],[5.112,76.796],[4.328,76.837],[3.543,76.867],[2.757,76.89],[1.97,76.907],[1.178,76.927],[0.378,76.952],[-0.43,76.981],[-1.245,77.012],[-2.057,77.032],[-2.834,77.012],[-3.557,76.939],[-4.231,76.826],[-4.879,76.698],[-5.509,76.564],[-6.125,76.428],[-6.724,76.285],[-7.292,76.127],[-7.794,75.944],[-8.171,75.745],[-8.414,75.544],[-8.576,75.361],[-8.71,75.208]]}},{"type":"Feature","properties":{"kind":"cold","line":3,"px_len":1090},"geometry":{"type":"LineString","coordinates":[[50.824,52.273],[51.024,52.381],[51.211,52.488],[51.403,52.596],[51.597,52.704],[51.792,52.812],[51.988,52.92],[52.186,53.027],[52.384,53.134],[52.584,53.24],[52.784,53.347],[52.986,53.453],[53.192,53.557],[53.406,53.657],[53.63,53.751],[53.867,53.838],[54.115,53.919],[54.357,54.003],[54.563,54.109],[54.734,54.236],[54.9,54.367],[55.077,54.491],[55.266,54.609],[55.463,54.722],[55.67,54.831],[55.88,54.937],[56.09,55.044],[56.296,55.155],[56.503,55.265],[56.711,55.375],[56.92,55.484],[57.131,55.593],[57.341,55.704],[57.547,55.817],[57.755,55.929],[57.964,56.041],[58.175,56.153],[58.381,56.269],[58.593,56.381],[58.803,56.495],[59.013,56.61],[59.23,56.721],[59.447,56.832],[59.674,56.938],[59.911,57.037],[60.159,57.13],[60.416,57.217],[60.645,57.323],[60.836,57.456],[60.999,57.609],[61.17,57.757],[61.353,57.897],[61.548,58.031],[61.751,58.16],[61.96,58.286],[62.17,58.412],[62.38,58.538],[62.592,58.665],[62.804,58.792],[63.015,58.921],[63.228,59.05],[63.439,59.181],[63.649,59.313],[63.856,59.449],[64.062,59.586],[64.268,59.725],[64.471,59.867],[64.676,60.009],[64.88,60.153],[65.092,60.292],[65.317,60.423],[65.558,60.543],[65.811,60.655],[66.071,60.764],[66.337,60.869],[66.564,61.004],[66.75,61.171],[66.918,61.353],[67.107,61.522],[67.317,61.676],[67.543,61.819],[67.78,61.955],[68.021,62.09],[68.265,62.224],[68.509,62.359],[68.756,62.494],[69.005,62.629],[69.256,62.763],[69.511,62.897],[69.765,63.032],[70.023,63.166],[70.283,63.3],[70.544,63.435],[70.811,63.567],[71.089,63.692],[71.383,63.805],[71.688,63.91],[72.004,64.008],[72.323,64.105],[72.604,64.235],[72.843,64.405],[73.06,64.595],[73.299,64.769],[73.559,64.927],[73.836,65.074],[74.123,65.213],[74.417,65.35],[74.723,65.477],[74.99,65.606],[75.187,65.75]]}},{"type":"Feature","properties":{"kind":"warm","line":4,"px_len":409},"geometry":{"type":"LineString","coordinates":[[-55.22,52.716],[-55.277,52.912],[-55.364,53.109],[-55.46,53.313],[-55.552,53.514],[-55.635,53.714],[-55.701,53.909],[-55.745,54.097],[-55.758,54.277],[-55.744,54.451],[-55.737,54.626],[-55.786,54.814],[-55.905,54.999],[-56.083,55.16],[-56.287,55.294],[-56.494,55.427],[-56.69,55.575],[-56.875,55.739],[-57.055,55.912],[-57.235,56.088],[-57.418,56.262],[-57.605,56.433],[-57.791,56.608],[-57.968,56.797],[-58.121,56.997],[-58.251,57.195],[-58.392,57.38],[-58.578,57.538],[-58.815,57.661],[-59.074,57.755],[-59.338,57.844],[-59.603,57.934],[-59.864,58.031],[-60.118,58.139],[-60.365,58.26],[-60.608,58.389],[-60.852,58.519],[-61.099,58.646],[-61.354,58.766],[-61.614,58.875],[-61.822,58.993],[-61.959,59.123]]}}]}