{"type":"FeatureCollection","properties":{"chart":"ana","src":"Z__C_EDZW_20261007010820_tka01,ana_bwkman_dwdna_O_000000_000000_202610070000_WV12.png","valid_time":"2026-10-07T00:00:00+00:00"},"features":[{"type":"Feature","properties":{"kind":"cold","line":0,"px_len":1205},"geometry":{"type":"LineString","coordinates":[[-20.81,41.118],[-20.64,41.196],[-20.494,41.294],[-20.351,41.401],[-20.205,41.508],[-20.058,41.612],[-19.905,41.71],[-19.748,41.803],[-19.586,41.889],[-19.42,41.971],[-19.249,42.048],[-19.074,42.119],[-18.916,42.214],[-18.776,42.334],[-18.647,42.471],[-18.511,42.598],[-18.366,42.715],[-18.216,42.825],[-18.062,42.93],[-17.904,43.032],[-17.746,43.133],[-17.587,43.234],[-17.428,43.336],[-17.268,43.438],[-17.109,43.54],[-16.949,43.644],[-16.789,43.747],[-16.629,43.853],[-16.469,43.959],[-16.309,44.066],[-16.148,44.173],[-15.989,44.282],[-15.83,44.395],[-15.673,44.51],[-15.517,44.628],[-15.359,44.745],[-15.202,44.865],[-15.046,44.986],[-14.888,45.107],[-14.728,45.225],[-14.56,45.332],[-14.384,45.427],[-14.204,45.516],[-14.022,45.604],[-13.87,45.718],[-13.744,45.871],[-13.632,46.053],[-13.502,46.23],[-13.36,46.389],[-13.209,46.537],[-13.053,46.678],[-12.897,46.82],[-12.74,46.963],[-12.583,47.107],[-12.425,47.251],[-12.266,47.397],[-12.107,47.543],[-11.946,47.688],[-11.785,47.834],[-11.621,47.979],[-11.457,48.125],[-11.292,48.271],[-11.127,48.418],[-10.96,48.565],[-10.791,48.71],[-10.622,48.856],[-10.451,49.002],[-10.278,49.147],[-10.103,49.291],[-9.926,49.432],[-9.743,49.564],[-9.551,49.682],[-9.35,49.785],[-9.142,49.876],[-8.932,49.963],[-8.755,50.078],[-8.606,50.234],[-8.466,50.419],[-8.299,50.596],[-8.118,50.753],[-7.926,50.893],[-7.728,51.022],[-7.527,51.147],[-7.324,51.271],[-7.118,51.391],[-6.909,51.509],[-6.7,51.626],[-6.488,51.743],[-6.275,51.858],[-6.06,51.971],[-5.843,52.083],[-5.625,52.195],[-5.404,52.305],[-5.183,52.415],[-4.96,52.524],[-4.735,52.633],[-4.509,52.74],[-4.281,52.847],[-4.053,52.954],[-3.822,53.059],[-3.587,53.157],[-3.347,53.243],[-3.1,53.315],[-2.85,53.379],[-2.597,53.437],[-2.366,53.525],[-2.154,53.648],[-1.948,53.799],[-1.723,53.939],[-1.486,54.063],[-1.242,54.169],[-0.993,54.265],[-0.742,54.355],[-0.488,54.443],[-0.232,54.527],[0.025,54.609],[0.285,54.686],[0.547,54.761],[0.81,54.833],[1.075,54.902],[1.298,54.957],[1.45,54.99]]}},{"type":"Feature","properties":{"kind":"warm","line":0,"px_len":319},"geometry":{"type":"LineString","coordinates":[[1.45,54.99],[1.723,55.061],[1.986,55.125],[2.257,55.187],[2.529,55.246],[2.803,55.302],[3.078,55.355],[3.354,55.407],[3.632,55.456],[3.909,55.507],[4.187,55.563],[4.464,55.628],[4.741,55.7],[5.018,55.783],[5.296,55.862],[5.58,55.908],[5.869,55.913],[6.161,55.892],[6.452,55.872],[6.742,55.861],[7.031,55.858],[7.319,55.859],[7.608,55.867],[7.896,55.875],[8.184,55.886],[8.473,55.896],[8.762,55.904],[9.051,55.907],[9.34,55.907],[9.629,55.907],[9.918,55.906],[10.191,55.905],[10.438,55.902]]}},{"type":"Feature","properties":{"kind":"cold","line":0,"px_len":1323},"geometry":{"type":"LineString","coordinates":[[10.438,55.902],[10.733,55.887],[11.015,55.877],[11.303,55.866],[11.591,55.855],[11.879,55.843],[12.166,55.829],[12.454,55.815],[12.741,55.802],[13.028,55.787],[13.314,55.767],[13.6,55.749],[13.885,55.723],[14.169,55.692],[14.45,55.647],[14.729,55.594],[15.006,55.535],[15.287,55.502],[15.573,55.497],[15.862,55.506],[16.15,55.508],[16.436,55.502],[16.721,55.489],[17.003,55.468],[17.285,55.443],[17.567,55.419],[17.848,55.393],[18.127,55.363],[18.406,55.332],[18.685,55.303],[18.963,55.27],[19.241,55.237],[19.518,55.206],[19.795,55.172],[20.07,55.136],[20.347,55.104],[20.623,55.073],[20.899,55.041],[21.175,55.009],[21.452,54.982],[21.728,54.953],[22.006,54.929],[22.283,54.903],[22.562,54.88],[22.84,54.857],[23.117,54.831],[23.392,54.801],[23.664,54.765],[23.934,54.725],[24.199,54.675],[24.466,54.629],[24.747,54.614],[25.044,54.633],[25.345,54.659],[25.642,54.673],[25.935,54.678],[26.224,54.676],[26.511,54.668],[26.795,54.656],[27.081,54.645],[27.367,54.634],[27.654,54.624],[27.942,54.616],[28.23,54.608],[28.519,54.601],[28.81,54.594],[29.101,54.589],[29.393,54.585],[29.686,54.58],[29.979,54.576],[30.274,54.573],[30.569,54.57],[30.865,54.568],[31.162,54.566],[31.459,54.564],[31.759,54.563],[32.061,54.566],[32.364,54.569],[32.662,54.564],[32.951,54.547],[33.232,54.519],[33.507,54.483],[33.785,54.453],[34.088,54.468],[34.424,54.52],[34.773,54.579],[35.113,54.619],[35.443,54.643],[35.766,54.659],[36.088,54.672],[36.411,54.685],[36.737,54.7],[37.066,54.717],[37.399,54.736],[37.733,54.755],[38.067,54.772],[38.401,54.789],[38.735,54.804],[39.072,54.821],[39.412,54.838],[39.756,54.859],[40.106,54.883],[40.461,54.911],[40.824,54.944],[41.19,54.978],[41.555,55.009],[41.908,55.028],[42.246,55.032],[42.556,55.045],[42.822,55.1],[43.049,55.2],[43.264,55.312],[43.491,55.42],[43.74,55.52],[44.006,55.613],[44.278,55.704],[44.544,55.796],[44.807,55.89],[45.079,55.98],[45.367,56.064],[45.669,56.142],[45.989,56.212],[46.332,56.273],[46.683,56.329],[46.953,56.419],[47.126,56.551],[47.237,56.709],[47.349,56.868],[47.462,57.026],[47.578,57.184],[47.697,57.341],[47.817,57.497],[47.908,57.617],[47.958,57.688]]}},{"type":"Feature","properties":{"kind":"occl","line":0,"px_len":746},"geometry":{"type":"LineString","coordinates":[[47.958,57.688],[48.122,57.832],[48.279,57.971],[48.439,58.112],[48.599,58.255],[48.759,58.399],[48.916,58.543],[49.07,58.69],[49.219,58.84],[49.367,58.99],[49.514,59.142],[49.655,59.296],[49.797,59.451],[49.948,59.602],[50.117,59.747],[50.294,59.888],[50.478,60.027],[50.666,60.165],[50.813,60.321],[50.915,60.498],[50.996,60.684],[51.098,60.862],[51.218,61.032],[51.323,61.21],[51.374,61.406],[51.343,61.61],[51.25,61.806],[51.136,61.996],[51.041,62.198],[50.977,62.416],[50.932,62.644],[50.891,62.876],[50.838,63.102],[50.774,63.323],[50.699,63.54],[50.615,63.752],[50.519,63.959],[50.413,64.162],[50.303,64.364],[50.185,64.563],[50.059,64.759],[49.926,64.953],[49.787,65.144],[49.641,65.334],[49.49,65.522],[49.335,65.709],[49.174,65.894],[49.015,66.082],[48.875,66.28],[48.767,66.493],[48.707,66.715],[48.655,66.93],[48.529,67.114],[48.314,67.274],[48.079,67.434],[47.862,67.603],[47.661,67.782],[47.455,67.96],[47.201,68.116],[46.88,68.241],[46.529,68.352],[46.181,68.467],[45.844,68.588],[45.508,68.71],[45.186,68.841],[44.872,68.977],[44.564,69.119],[44.255,69.261],[43.946,69.405],[43.633,69.548],[43.315,69.691],[42.993,69.833],[42.669,69.977],[42.344,70.122],[42.098,70.256],[41.957,70.363]]}},{"type":"Feature","properties":{"kind":"warm","line":1,"px_len":472},"geometry":{"type":"LineString","coordinates":[[44.235,49.165],[44.37,49.298],[44.479,49.434],[44.586,49.576],[44.694,49.717],[44.808,49.857],[44.928,49.994],[45.058,50.127],[45.193,50.257],[45.342,50.382],[45.498,50.504],[45.668,50.62],[45.843,50.733],[45.994,50.858],[46.099,51.005],[46.159,51.173],[46.213,51.345],[46.275,51.513],[46.35,51.676],[46.436,51.834],[46.532,51.988],[46.633,52.139],[46.734,52.291],[46.831,52.446],[46.923,52.603],[47.011,52.763],[47.096,52.924],[47.181,53.086],[47.266,53.249],[47.349,53.412],[47.432,53.577],[47.513,53.742],[47.605,53.903],[47.712,54.057],[47.835,54.205],[47.968,54.348],[48.105,54.49],[48.232,54.637],[48.306,54.806],[48.29,54.993],[48.194,55.172],[48.06,55.335],[47.913,55.49],[47.759,55.64],[47.597,55.786],[47.433,55.93],[47.271,56.075],[47.153,56.182],[47.089,56.238]]}},{"type":"Feature","properties":{"kind":"cold","line":2,"px_len":1092},"geometry":{"type":"LineString","coordinates":[[-53.568,39.548],[-53.402,39.649],[-53.237,39.743],[-53.054,39.834],[-52.893,39.934],[-52.774,40.05],[-52.687,40.18],[-52.595,40.307],[-52.495,40.433],[-52.389,40.555],[-52.276,40.675],[-52.158,40.793],[-52.036,40.91],[-51.913,41.027],[-51.791,41.143],[-51.668,41.26],[-51.547,41.378],[-51.426,41.496],[-51.307,41.615],[-51.185,41.733],[-51.066,41.853],[-50.947,41.972],[-50.828,42.092],[-50.71,42.213],[-50.593,42.334],[-50.476,42.456],[-50.359,42.577],[-50.242,42.699],[-50.127,42.822],[-50.011,42.945],[-49.897,43.068],[-49.781,43.192],[-49.667,43.316],[-49.554,43.441],[-49.441,43.566],[-49.328,43.692],[-49.214,43.817],[-49.099,43.942],[-48.987,44.069],[-48.868,44.193],[-48.741,44.314],[-48.601,44.429],[-48.453,44.541],[-48.314,44.656],[-48.208,44.788],[-48.135,44.934],[-48.063,45.081],[-47.982,45.224],[-47.888,45.361],[-47.786,45.496],[-47.682,45.629],[-47.574,45.762],[-47.467,45.895],[-47.36,46.028],[-47.258,46.164],[-47.16,46.302],[-47.064,46.442],[-46.97,46.582],[-46.877,46.723],[-46.784,46.865],[-46.692,47.008],[-46.604,47.152],[-46.517,47.298],[-46.429,47.443],[-46.344,47.59],[-46.264,47.74],[-46.185,47.891],[-46.104,48.041],[-46.024,48.192],[-45.943,48.342],[-45.865,48.495],[-45.792,48.65],[-45.726,48.809],[-45.664,48.97],[-45.604,49.132],[-45.544,49.295],[-45.479,49.455],[-45.405,49.612],[-45.316,49.763],[-45.215,49.908],[-45.107,50.051],[-45.006,50.197],[-44.965,50.371],[-44.971,50.567],[-44.988,50.768],[-44.983,50.959],[-44.959,51.142],[-44.922,51.319],[-44.878,51.494],[-44.839,51.671],[-44.804,51.85],[-44.772,52.031],[-44.746,52.215],[-44.725,52.402],[-44.705,52.589],[-44.671,52.77],[-44.615,52.942],[-44.543,53.108],[-44.455,53.267],[-44.36,53.423],[-44.265,53.58],[-44.187,53.734],[-44.204,53.877],[-44.325,54.007],[-44.513,54.128],[-44.704,54.247],[-44.898,54.365],[-45.095,54.481],[-45.294,54.593],[-45.44,54.675],[-45.518,54.719]]}},{"type":"Feature","properties":{"kind":"occl","line":2,"px_len":439},"geometry":{"type":"LineString","coordinates":[[-45.518,54.719],[-45.734,54.829],[-45.942,54.932],[-46.164,55.032],[-46.395,55.124],[-46.637,55.208],[-46.886,55.285],[-47.145,55.356],[-47.413,55.418],[-47.69,55.473],[-47.972,55.523],[-48.258,55.57],[-48.552,55.61],[-48.852,55.643],[-49.154,55.675],[-49.463,55.701],[-49.775,55.722],[-50.092,55.738],[-50.405,55.757],[-50.71,55.784],[-51.002,55.823],[-51.287,55.869],[-51.569,55.918],[-51.867,55.95],[-52.192,55.955],[-52.536,55.938],[-52.872,55.929],[-53.195,55.933],[-53.517,55.936],[-53.855,55.918],[-54.2,55.864],[-54.534,55.783],[-54.865,55.693],[-55.216,55.614],[-55.578,55.552],[-55.931,55.505],[-56.277,55.464],[-56.622,55.422],[-56.967,55.378],[-57.312,55.331],[-57.657,55.283],[-58.001,55.232],[-58.349,55.175],[-58.676,55.118],[-58.967,55.073]]}},{"type":"Feature","properties":{"kind":"warm","line":3,"px_len":398},"geometry":{"type":"LineString","coordinates":[[-36.291,49.646],[-36.406,49.799],[-36.533,49.934],[-36.664,50.072],[-36.791,50.213],[-36.906,50.363],[-37.012,50.52],[-37.105,50.686],[-37.187,50.86],[-37.272,51.032],[-37.396,51.18],[-37.567,51.296],[-37.766,51.394],[-37.962,51.494],[-38.152,51.599],[-38.339,51.707],[-38.519,51.819],[-38.696,51.935],[-38.87,52.053],[-39.04,52.174],[-39.21,52.295],[-39.386,52.414],[-39.569,52.528],[-39.758,52.638],[-39.952,52.746],[-40.156,52.846],[-40.364,52.944],[-40.575,53.041],[-40.785,53.139],[-40.996,53.236],[-41.197,53.342],[-41.393,53.451],[-41.58,53.567],[-41.763,53.688],[-41.967,53.793],[-42.225,53.859],[-42.544,53.879],[-42.889,53.878],[-43.242,53.87],[-43.567,53.862],[-43.842,53.853]]}}]}