{"type":"FeatureCollection","properties":{"chart":"ana","src":"Z__C_EDZW_20261004184038_tka01,ana_bwkman_dwdna_O_000000_000000_202610041800_WV12.png","valid_time":"2026-10-04T18:00:00+00:00"},"features":[{"type":"Feature","properties":{"kind":"cold","line":0,"px_len":1864},"geometry":{"type":"LineString","coordinates":[[-54.085,41.333],[-53.858,41.337],[-53.631,41.355],[-53.396,41.378],[-53.158,41.402],[-52.919,41.427],[-52.678,41.455],[-52.434,41.485],[-52.188,41.517],[-51.938,41.552],[-51.686,41.589],[-51.434,41.626],[-51.185,41.655],[-50.947,41.67],[-50.72,41.67],[-50.505,41.659],[-50.313,41.682],[-50.143,41.747],[-49.983,41.847],[-49.811,41.943],[-49.62,42.03],[-49.409,42.109],[-49.188,42.183],[-48.964,42.255],[-48.742,42.328],[-48.519,42.4],[-48.299,42.473],[-48.077,42.545],[-47.858,42.618],[-47.64,42.692],[-47.423,42.766],[-47.209,42.84],[-46.995,42.915],[-46.782,42.991],[-46.571,43.067],[-46.362,43.143],[-46.154,43.22],[-45.941,43.295],[-45.716,43.363],[-45.474,43.423],[-45.218,43.47],[-44.987,43.527],[-44.799,43.607],[-44.651,43.714],[-44.503,43.822],[-44.35,43.927],[-44.185,44.026],[-44.009,44.12],[-43.826,44.21],[-43.641,44.298],[-43.457,44.388],[-43.275,44.478],[-43.094,44.57],[-42.913,44.661],[-42.733,44.752],[-42.553,44.844],[-42.374,44.937],[-42.195,45.03],[-42.016,45.123],[-41.838,45.216],[-41.659,45.309],[-41.479,45.402],[-41.301,45.496],[-41.123,45.59],[-40.944,45.684],[-40.765,45.778],[-40.585,45.872],[-40.407,45.966],[-40.227,46.06],[-40.043,46.152],[-39.849,46.238],[-39.644,46.317],[-39.426,46.388],[-39.209,46.46],[-39.024,46.552],[-38.873,46.665],[-38.73,46.782],[-38.579,46.895],[-38.417,47.002],[-38.252,47.107],[-38.079,47.208],[-37.902,47.306],[-37.721,47.402],[-37.539,47.498],[-37.356,47.593],[-37.173,47.689],[-36.989,47.784],[-36.805,47.879],[-36.619,47.974],[-36.434,48.069],[-36.246,48.163],[-36.058,48.256],[-35.87,48.35],[-35.681,48.444],[-35.492,48.538],[-35.301,48.631],[-35.109,48.723],[-34.917,48.816],[-34.726,48.91],[-34.534,49.003],[-34.34,49.095],[-34.147,49.188],[-33.952,49.28],[-33.757,49.373],[-33.562,49.465],[-33.367,49.558],[-33.17,49.65],[-32.971,49.741],[-32.767,49.828],[-32.553,49.909],[-32.328,49.981],[-32.092,50.046],[-31.86,50.115],[-31.659,50.205],[-31.486,50.317],[-31.321,50.435],[-31.146,50.546],[-30.962,50.651],[-30.768,50.749],[-30.569,50.844],[-30.365,50.935],[-30.16,51.027],[-29.954,51.118],[-29.748,51.208],[-29.542,51.3],[-29.333,51.39],[-29.127,51.481],[-28.918,51.572],[-28.709,51.662],[-28.5,51.753],[-28.292,51.846],[-28.088,51.942],[-27.884,52.038],[-27.678,52.134],[-27.472,52.23],[-27.264,52.325],[-27.059,52.423],[-26.856,52.522],[-26.656,52.626],[-26.455,52.728],[-26.255,52.833],[-26.057,52.94],[-25.86,53.048],[-25.662,53.156],[-25.466,53.267],[-25.267,53.375],[-25.066,53.483],[-24.857,53.585],[-24.644,53.683],[-24.42,53.773],[-24.193,53.86],[-23.987,53.968],[-23.817,54.108],[-23.674,54.273],[-23.525,54.434],[-23.362,54.584],[-23.189,54.726],[-23.009,54.862],[-22.827,54.998],[-22.644,55.135],[-22.463,55.274],[-22.283,55.415],[-22.104,55.559],[-21.926,55.705],[-21.751,55.855],[-21.577,56.007],[-21.405,56.162],[-21.235,56.32],[-21.069,56.484],[-20.904,56.65],[-20.743,56.822],[-20.587,56.999],[-20.435,57.182],[-20.288,57.372],[-20.146,57.568],[-20.01,57.771],[-19.879,57.981],[-19.744,58.189],[-19.596,58.386],[-19.43,58.568],[-19.266,58.742],[-19.167,58.915],[-19.138,59.096],[-19.15,59.281],[-19.161,59.465],[-19.157,59.647],[-19.112,59.781],[-19.043,59.854]]}},{"type":"Feature","properties":{"kind":"warm","line":0,"px_len":497},"geometry":{"type":"LineString","coordinates":[[-19.043,59.854],[-18.747,59.935],[-18.462,60.011],[-18.169,60.088],[-17.874,60.164],[-17.578,60.24],[-17.28,60.314],[-16.977,60.386],[-16.651,60.433],[-16.282,60.435],[-15.898,60.382],[-15.518,60.295],[-15.135,60.201],[-14.727,60.119],[-14.308,60.052],[-13.898,59.995],[-13.493,59.942],[-13.087,59.885],[-12.684,59.826],[-12.282,59.767],[-11.883,59.707],[-11.488,59.648],[-11.097,59.592],[-10.71,59.538],[-10.329,59.489],[-9.954,59.445],[-9.586,59.41],[-9.23,59.389],[-8.885,59.383],[-8.547,59.389],[-8.216,59.403],[-7.888,59.422],[-7.552,59.427],[-7.197,59.399],[-6.824,59.338],[-6.45,59.27],[-6.087,59.219],[-5.737,59.188],[-5.395,59.17],[-5.061,59.166],[-4.732,59.173],[-4.407,59.185],[-4.082,59.198],[-3.758,59.213],[-3.435,59.23],[-3.113,59.248],[-2.794,59.273],[-2.474,59.298],[-2.156,59.326],[-1.872,59.356],[-1.652,59.388]]}},{"type":"Feature","properties":{"kind":"cold","line":0,"px_len":567},"geometry":{"type":"LineString","coordinates":[[-1.652,59.388],[-1.329,59.424],[-1.021,59.463],[-0.707,59.51],[-0.394,59.559],[-0.081,59.612],[0.232,59.667],[0.545,59.726],[0.858,59.788],[1.17,59.856],[1.482,59.929],[1.795,60.005],[2.108,60.082],[2.425,60.153],[2.745,60.215],[3.068,60.269],[3.394,60.316],[3.713,60.378],[4.001,60.487],[4.262,60.639],[4.534,60.802],[4.835,60.958],[5.155,61.103],[5.48,61.242],[5.808,61.383],[6.138,61.532],[6.471,61.687],[6.807,61.852],[7.136,62.021],[7.457,62.194],[7.762,62.366],[8.056,62.536],[8.336,62.707],[8.606,62.876],[8.871,63.045],[9.133,63.214],[9.396,63.382],[9.675,63.549],[9.989,63.717],[10.343,63.877],[10.72,64.026],[11.002,64.173],[11.174,64.33],[11.261,64.496],[11.352,64.664],[11.453,64.831],[11.584,64.998],[11.736,65.165],[11.901,65.331],[12.059,65.498],[12.215,65.664],[12.359,65.831],[12.496,65.998],[12.624,66.165],[12.75,66.332],[12.866,66.499],[12.968,66.649],[13.043,66.767]]}},{"type":"Feature","properties":{"kind":"occl","line":0,"px_len":531},"geometry":{"type":"LineString","coordinates":[[13.043,66.767],[13.132,66.939],[13.214,67.104],[13.284,67.273],[13.348,67.442],[13.397,67.611],[13.422,67.782],[13.436,67.952],[13.439,68.124],[13.455,68.294],[13.475,68.465],[13.508,68.636],[13.556,68.806],[13.543,68.978],[13.429,69.153],[13.223,69.33],[13.014,69.507],[12.829,69.682],[12.63,69.858],[12.347,70.034],[11.943,70.194],[11.459,70.312],[10.954,70.39],[10.445,70.451],[9.932,70.521],[9.416,70.602],[8.894,70.696],[8.368,70.793],[7.836,70.883],[7.301,70.963],[6.762,71.033],[6.22,71.094],[5.676,71.147],[5.131,71.19],[4.586,71.221],[4.042,71.243],[3.498,71.256],[2.955,71.267],[2.409,71.28],[1.858,71.3],[1.304,71.324],[0.745,71.356],[0.191,71.37],[-0.353,71.363],[-0.884,71.332],[-1.41,71.295],[-1.934,71.255],[-2.456,71.215],[-2.969,71.164],[-3.454,71.077],[-3.898,70.937],[-4.313,70.766],[-4.697,70.589],[-5.06,70.413]]}},{"type":"Feature","properties":{"kind":"occl","line":1,"px_len":484},"geometry":{"type":"LineString","coordinates":[[60.337,58.958],[60.465,59.122],[60.625,59.273],[60.801,59.425],[60.997,59.565],[61.234,59.679],[61.508,59.77],[61.791,59.856],[62.065,59.949],[62.334,60.045],[62.613,60.136],[62.929,60.202],[63.281,60.243],[63.649,60.273],[64.009,60.309],[64.359,60.351],[64.697,60.4],[65.034,60.451],[65.373,60.5],[65.716,60.546],[66.062,60.59],[66.413,60.629],[66.769,60.665],[67.128,60.698],[67.491,60.727],[67.858,60.752],[68.231,60.772],[68.609,60.787],[68.995,60.795],[69.386,60.797],[69.784,60.793],[70.188,60.781],[70.602,60.758],[71.025,60.726],[71.451,60.688],[71.872,60.653],[72.276,60.631],[72.66,60.626],[73.028,60.636],[73.402,60.64],[73.793,60.615],[74.188,60.553],[74.562,60.461],[74.923,60.361],[75.298,60.263],[75.679,60.166],[75.986,60.052],[76.194,59.917],[76.303,59.797],[76.368,59.721]]}},{"type":"Feature","properties":{"kind":"occl","line":2,"px_len":1680},"geometry":{"type":"LineString","coordinates":[[16.646,52.981],[16.941,53.081],[17.222,53.168],[17.51,53.248],[17.795,53.314],[18.078,53.362],[18.357,53.395],[18.633,53.422],[18.89,53.479],[19.141,53.576],[19.41,53.701],[19.708,53.819],[20.014,53.918],[20.309,54.016],[20.574,54.13],[20.787,54.267],[20.956,54.41],[21.12,54.555],[21.314,54.696],[21.543,54.832],[21.798,54.965],[22.068,55.096],[22.34,55.227],[22.607,55.357],[22.871,55.488],[23.13,55.619],[23.384,55.75],[23.633,55.882],[23.878,56.014],[24.12,56.147],[24.358,56.279],[24.594,56.413],[24.827,56.546],[25.058,56.679],[25.288,56.813],[25.515,56.947],[25.744,57.08],[25.981,57.212],[26.237,57.341],[26.521,57.465],[26.83,57.585],[27.135,57.705],[27.372,57.836],[27.536,57.979],[27.686,58.126],[27.858,58.268],[28.055,58.407],[28.255,58.545],[28.408,58.691],[28.507,58.847],[28.581,59.008],[28.67,59.167],[28.775,59.322],[28.893,59.476],[29.021,59.628],[29.158,59.779],[29.301,59.928],[29.447,60.078],[29.59,60.228],[29.731,60.379],[29.862,60.532],[29.986,60.686],[30.105,60.841],[30.226,60.996],[30.338,61.154],[30.445,61.312],[30.548,61.471],[30.648,61.631],[30.743,61.793],[30.828,61.956],[30.909,62.12],[30.985,62.286],[31.06,62.452],[31.127,62.62],[31.188,62.789],[31.247,62.958],[31.306,63.128],[31.364,63.298],[31.428,63.468],[31.503,63.635],[31.594,63.8],[31.699,63.963],[31.814,64.124],[31.947,64.283],[32.092,64.439],[32.205,64.601],[32.281,64.771],[32.351,64.941],[32.451,65.107],[32.563,65.271],[32.649,65.439],[32.685,65.617],[32.667,65.805],[32.631,65.995],[32.605,66.184],[32.611,66.368],[32.648,66.546],[32.71,66.721],[32.794,66.892],[32.893,67.06],[32.999,67.228],[33.113,67.395],[33.238,67.56],[33.38,67.723],[33.539,67.883],[33.71,68.041],[33.904,68.196],[34.112,68.349],[34.338,68.499],[34.574,68.647],[34.829,68.793],[35.086,68.938],[35.354,69.082],[35.635,69.224],[35.938,69.362],[36.272,69.495],[36.642,69.622],[37.046,69.743],[37.481,69.858],[37.881,69.979],[38.22,70.112],[38.49,70.258],[38.768,70.403],[39.062,70.545],[39.394,70.68],[39.691,70.823],[39.913,70.98],[40.065,71.151],[40.21,71.324],[40.38,71.492],[40.568,71.658],[40.764,71.823],[40.97,71.986],[41.162,72.153],[41.341,72.323],[41.497,72.497],[41.63,72.677],[41.741,72.861],[41.832,73.049],[41.906,73.241],[41.97,73.435],[42.022,73.632],[42.05,73.833],[42.052,74.039],[42.029,74.249],[41.986,74.463],[41.919,74.681],[41.822,74.903],[41.7,75.129],[41.556,75.358],[41.394,75.589],[41.241,75.818],[41.13,76.04],[41.095,76.251],[41.129,76.451],[41.117,76.654],[40.967,76.865],[40.701,77.091],[40.474,77.32],[40.338,77.542],[40.151,77.736],[39.773,77.893],[39.171,78.018],[38.507,78.132],[37.829,78.243],[37.129,78.35],[36.369,78.436],[35.513,78.471],[34.572,78.459]]}}]}