{"type":"FeatureCollection","properties":{"chart":"ana","src":"Z__C_EDZW_20261008013523_tka01,ana_bwkman_dwdna_O_000000_000000_202610080000_WV12.png","valid_time":"2026-10-08T00:00:00+00:00"},"features":[{"type":"Feature","properties":{"kind":"cold","line":0,"px_len":752},"geometry":{"type":"LineString","coordinates":[[-4.884,42.287],[-4.676,42.296],[-4.477,42.305],[-4.274,42.315],[-4.081,42.356],[-3.895,42.421],[-3.712,42.493],[-3.526,42.558],[-3.335,42.612],[-3.143,42.66],[-2.949,42.703],[-2.756,42.752],[-2.564,42.804],[-2.373,42.861],[-2.182,42.92],[-1.991,42.981],[-1.801,43.044],[-1.61,43.111],[-1.42,43.18],[-1.23,43.251],[-1.041,43.325],[-0.851,43.401],[-0.661,43.479],[-0.471,43.557],[-0.278,43.628],[-0.081,43.687],[0.117,43.738],[0.317,43.785],[0.505,43.859],[0.675,43.977],[0.834,44.135],[1.001,44.287],[1.178,44.425],[1.362,44.556],[1.551,44.687],[1.739,44.825],[1.927,44.969],[2.115,45.119],[2.303,45.278],[2.491,45.444],[2.672,45.612],[2.846,45.779],[3.018,45.946],[3.197,46.112],[3.39,46.27],[3.592,46.409],[3.797,46.526],[3.964,46.643],[4.068,46.777],[4.12,46.93],[4.177,47.088],[4.257,47.247],[4.363,47.408],[4.49,47.57],[4.627,47.733],[4.764,47.895],[4.896,48.057],[5.025,48.219],[5.155,48.381],[5.291,48.543],[5.441,48.705],[5.62,48.869],[5.822,49.024],[5.989,49.175],[6.088,49.325],[6.126,49.482],[6.162,49.64],[6.207,49.798],[6.272,49.957],[6.36,50.117],[6.458,50.277],[6.557,50.437],[6.655,50.598],[6.75,50.758],[6.829,50.916],[6.868,51.031],[6.868,51.092]]}},{"type":"Feature","properties":{"kind":"warm","line":1,"px_len":712},"geometry":{"type":"LineString","coordinates":[[27.208,51.994],[27.081,52.156],[26.911,52.312],[26.72,52.471],[26.528,52.631],[26.333,52.79],[26.137,52.949],[25.939,53.108],[25.744,53.276],[25.565,53.453],[25.413,53.638],[25.293,53.824],[25.174,54.008],[25.017,54.183],[24.814,54.331],[24.581,54.444],[24.337,54.537],[24.093,54.631],[23.854,54.74],[23.622,54.867],[23.397,55.013],[23.174,55.17],[22.951,55.33],[22.725,55.488],[22.495,55.644],[22.262,55.795],[22.026,55.943],[21.785,56.086],[21.541,56.223],[21.294,56.36],[21.048,56.504],[20.805,56.662],[20.575,56.835],[20.344,57.006],[20.099,57.154],[19.825,57.248],[19.538,57.305],[19.245,57.348],[18.952,57.394],[18.66,57.444],[18.369,57.498],[18.079,57.563],[17.791,57.634],[17.502,57.708],[17.211,57.78],[16.919,57.849],[16.624,57.915],[16.328,57.978],[16.03,58.039],[15.731,58.094],[15.429,58.147],[15.126,58.194],[14.821,58.234],[14.514,58.267],[14.205,58.294],[13.896,58.319],[13.586,58.343],[13.276,58.369],[12.966,58.399],[12.656,58.435],[12.346,58.475],[12.035,58.512],[11.72,58.508],[11.402,58.447],[11.082,58.335],[10.763,58.207],[10.448,58.08],[10.135,57.955],[9.825,57.824],[9.525,57.676],[9.247,57.525],[9.051,57.419],[8.941,57.37]]}},{"type":"Feature","properties":{"kind":"cold","line":2,"px_len":447},"geometry":{"type":"LineString","coordinates":[[40.374,49.947],[40.656,49.963],[40.926,49.96],[41.201,49.949],[41.467,49.928],[41.721,49.894],[41.964,49.849],[42.196,49.793],[42.428,49.742],[42.677,49.732],[42.954,49.768],[43.258,49.823],[43.577,49.864],[43.896,49.889],[44.207,49.904],[44.515,49.915],[44.825,49.927],[45.141,49.942],[45.462,49.961],[45.791,49.985],[46.126,50.013],[46.467,50.045],[46.809,50.075],[47.151,50.103],[47.488,50.126],[47.826,50.148],[48.165,50.169],[48.499,50.185],[48.816,50.186],[49.112,50.169],[49.386,50.135],[49.642,50.087],[49.885,50.064],[50.126,50.089],[50.374,50.153],[50.646,50.209],[50.945,50.249],[51.267,50.272],[51.594,50.279],[51.911,50.269],[52.209,50.244],[52.486,50.204],[52.745,50.174],[52.988,50.187],[53.201,50.241],[53.363,50.294]]}},{"type":"Feature","properties":{"kind":"occl","line":3,"px_len":974},"geometry":{"type":"LineString","coordinates":[[69.092,57.65],[68.917,57.789],[68.754,57.923],[68.596,58.064],[68.437,58.205],[68.276,58.345],[68.106,58.483],[67.923,58.617],[67.722,58.746],[67.509,58.871],[67.285,58.993],[67.048,59.11],[66.83,59.234],[66.65,59.371],[66.495,59.517],[66.331,59.66],[66.153,59.798],[65.974,59.937],[65.821,60.084],[65.705,60.245],[65.61,60.413],[65.504,60.577],[65.381,60.737],[65.242,60.891],[65.087,61.041],[64.919,61.187],[64.745,61.331],[64.569,61.475],[64.393,61.62],[64.215,61.764],[64.037,61.909],[63.86,62.055],[63.682,62.2],[63.504,62.347],[63.324,62.493],[63.148,62.64],[62.979,62.791],[62.823,62.947],[62.689,63.111],[62.571,63.28],[62.474,63.458],[62.396,63.642],[62.282,63.814],[62.12,63.971],[61.918,64.116],[61.725,64.263],[61.548,64.417],[61.385,64.576],[61.183,64.723],[60.932,64.853],[60.652,64.975],[60.383,65.1],[60.129,65.231],[59.885,65.366],[59.653,65.506],[59.431,65.65],[59.22,65.799],[59.012,65.949],[58.801,66.099],[58.589,66.249],[58.373,66.398],[58.155,66.548],[57.932,66.696],[57.708,66.845],[57.48,66.994],[57.25,67.142],[57.016,67.29],[56.777,67.437],[56.535,67.583],[56.289,67.729],[56.043,67.876],[55.789,68.021],[55.541,68.169],[55.304,68.322],[55.091,68.484],[54.894,68.653],[54.717,68.83],[54.517,69.0],[54.266,69.153],[53.956,69.286],[53.634,69.415],[53.32,69.548],[53.016,69.686],[52.699,69.82],[52.319,69.931],[51.887,70.024],[51.439,70.112],[51.002,70.204],[50.571,70.299],[50.154,70.4],[49.745,70.505],[49.337,70.611],[48.933,70.719],[48.528,70.828],[48.118,70.936],[47.704,71.044],[47.282,71.149],[46.933,71.228],[46.7,71.273]]}},{"type":"Feature","properties":{"kind":"warm","line":4,"px_len":395},"geometry":{"type":"LineString","coordinates":[[-49.138,37.494],[-49.02,37.607],[-48.895,37.711],[-48.781,37.823],[-48.676,37.939],[-48.574,38.058],[-48.474,38.178],[-48.377,38.3],[-48.28,38.421],[-48.181,38.543],[-48.083,38.664],[-47.983,38.786],[-47.879,38.905],[-47.773,39.023],[-47.667,39.142],[-47.565,39.263],[-47.463,39.385],[-47.356,39.504],[-47.252,39.624],[-47.148,39.746],[-47.057,39.874],[-46.968,40.003],[-46.886,40.136],[-46.812,40.274],[-46.744,40.415],[-46.661,40.548],[-46.539,40.662],[-46.382,40.759],[-46.222,40.853],[-46.068,40.951],[-45.924,41.055],[-45.784,41.161],[-45.652,41.27],[-45.525,41.383],[-45.402,41.498],[-45.277,41.613],[-45.153,41.728],[-45.027,41.842],[-44.9,41.956],[-44.797,42.053],[-44.728,42.12]]}},{"type":"Feature","properties":{"kind":"cold","line":4,"px_len":1397},"geometry":{"type":"LineString","coordinates":[[-44.728,42.12],[-44.593,42.234],[-44.467,42.345],[-44.336,42.458],[-44.207,42.573],[-44.078,42.687],[-43.946,42.801],[-43.815,42.915],[-43.682,43.028],[-43.546,43.14],[-43.403,43.249],[-43.251,43.352],[-43.087,43.449],[-42.914,43.541],[-42.757,43.643],[-42.629,43.76],[-42.527,43.893],[-42.422,44.025],[-42.309,44.152],[-42.185,44.274],[-42.049,44.389],[-41.911,44.503],[-41.769,44.615],[-41.629,44.729],[-41.485,44.84],[-41.344,44.954],[-41.199,45.065],[-41.057,45.179],[-40.911,45.29],[-40.767,45.403],[-40.621,45.516],[-40.474,45.628],[-40.328,45.74],[-40.18,45.852],[-40.032,45.964],[-39.883,46.076],[-39.734,46.189],[-39.583,46.3],[-39.431,46.412],[-39.28,46.524],[-39.127,46.635],[-38.973,46.746],[-38.818,46.856],[-38.66,46.966],[-38.492,47.069],[-38.317,47.168],[-38.13,47.26],[-37.935,47.348],[-37.746,47.439],[-37.587,47.549],[-37.455,47.677],[-37.327,47.807],[-37.189,47.932],[-37.04,48.051],[-36.885,48.165],[-36.718,48.273],[-36.55,48.381],[-36.385,48.49],[-36.216,48.597],[-36.045,48.704],[-35.875,48.811],[-35.708,48.922],[-35.541,49.032],[-35.373,49.142],[-35.197,49.247],[-35.021,49.352],[-34.845,49.458],[-34.673,49.567],[-34.505,49.679],[-34.337,49.792],[-34.167,49.903],[-33.991,50.011],[-33.813,50.118],[-33.64,50.229],[-33.467,50.34],[-33.295,50.453],[-33.119,50.563],[-32.947,50.677],[-32.772,50.788],[-32.599,50.902],[-32.424,51.015],[-32.247,51.127],[-32.065,51.236],[-31.869,51.336],[-31.667,51.431],[-31.455,51.52],[-31.253,51.616],[-31.082,51.735],[-30.942,51.878],[-30.807,52.025],[-30.66,52.164],[-30.506,52.298],[-30.343,52.426],[-30.176,52.552],[-30.006,52.677],[-29.836,52.803],[-29.666,52.929],[-29.495,53.055],[-29.327,53.184],[-29.159,53.314],[-28.994,53.447],[-28.829,53.581],[-28.667,53.717],[-28.506,53.856],[-28.348,53.997],[-28.191,54.14],[-28.037,54.286],[-27.887,54.436],[-27.738,54.588],[-27.593,54.744],[-27.448,54.9],[-27.293,55.051],[-27.125,55.192],[-26.944,55.324],[-26.758,55.452],[-26.634,55.596],[-26.587,55.766],[-26.593,55.961],[-26.577,56.168],[-26.534,56.386],[-26.475,56.61],[-26.417,56.834],[-26.362,57.055],[-26.296,57.269],[-26.21,57.474],[-26.094,57.665],[-25.949,57.839],[-25.786,57.999],[-25.621,58.161],[-25.46,58.325],[-25.363,58.486],[-25.426,58.622],[-25.646,58.734],[-25.908,58.839],[-26.156,58.95],[-26.396,59.064],[-26.632,59.179],[-26.868,59.295],[-27.086,59.418],[-27.269,59.533],[-27.404,59.627]]}},{"type":"Feature","properties":{"kind":"occl","line":4,"px_len":1134},"geometry":{"type":"LineString","coordinates":[[-27.404,59.627],[-27.573,59.774],[-27.745,59.911],[-27.93,60.049],[-28.123,60.184],[-28.332,60.312],[-28.552,60.438],[-28.785,60.558],[-29.028,60.675],[-29.282,60.789],[-29.545,60.899],[-29.822,61.003],[-30.107,61.105],[-30.404,61.202],[-30.714,61.294],[-31.038,61.38],[-31.373,61.462],[-31.713,61.542],[-32.044,61.625],[-32.358,61.715],[-32.658,61.812],[-32.957,61.909],[-33.306,61.985],[-33.728,62.028],[-34.198,62.05],[-34.649,62.078],[-35.072,62.118],[-35.499,62.151],[-35.932,62.155],[-36.339,62.114],[-36.704,62.047],[-37.048,61.971],[-37.407,61.901],[-37.783,61.838],[-38.168,61.779],[-38.556,61.72],[-38.933,61.657],[-39.303,61.59],[-39.662,61.518],[-40.012,61.442],[-40.345,61.359],[-40.651,61.266],[-40.929,61.161],[-41.187,61.048],[-41.429,60.929],[-41.655,60.805],[-41.849,60.668],[-42.0,60.515],[-42.103,60.344],[-42.188,60.166],[-42.284,59.993],[-42.394,59.826],[-42.499,59.658],[-42.578,59.48],[-42.647,59.298],[-42.755,59.132],[-42.915,58.988],[-43.102,58.854],[-43.289,58.722],[-43.477,58.59],[-43.674,58.461],[-43.88,58.337],[-44.098,58.218],[-44.348,58.112],[-44.636,58.02],[-44.966,57.944],[-45.335,57.886],[-45.72,57.844],[-46.102,57.801],[-46.493,57.752],[-46.894,57.712],[-47.287,57.691],[-47.668,57.677],[-48.054,57.646],[-48.439,57.593],[-48.815,57.544],[-49.192,57.514],[-49.562,57.501],[-49.92,57.497],[-50.255,57.514],[-50.571,57.546],[-50.877,57.589],[-51.176,57.638],[-51.469,57.692],[-51.758,57.752],[-52.041,57.817],[-52.318,57.888],[-52.591,57.964],[-52.864,58.041],[-53.137,58.118],[-53.408,58.198],[-53.679,58.28],[-53.952,58.36],[-54.23,58.435],[-54.515,58.505],[-54.806,58.568],[-55.096,58.632],[-55.363,58.723],[-55.594,58.855],[-55.798,59.019],[-56.003,59.185],[-56.218,59.341],[-56.442,59.489],[-56.645,59.634],[-56.759,59.792],[-56.788,59.966],[-56.801,60.149],[-56.843,60.339],[-56.928,60.539],[-57.042,60.744],[-57.175,60.953],[-57.315,61.163],[-57.468,61.376],[-57.599,61.546],[-57.69,61.656]]}},{"type":"Feature","properties":{"kind":"warm","line":5,"px_len":496},"geometry":{"type":"LineString","coordinates":[[-20.457,51.153],[-20.362,51.373],[-20.266,51.58],[-20.166,51.791],[-20.063,51.999],[-19.953,52.203],[-19.829,52.392],[-19.689,52.564],[-19.538,52.727],[-19.406,52.902],[-19.329,53.09],[-19.334,53.269],[-19.4,53.43],[-19.488,53.583],[-19.572,53.738],[-19.651,53.896],[-19.716,54.058],[-19.768,54.225],[-19.818,54.392],[-19.876,54.558],[-19.942,54.721],[-20.016,54.882],[-20.096,55.041],[-20.176,55.2],[-20.253,55.361],[-20.321,55.525],[-20.379,55.693],[-20.424,55.865],[-20.461,56.04],[-20.513,56.21],[-20.624,56.362],[-20.798,56.494],[-21.006,56.615],[-21.213,56.737],[-21.41,56.862],[-21.595,56.992],[-21.765,57.126],[-21.929,57.263],[-22.098,57.399],[-22.278,57.531],[-22.468,57.66],[-22.674,57.784],[-22.898,57.902],[-23.137,58.016],[-23.383,58.127],[-23.635,58.236],[-23.9,58.341],[-24.188,58.438],[-24.5,58.526],[-24.791,58.589],[-25.013,58.622]]}},{"type":"Feature","properties":{"kind":"warm","line":6,"px_len":249},"geometry":{"type":"LineString","coordinates":[[39.383,73.376],[39.615,73.543],[39.731,73.72],[39.81,73.908],[39.888,74.097],[39.967,74.286],[40.061,74.473],[40.172,74.658],[40.285,74.843],[40.393,75.029],[40.488,75.218],[40.584,75.407],[40.711,75.592],[40.965,75.758],[41.396,75.898],[41.969,76.016],[42.57,76.131],[43.158,76.247],[43.739,76.365],[44.293,76.488],[44.837,76.613],[45.377,76.738],[45.931,76.863],[46.504,76.984],[47.069,77.09],[47.623,77.167]]}}]}