{"type":"FeatureCollection","properties":{"chart":"ana","src":"Z__C_EDZW_20261004013641_tka01,ana_bwkman_dwdna_O_000000_000000_202610040000_WV12.png","valid_time":"2026-10-04T00:00:00+00:00"},"features":[{"type":"Feature","properties":{"kind":"occl","line":0,"px_len":246},"geometry":{"type":"LineString","coordinates":[[-24.446,65.66],[-24.264,65.834],[-24.046,65.995],[-23.812,66.159],[-23.569,66.32],[-23.32,66.478],[-23.062,66.633],[-22.793,66.783],[-22.513,66.928],[-22.228,67.071],[-21.917,67.2],[-21.543,67.289],[-21.105,67.339],[-20.637,67.368],[-20.168,67.396],[-19.706,67.428],[-19.253,67.466],[-18.793,67.48],[-18.321,67.443],[-17.836,67.358],[-17.332,67.266],[-16.794,67.179],[-16.229,67.097],[-15.665,67.012],[-15.193,66.935],[-14.865,66.876]]}},{"type":"Feature","properties":{"kind":"cold","line":0,"px_len":867},"geometry":{"type":"LineString","coordinates":[[-14.865,66.876],[-14.41,66.765],[-14.001,66.655],[-13.619,66.535],[-13.272,66.409],[-12.954,66.278],[-12.656,66.144],[-12.362,66.009],[-12.058,65.876],[-11.742,65.745],[-11.42,65.614],[-11.162,65.474],[-10.998,65.318],[-10.911,65.152],[-10.819,64.986],[-10.72,64.821],[-10.605,64.66],[-10.479,64.5],[-10.358,64.339],[-10.256,64.177],[-10.171,64.011],[-10.098,63.844],[-10.04,63.675],[-9.995,63.504],[-9.963,63.331],[-9.948,63.155],[-9.95,62.977],[-9.967,62.797],[-10.001,62.614],[-10.039,62.431],[-10.062,62.249],[-10.056,62.073],[-10.03,61.901],[-10.037,61.73],[-10.157,61.571],[-10.38,61.419],[-10.631,61.263],[-10.868,61.092],[-11.09,60.904],[-11.302,60.709],[-11.511,60.512],[-11.724,60.324],[-11.939,60.141],[-12.156,59.965],[-12.375,59.795],[-12.595,59.628],[-12.817,59.466],[-13.039,59.308],[-13.262,59.153],[-13.479,58.994],[-13.685,58.823],[-13.872,58.633],[-14.041,58.437],[-14.235,58.276],[-14.469,58.16],[-14.732,58.07],[-14.99,57.975],[-15.245,57.877],[-15.489,57.769],[-15.724,57.651],[-15.955,57.53],[-16.185,57.41],[-16.416,57.293],[-16.649,57.179],[-16.882,57.067],[-17.116,56.957],[-17.352,56.851],[-17.59,56.748],[-17.829,56.648],[-18.07,56.55],[-18.311,56.454],[-18.556,56.362],[-18.801,56.272],[-19.047,56.184],[-19.287,56.091],[-19.52,55.991],[-19.748,55.887],[-19.984,55.792],[-20.249,55.728],[-20.541,55.689],[-20.839,55.656],[-21.129,55.615],[-21.414,55.57],[-21.692,55.518],[-21.968,55.463],[-22.243,55.409],[-22.491,55.362],[-22.685,55.324]]}},{"type":"Feature","properties":{"kind":"warm","line":0,"px_len":616},"geometry":{"type":"LineString","coordinates":[[-22.685,55.324],[-22.977,55.278],[-23.255,55.232],[-23.547,55.193],[-23.85,55.163],[-24.168,55.145],[-24.504,55.142],[-24.853,55.149],[-25.195,55.149],[-25.502,55.119],[-25.77,55.057],[-26.019,54.979],[-26.27,54.904],[-26.526,54.833],[-26.79,54.768],[-27.064,54.711],[-27.35,54.664],[-27.645,54.623],[-27.946,54.587],[-28.25,54.553],[-28.56,54.522],[-28.877,54.496],[-29.203,54.476],[-29.541,54.463],[-29.886,54.455],[-30.248,54.458],[-30.618,54.472],[-30.979,54.504],[-31.306,54.553],[-31.603,54.617],[-31.901,54.68],[-32.225,54.721],[-32.564,54.727],[-32.887,54.697],[-33.193,54.652],[-33.504,54.61],[-33.841,54.583],[-34.21,54.575],[-34.596,54.576],[-34.988,54.579],[-35.381,54.58],[-35.773,54.58],[-36.158,54.574],[-36.538,54.57],[-36.906,54.574],[-37.255,54.595],[-37.589,54.624],[-37.925,54.645],[-38.261,54.635],[-38.558,54.579],[-38.803,54.491],[-39.018,54.387],[-39.236,54.285],[-39.458,54.185],[-39.689,54.09],[-39.924,53.997],[-40.159,53.905],[-40.384,53.807],[-40.599,53.705],[-40.803,53.597],[-41.0,53.487],[-41.16,53.386],[-41.274,53.311]]}},{"type":"Feature","properties":{"kind":"cold","line":0,"px_len":1083},"geometry":{"type":"LineString","coordinates":[[-41.274,53.311],[-41.47,53.196],[-41.646,53.081],[-41.817,52.959],[-41.974,52.831],[-42.131,52.703],[-42.283,52.573],[-42.433,52.443],[-42.577,52.31],[-42.72,52.177],[-42.855,52.041],[-42.98,51.9],[-43.093,51.754],[-43.193,51.602],[-43.277,51.443],[-43.35,51.28],[-43.453,51.131],[-43.592,51.0],[-43.76,50.882],[-43.913,50.758],[-44.059,50.631],[-44.191,50.498],[-44.317,50.362],[-44.438,50.224],[-44.556,50.085],[-44.672,49.946],[-44.787,49.807],[-44.904,49.669],[-45.021,49.531],[-45.141,49.395],[-45.259,49.259],[-45.38,49.124],[-45.501,48.99],[-45.622,48.855],[-45.745,48.723],[-45.867,48.59],[-45.992,48.459],[-46.122,48.33],[-46.248,48.2],[-46.367,48.067],[-46.479,47.931],[-46.584,47.792],[-46.676,47.649],[-46.775,47.508],[-46.912,47.385],[-47.086,47.278],[-47.266,47.175],[-47.435,47.067],[-47.596,46.955],[-47.748,46.84],[-47.897,46.723],[-48.042,46.605],[-48.186,46.487],[-48.33,46.369],[-48.472,46.25],[-48.614,46.132],[-48.756,46.013],[-48.898,45.895],[-49.039,45.777],[-49.181,45.659],[-49.322,45.542],[-49.465,45.425],[-49.608,45.308],[-49.752,45.193],[-49.897,45.077],[-50.042,44.962],[-50.183,44.845],[-50.312,44.724],[-50.438,44.602],[-50.554,44.475],[-50.664,44.347],[-50.795,44.227],[-50.974,44.127],[-51.193,44.044],[-51.41,43.959],[-51.612,43.868],[-51.801,43.772],[-51.981,43.672],[-52.161,43.572],[-52.342,43.473],[-52.525,43.375],[-52.713,43.278],[-52.903,43.182],[-53.098,43.088],[-53.294,42.994],[-53.493,42.902],[-53.694,42.81],[-53.898,42.719],[-54.106,42.629],[-54.319,42.541],[-54.528,42.451],[-54.727,42.357],[-54.905,42.256],[-55.064,42.148],[-55.207,42.035],[-55.362,41.947],[-55.548,41.898],[-55.768,41.88],[-56.003,41.852],[-56.249,41.807],[-56.501,41.743],[-56.754,41.668],[-57.007,41.59],[-57.262,41.516],[-57.517,41.444],[-57.768,41.376],[-58.017,41.31],[-58.255,41.262],[-58.425,41.244],[-58.515,41.251]]}},{"type":"Feature","properties":{"kind":"occl","line":1,"px_len":228},"geometry":{"type":"LineString","coordinates":[[59.638,56.301],[59.8,56.453],[59.943,56.607],[60.085,56.768],[60.225,56.931],[60.363,57.097],[60.495,57.268],[60.616,57.447],[60.721,57.638],[60.821,57.833],[60.94,58.016],[61.107,58.168],[61.318,58.292],[61.553,58.401],[61.794,58.506],[62.042,58.608],[62.286,58.712],[62.547,58.805],[62.834,58.881],[63.145,58.941],[63.456,59.0],[63.764,59.062],[64.046,59.121],[64.281,59.172]]}},{"type":"Feature","properties":{"kind":"warm","line":1,"px_len":292},"geometry":{"type":"LineString","coordinates":[[64.281,59.172],[64.609,59.225],[64.928,59.273],[65.259,59.318],[65.594,59.359],[65.94,59.392],[66.29,59.421],[66.641,59.449],[66.982,59.484],[67.313,59.527],[67.643,59.571],[67.976,59.612],[68.33,59.635],[68.705,59.615],[69.067,59.545],[69.389,59.45],[69.703,59.351],[70.03,59.257],[70.377,59.167],[70.725,59.078],[71.055,58.984],[71.374,58.92],[71.696,58.903],[72.03,58.926],[72.365,58.949],[72.703,58.97],[73.043,58.986],[73.386,59.001],[73.726,59.012],[73.975,59.019],[74.11,59.023]]}},{"type":"Feature","properties":{"kind":"cold","line":2,"px_len":343},"geometry":{"type":"LineString","coordinates":[[5.932,52.456],[6.19,52.553],[6.439,52.631],[6.697,52.695],[6.956,52.747],[7.216,52.788],[7.474,52.828],[7.712,52.907],[7.941,53.036],[8.178,53.195],[8.438,53.342],[8.702,53.474],[8.969,53.597],[9.238,53.719],[9.509,53.847],[9.782,53.981],[10.057,54.124],[10.334,54.276],[10.605,54.432],[10.867,54.59],[11.128,54.744],[11.399,54.891],[11.678,55.021],[11.963,55.135],[12.19,55.256],[12.34,55.397],[12.429,55.556],[12.525,55.715],[12.647,55.873],[12.798,56.031],[12.968,56.187],[13.15,56.344],[13.334,56.5],[13.52,56.655],[13.662,56.773],[13.746,56.842]]}},{"type":"Feature","properties":{"kind":"occl","line":2,"px_len":1379},"geometry":{"type":"LineString","coordinates":[[13.746,56.842],[13.926,57.002],[14.091,57.154],[14.254,57.311],[14.41,57.467],[14.567,57.624],[14.717,57.781],[14.869,57.938],[14.992,58.096],[15.069,58.256],[15.106,58.419],[15.149,58.582],[15.218,58.744],[15.314,58.904],[15.399,59.065],[15.457,59.227],[15.504,59.39],[15.566,59.553],[15.642,59.715],[15.731,59.876],[15.844,60.036],[15.993,60.194],[16.184,60.35],[16.408,60.503],[16.653,60.655],[16.917,60.806],[17.194,60.956],[17.48,61.104],[17.773,61.252],[18.072,61.399],[18.384,61.544],[18.719,61.686],[19.085,61.819],[19.474,61.938],[19.846,62.054],[20.127,62.183],[20.329,62.332],[20.522,62.485],[20.748,62.635],[21.002,62.782],[21.26,62.929],[21.45,63.082],[21.56,63.243],[21.627,63.408],[21.709,63.572],[21.805,63.735],[21.915,63.896],[22.039,64.056],[22.18,64.215],[22.329,64.373],[22.477,64.531],[22.619,64.69],[22.751,64.85],[22.876,65.011],[22.987,65.174],[23.103,65.336],[23.234,65.497],[23.393,65.655],[23.574,65.811],[23.763,65.967],[23.898,66.128],[23.97,66.295],[24.016,66.466],[24.076,66.635],[24.142,66.804],[24.184,66.976],[24.171,67.153],[24.067,67.34],[23.858,67.537],[23.568,67.741],[23.254,67.946],[22.959,68.148],[22.675,68.349],[22.371,68.551],[22.037,68.754],[21.675,68.955],[21.302,69.152],[20.939,69.347],[20.615,69.544],[20.356,69.736],[20.173,69.923],[19.958,70.102],[19.648,70.271],[19.231,70.441],[18.822,70.621],[18.451,70.81],[18.084,71.002],[17.67,71.178],[17.201,71.332],[16.714,71.473],[16.233,71.635],[15.795,71.813],[15.429,71.999],[15.142,72.182],[14.909,72.363],[14.736,72.541],[14.629,72.718],[14.549,72.894],[14.462,73.071],[14.403,73.246],[14.411,73.42],[14.492,73.592],[14.62,73.763],[14.801,73.933],[15.022,74.102],[15.269,74.27],[15.54,74.437],[15.835,74.604],[16.152,74.769],[16.482,74.934],[16.824,75.099],[17.139,75.264],[17.42,75.43],[17.679,75.597],[17.934,75.764],[18.285,75.927],[18.779,76.085],[19.406,76.237],[20.008,76.389],[20.54,76.543],[21.004,76.699],[21.554,76.848],[22.27,76.985],[23.13,77.113],[23.955,77.246],[24.69,77.384],[25.364,77.525],[25.995,77.668],[26.6,77.812],[27.202,77.956],[27.806,78.1],[28.413,78.243],[29.011,78.386],[29.602,78.53],[30.205,78.673],[30.833,78.814],[31.525,78.933],[32.288,78.998],[33.097,79.013]]}}]}