{"type":"FeatureCollection","properties":{"chart":"ana","src":"Z__C_EDZW_20261002014431_tka01,ana_bwkman_dwdna_O_000000_000000_202610020000_WV12.png","valid_time":"2026-10-02T00:00:00+00:00"},"features":[{"type":"Feature","properties":{"kind":"cold","line":0,"px_len":275},"geometry":{"type":"LineString","coordinates":[[33.25,42.393],[33.466,42.407],[33.673,42.4],[33.883,42.384],[34.094,42.367],[34.304,42.35],[34.514,42.332],[34.723,42.312],[34.927,42.284],[35.125,42.248],[35.318,42.203],[35.508,42.154],[35.694,42.099],[35.89,42.059],[36.108,42.052],[36.346,42.073],[36.581,42.089],[36.808,42.093],[37.028,42.086],[37.244,42.073],[37.458,42.058],[37.676,42.046],[37.895,42.036],[38.115,42.027],[38.336,42.019],[38.559,42.012],[38.782,42.006],[38.97,42.003],[39.099,42.002]]}},{"type":"Feature","properties":{"kind":"warm","line":0,"px_len":201},"geometry":{"type":"LineString","coordinates":[[39.099,42.002],[39.32,41.984],[39.537,41.974],[39.761,41.966],[39.985,41.958],[40.209,41.949],[40.434,41.941],[40.661,41.934],[40.888,41.928],[41.12,41.927],[41.362,41.936],[41.615,41.963],[41.869,42.007],[42.118,42.063],[42.366,42.108],[42.607,42.121],[42.823,42.095],[43.011,42.038],[43.193,41.974],[43.388,41.945],[43.618,41.966]]}},{"type":"Feature","properties":{"kind":"cold","line":1,"px_len":599},"geometry":{"type":"LineString","coordinates":[[-47.362,42.045],[-47.167,41.991],[-46.972,41.948],[-46.778,41.898],[-46.591,41.841],[-46.408,41.779],[-46.226,41.716],[-46.024,41.682],[-45.793,41.681],[-45.538,41.705],[-45.286,41.716],[-45.043,41.717],[-44.809,41.708],[-44.575,41.697],[-44.342,41.686],[-44.104,41.678],[-43.864,41.672],[-43.619,41.671],[-43.369,41.673],[-43.112,41.681],[-42.854,41.69],[-42.596,41.698],[-42.348,41.695],[-42.114,41.677],[-41.896,41.646],[-41.693,41.641],[-41.504,41.681],[-41.325,41.76],[-41.141,41.838],[-40.945,41.909],[-40.732,41.97],[-40.513,42.026],[-40.293,42.082],[-40.081,42.143],[-39.874,42.206],[-39.673,42.274],[-39.478,42.345],[-39.288,42.419],[-39.102,42.496],[-38.921,42.576],[-38.746,42.66],[-38.576,42.748],[-38.412,42.84],[-38.253,42.935],[-38.102,43.036],[-37.959,43.143],[-37.819,43.252],[-37.672,43.357],[-37.52,43.458],[-37.365,43.558],[-37.243,43.68],[-37.162,43.831],[-37.109,44.002],[-37.048,44.167],[-36.974,44.324],[-36.888,44.474],[-36.794,44.618],[-36.693,44.758],[-36.585,44.895],[-36.478,45.02],[-36.378,45.131]]}},{"type":"Feature","properties":{"kind":"stat","line":1,"px_len":1211},"geometry":{"type":"LineString","coordinates":[[-36.378,45.131],[-36.241,45.254],[-36.106,45.368],[-35.963,45.483],[-35.821,45.598],[-35.679,45.713],[-35.545,45.835],[-35.416,45.961],[-35.292,46.09],[-35.15,46.207],[-34.969,46.298],[-34.747,46.359],[-34.512,46.412],[-34.28,46.466],[-34.056,46.526],[-33.841,46.592],[-33.631,46.662],[-33.424,46.734],[-33.215,46.805],[-33.003,46.874],[-32.788,46.94],[-32.572,47.005],[-32.36,47.074],[-32.155,47.148],[-31.958,47.229],[-31.764,47.312],[-31.575,47.399],[-31.384,47.485],[-31.171,47.554],[-30.918,47.591],[-30.625,47.596],[-30.323,47.593],[-30.036,47.601],[-29.766,47.622],[-29.512,47.655],[-29.266,47.695],[-29.025,47.739],[-28.787,47.786],[-28.551,47.834],[-28.318,47.883],[-28.085,47.934],[-27.855,47.987],[-27.625,48.039],[-27.397,48.094],[-27.172,48.151],[-26.949,48.21],[-26.729,48.272],[-26.508,48.333],[-26.284,48.392],[-26.054,48.445],[-25.816,48.489],[-25.567,48.524],[-25.316,48.557],[-25.09,48.613],[-24.889,48.695],[-24.699,48.786],[-24.504,48.873],[-24.299,48.951],[-24.09,49.026],[-23.873,49.093],[-23.654,49.159],[-23.432,49.22],[-23.208,49.282],[-22.986,49.344],[-22.763,49.406],[-22.54,49.469],[-22.319,49.532],[-22.098,49.598],[-21.878,49.664],[-21.658,49.73],[-21.437,49.796],[-21.218,49.865],[-21.0,49.934],[-20.783,50.005],[-20.567,50.078],[-20.351,50.151],[-20.134,50.225],[-19.923,50.304],[-19.714,50.387],[-19.509,50.475],[-19.308,50.568],[-19.115,50.672],[-18.927,50.783],[-18.744,50.9],[-18.546,51.001],[-18.326,51.076],[-18.084,51.125],[-17.842,51.175],[-17.606,51.232],[-17.376,51.297],[-17.151,51.368],[-16.93,51.447],[-16.715,51.531],[-16.504,51.624],[-16.297,51.721],[-16.09,51.82],[-15.886,51.924],[-15.683,52.03],[-15.482,52.14],[-15.282,52.253],[-15.085,52.37],[-14.889,52.492],[-14.696,52.618],[-14.502,52.745],[-14.306,52.871],[-14.102,52.988],[-13.89,53.094],[-13.669,53.19],[-13.447,53.284],[-13.263,53.402],[-13.126,53.562],[-13.01,53.76],[-12.867,53.957],[-12.702,54.144],[-12.525,54.317],[-12.344,54.486],[-12.163,54.656],[-11.982,54.83],[-11.801,55.006],[-11.62,55.186],[-11.445,55.367],[-11.263,55.561]]}},{"type":"Feature","properties":{"kind":"occl","line":1,"px_len":538},"geometry":{"type":"LineString","coordinates":[[-11.263,55.561],[-11.086,55.765],[-10.921,55.962],[-10.763,56.167],[-10.616,56.37],[-10.463,56.573],[-10.294,56.772],[-10.1,56.959],[-9.892,57.127],[-9.717,57.287],[-9.62,57.451],[-9.587,57.623],[-9.555,57.802],[-9.496,57.986],[-9.414,58.174],[-9.337,58.361],[-9.325,58.536],[-9.38,58.7],[-9.466,58.859],[-9.539,59.019],[-9.603,59.182],[-9.661,59.346],[-9.706,59.513],[-9.735,59.683],[-9.759,59.853],[-9.791,60.023],[-9.827,60.192],[-9.87,60.36],[-9.919,60.527],[-9.973,60.693],[-10.034,60.859],[-10.1,61.023],[-10.172,61.187],[-10.25,61.351],[-10.335,61.513],[-10.417,61.676],[-10.486,61.841],[-10.541,62.009],[-10.601,62.177],[-10.717,62.335],[-10.894,62.483],[-11.099,62.626],[-11.293,62.771],[-11.478,62.918],[-11.686,63.062],[-11.948,63.195],[-12.286,63.316],[-12.675,63.427],[-13.072,63.535],[-13.444,63.648],[-13.784,63.767],[-14.096,63.89],[-14.391,64.017],[-14.63,64.141],[-14.79,64.253]]}},{"type":"Feature","properties":{"kind":"warm","line":2,"px_len":333},"geometry":{"type":"LineString","coordinates":[[64.911,56.199],[65.136,56.309],[65.345,56.422],[65.556,56.54],[65.768,56.657],[65.983,56.774],[66.199,56.891],[66.416,57.007],[66.632,57.125],[66.782,57.265],[66.864,57.438],[66.902,57.642],[66.963,57.857],[67.03,58.073],[67.108,58.29],[67.22,58.492],[67.394,58.655],[67.628,58.771],[67.891,58.863],[68.154,58.957],[68.412,59.055],[68.667,59.157],[68.916,59.264],[69.161,59.377],[69.399,59.497],[69.636,59.62],[69.874,59.742],[70.115,59.863],[70.359,59.984],[70.603,60.105],[70.852,60.223],[71.102,60.342],[71.354,60.459],[71.545,60.55],[71.656,60.605]]}},{"type":"Feature","properties":{"kind":"cold","line":2,"px_len":222},"geometry":{"type":"LineString","coordinates":[[71.656,60.605],[71.924,60.72],[72.179,60.832],[72.441,60.947],[72.707,61.061],[72.974,61.174],[73.245,61.285],[73.517,61.397],[73.791,61.509],[74.071,61.616],[74.352,61.724],[74.638,61.829],[74.932,61.926],[75.236,62.015],[75.549,62.096],[75.87,62.169],[76.2,62.234],[76.537,62.293],[76.863,62.363],[77.178,62.448],[77.476,62.55],[77.713,62.682],[77.85,62.802],[77.898,62.881]]}},{"type":"Feature","properties":{"kind":"warm","line":3,"px_len":912},"geometry":{"type":"LineString","coordinates":[[-6.395,38.424],[-6.407,38.574],[-6.428,38.716],[-6.455,38.86],[-6.48,39.004],[-6.499,39.15],[-6.518,39.296],[-6.538,39.443],[-6.562,39.588],[-6.583,39.734],[-6.57,39.889],[-6.497,40.05],[-6.363,40.196],[-6.207,40.31],[-6.043,40.405],[-5.88,40.506],[-5.72,40.617],[-5.562,40.736],[-5.404,40.853],[-5.242,40.964],[-5.077,41.069],[-4.909,41.168],[-4.74,41.262],[-4.568,41.352],[-4.393,41.437],[-4.218,41.518],[-4.04,41.595],[-3.861,41.67],[-3.68,41.741],[-3.499,41.811],[-3.316,41.879],[-3.132,41.944],[-2.948,42.009],[-2.763,42.073],[-2.577,42.136],[-2.391,42.199],[-2.204,42.261],[-2.016,42.323],[-1.829,42.386],[-1.641,42.45],[-1.454,42.521],[-1.27,42.601],[-1.088,42.694],[-0.909,42.802],[-0.733,42.924],[-0.555,43.042],[-0.368,43.129],[-0.172,43.177],[0.031,43.197],[0.234,43.218],[0.436,43.244],[0.636,43.277],[0.836,43.316],[1.034,43.362],[1.231,43.414],[1.428,43.469],[1.626,43.524],[1.824,43.579],[2.022,43.636],[2.221,43.692],[2.42,43.75],[2.62,43.809],[2.819,43.87],[3.018,43.934],[3.218,43.999],[3.418,44.067],[3.618,44.138],[3.818,44.215],[4.019,44.294],[4.219,44.376],[4.42,44.46],[4.622,44.546],[4.825,44.634],[5.027,44.724],[5.231,44.817],[5.434,44.923],[5.636,45.047],[5.83,45.192],[6.01,45.348],[6.189,45.503],[6.385,45.639],[6.596,45.74],[6.81,45.807],[7.025,45.862],[7.24,45.926],[7.455,46.006],[7.67,46.109],[7.885,46.235],[8.101,46.376],[8.314,46.526],[8.505,46.678],[8.631,46.79],[8.69,46.85]]}},{"type":"Feature","properties":{"kind":"cold","line":3,"px_len":743},"geometry":{"type":"LineString","coordinates":[[8.69,46.85],[8.852,47.008],[8.998,47.159],[9.137,47.314],[9.267,47.468],[9.394,47.622],[9.511,47.776],[9.625,47.93],[9.747,48.084],[9.89,48.238],[10.06,48.392],[10.222,48.546],[10.325,48.7],[10.363,48.855],[10.387,49.01],[10.416,49.165],[10.456,49.321],[10.508,49.476],[10.572,49.631],[10.641,49.786],[10.708,49.942],[10.772,50.097],[10.835,50.253],[10.897,50.409],[10.955,50.565],[11.01,50.721],[11.064,50.878],[11.117,51.034],[11.167,51.191],[11.212,51.348],[11.26,51.505],[11.317,51.662],[11.384,51.819],[11.463,51.976],[11.553,52.132],[11.615,52.29],[11.621,52.448],[11.584,52.608],[11.552,52.768],[11.535,52.928],[11.529,53.087],[11.535,53.247],[11.543,53.407],[11.543,53.567],[11.543,53.727],[11.542,53.887],[11.542,54.047],[11.532,54.208],[11.524,54.369],[11.509,54.53],[11.495,54.691],[11.482,54.853],[11.464,55.014],[11.433,55.176],[11.394,55.338],[11.361,55.501],[11.336,55.663],[11.32,55.825],[11.31,55.987],[11.315,56.15],[11.326,56.312],[11.28,56.475],[11.159,56.64],[10.984,56.805],[10.829,56.97],[10.695,57.135],[10.577,57.299],[10.464,57.464],[10.346,57.628],[10.22,57.793],[10.088,57.957],[9.952,58.122],[9.811,58.286],[9.665,58.45],[9.552,58.575],[9.488,58.648]]}},{"type":"Feature","properties":{"kind":"warm","line":3,"px_len":250},"geometry":{"type":"LineString","coordinates":[[9.488,58.648],[9.322,58.816],[9.17,58.977],[9.013,59.141],[8.852,59.305],[8.686,59.469],[8.519,59.632],[8.341,59.796],[8.145,59.959],[7.919,60.122],[7.65,60.284],[7.352,60.444],[7.074,60.605],[6.89,60.767],[6.808,60.931],[6.789,61.097],[6.771,61.263],[6.737,61.429],[6.692,61.595],[6.633,61.76],[6.565,61.926],[6.483,62.091],[6.398,62.256],[6.318,62.421],[6.242,62.58],[6.169,62.736]]}},{"type":"Feature","properties":{"kind":"cold","line":3,"px_len":903},"geometry":{"type":"LineString","coordinates":[[6.169,62.736],[6.117,62.906],[6.059,63.068],[6.001,63.235],[5.951,63.401],[5.904,63.568],[5.864,63.736],[5.84,63.903],[5.837,64.072],[5.853,64.241],[5.889,64.411],[5.949,64.581],[5.966,64.751],[5.918,64.919],[5.822,65.085],[5.743,65.253],[5.69,65.421],[5.658,65.589],[5.648,65.759],[5.651,65.929],[5.654,66.099],[5.662,66.269],[5.671,66.439],[5.676,66.61],[5.679,66.78],[5.678,66.951],[5.675,67.121],[5.667,67.292],[5.658,67.462],[5.645,67.633],[5.622,67.803],[5.591,67.973],[5.55,68.144],[5.502,68.314],[5.444,68.484],[5.392,68.654],[5.35,68.824],[5.33,68.995],[5.331,69.167],[5.336,69.339],[5.248,69.509],[5.049,69.676],[4.772,69.841],[4.523,70.006],[4.294,70.172],[4.094,70.338],[3.907,70.505],[3.73,70.672],[3.554,70.84],[3.377,71.007],[3.2,71.174],[3.029,71.342],[2.864,71.509],[2.702,71.677],[2.563,71.846],[2.459,72.016],[2.384,72.188],[2.326,72.36],[2.278,72.532],[2.249,72.706],[2.229,72.88],[2.231,73.055],[2.264,73.231],[2.335,73.408],[2.455,73.587],[2.629,73.768],[2.818,73.949],[2.918,74.127],[2.904,74.302],[2.856,74.475],[2.839,74.65],[2.855,74.826],[2.902,75.002],[3.005,75.181],[3.151,75.36],[3.319,75.54],[3.491,75.72],[3.662,75.9],[3.822,76.079],[3.974,76.258],[4.137,76.437],[4.329,76.617],[4.543,76.797],[4.761,76.976],[4.996,77.156],[5.276,77.336],[5.618,77.517],[5.822,77.695],[5.8,77.871],[5.596,78.043],[5.432,78.174],[5.348,78.251]]}},{"type":"Feature","properties":{"kind":"warm","line":3,"px_len":188},"geometry":{"type":"LineString","coordinates":[[5.348,78.251],[5.133,78.428],[4.825,78.595],[4.393,78.764],[3.901,78.931],[3.425,79.099],[2.863,79.249],[2.102,79.354],[1.142,79.412],[0.14,79.451],[-0.864,79.481],[-1.867,79.502],[-2.864,79.512],[-3.851,79.509],[-4.827,79.497],[-5.79,79.474],[-6.741,79.443],[-7.677,79.405],[-8.527,79.362],[-9.229,79.32]]}},{"type":"Feature","properties":{"kind":"occl","line":3,"px_len":794},"geometry":{"type":"LineString","coordinates":[[-9.229,79.32],[-10.133,79.256],[-10.971,79.185],[-11.797,79.1],[-12.592,79.004],[-13.184,78.873],[-13.503,78.705],[-13.606,78.51],[-13.677,78.313],[-13.705,78.12],[-13.644,77.935],[-13.509,77.757],[-13.33,77.583],[-13.132,77.411],[-12.936,77.239],[-12.839,77.059],[-12.864,76.868],[-12.95,76.67],[-12.998,76.477],[-12.984,76.289],[-12.926,76.106],[-12.97,75.918],[-13.179,75.721],[-13.517,75.51],[-13.791,75.297],[-13.985,75.086],[-14.117,74.881],[-14.225,74.679],[-14.337,74.475],[-14.474,74.269],[-14.631,74.06],[-14.815,73.846],[-15.034,73.628],[-15.301,73.407],[-15.619,73.198],[-15.98,73.014],[-16.377,72.856],[-16.8,72.717],[-17.208,72.573],[-17.559,72.399],[-17.87,72.203],[-18.194,72.02],[-18.545,71.856],[-18.9,71.697],[-19.229,71.527],[-19.503,71.327],[-19.746,71.113],[-19.994,70.904],[-20.275,70.718],[-20.587,70.552],[-20.921,70.402],[-21.271,70.263],[-21.628,70.13],[-21.991,70.003],[-22.358,69.88],[-22.733,69.762],[-23.111,69.648],[-23.497,69.54],[-23.892,69.438],[-24.298,69.343],[-24.722,69.259],[-25.156,69.18],[-25.605,69.11],[-26.064,69.045],[-26.537,68.987],[-27.003,68.926],[-27.434,68.847],[-27.811,68.743],[-28.173,68.634],[-28.524,68.52],[-28.883,68.411],[-29.225,68.295],[-29.521,68.159],[-29.738,67.987],[-29.881,67.791],[-29.987,67.586],[-30.089,67.385],[-30.214,67.186],[-30.346,66.983],[-30.449,66.82],[-30.502,66.712]]}},{"type":"Feature","properties":{"kind":"warm","line":4,"px_len":423},"geometry":{"type":"LineString","coordinates":[[25.041,71.351],[25.352,71.506],[25.553,71.664],[25.603,71.839],[25.472,72.031],[25.243,72.23],[25.003,72.431],[24.806,72.627],[24.652,72.819],[24.528,73.008],[24.409,73.197],[24.273,73.387],[24.1,73.579],[23.89,73.774],[23.648,73.97],[23.372,74.169],[23.065,74.368],[22.72,74.569],[22.332,74.772],[21.903,74.975],[21.478,75.177],[21.099,75.376],[20.794,75.569],[20.485,75.762],[20.068,75.952],[19.5,76.116],[18.841,76.23],[18.147,76.307],[17.44,76.372],[16.731,76.443],[16.02,76.525],[15.307,76.62],[14.591,76.73],[13.867,76.85],[13.132,76.976],[12.383,77.1],[11.618,77.213],[10.837,77.306],[10.043,77.379],[9.241,77.441],[8.431,77.5],[7.616,77.562],[6.989,77.608],[6.619,77.635]]}},{"type":"Feature","properties":{"kind":"stat","line":5,"px_len":300},"geometry":{"type":"LineString","coordinates":[[-60.557,61.069],[-60.342,61.209],[-60.068,61.294],[-59.731,61.327],[-59.37,61.316],[-59.015,61.294],[-58.67,61.261],[-58.331,61.221],[-57.998,61.173],[-57.671,61.12],[-57.35,61.06],[-57.033,60.996],[-56.714,60.936],[-56.391,60.881],[-56.073,60.821],[-55.762,60.753],[-55.46,60.678],[-55.159,60.602],[-54.852,60.533],[-54.544,60.466],[-54.239,60.397],[-53.939,60.323],[-53.641,60.248],[-53.344,60.173],[-53.049,60.097],[-52.756,60.02],[-52.459,59.947],[-52.157,59.88],[-51.862,59.806],[-51.613,59.705],[-51.404,59.576]]}},{"type":"Feature","properties":{"kind":"cold","line":5,"px_len":827},"geometry":{"type":"LineString","coordinates":[[-51.404,59.576],[-51.215,59.423],[-51.135,59.272],[-51.155,59.108],[-51.229,58.94],[-51.3,58.773],[-51.373,58.605],[-51.446,58.439],[-51.53,58.276],[-51.608,58.111],[-51.665,57.941],[-51.707,57.766],[-51.751,57.592],[-51.81,57.423],[-51.881,57.258],[-51.967,57.098],[-52.06,56.94],[-52.163,56.785],[-52.272,56.633],[-52.39,56.483],[-52.518,56.337],[-52.655,56.194],[-52.792,56.05],[-52.936,55.91],[-53.086,55.771],[-53.233,55.632],[-53.373,55.491],[-53.503,55.347],[-53.625,55.201],[-53.781,55.065],[-53.998,54.948],[-54.276,54.847],[-54.549,54.745],[-54.802,54.637],[-55.038,54.524],[-55.266,54.409],[-55.495,54.295],[-55.727,54.181],[-55.964,54.068],[-56.204,53.956],[-56.45,53.846],[-56.696,53.735],[-56.945,53.625],[-57.197,53.516],[-57.45,53.406],[-57.704,53.297],[-57.955,53.187],[-58.199,53.075],[-58.426,52.959],[-58.628,52.836],[-58.804,52.708],[-58.966,52.576],[-59.145,52.459],[-59.379,52.376],[-59.674,52.318],[-59.991,52.248],[-60.299,52.156],[-60.585,52.051],[-60.85,51.942],[-61.112,51.831],[-61.377,51.721],[-61.643,51.611],[-61.91,51.5],[-62.178,51.39],[-62.447,51.279],[-62.716,51.168],[-62.986,51.057],[-63.258,50.945],[-63.532,50.834],[-63.806,50.722],[-64.08,50.61],[-64.344,50.496],[-64.588,50.377],[-64.798,50.252],[-64.977,50.122],[-65.147,49.993],[-65.346,49.905],[-65.578,49.868],[-65.829,49.867],[-66.079,49.863],[-66.307,49.815],[-66.496,49.716],[-66.63,49.594],[-66.722,49.496]]}},{"type":"Feature","properties":{"kind":"warm","line":6,"px_len":281},"geometry":{"type":"LineString","coordinates":[[-45.04,55.831],[-45.214,55.979],[-45.349,56.147],[-45.463,56.336],[-45.549,56.531],[-45.604,56.733],[-45.644,56.935],[-45.704,57.133],[-45.822,57.309],[-46.003,57.456],[-46.216,57.577],[-46.436,57.695],[-46.654,57.814],[-46.868,57.939],[-47.072,58.072],[-47.269,58.212],[-47.468,58.352],[-47.675,58.486],[-47.898,58.609],[-48.136,58.721],[-48.387,58.822],[-48.649,58.916],[-48.923,59.0],[-49.206,59.077],[-49.502,59.144],[-49.809,59.202],[-50.125,59.252],[-50.445,59.292],[-50.79,59.324]]}}]}