{"type":"FeatureCollection","properties":{"chart":"ana","src":"Z__C_EDZW_20261010193309_tka01,ana_bwkman_dwdna_O_000000_000000_202610101800_WV12.png","valid_time":"2026-10-10T18:00:00+00:00"},"features":[{"type":"Feature","properties":{"kind":"occl","line":0,"px_len":1236},"geometry":{"type":"LineString","coordinates":[[3.839,62.149],[3.787,61.975],[3.755,61.81],[3.726,61.641],[3.691,61.472],[3.65,61.303],[3.612,61.134],[3.591,60.966],[3.586,60.798],[3.592,60.632],[3.612,60.466],[3.651,60.302],[3.714,60.139],[3.769,59.975],[3.809,59.811],[3.821,59.646],[3.844,59.481],[3.881,59.317],[3.943,59.155],[4.001,58.992],[4.06,58.83],[4.119,58.668],[4.193,58.506],[4.276,58.345],[4.375,58.186],[4.499,58.027],[4.661,57.87],[4.858,57.714],[5.087,57.56],[5.354,57.407],[5.654,57.259],[5.969,57.132],[6.28,57.032],[6.587,56.959],[6.89,56.903],[7.192,56.862],[7.492,56.832],[7.79,56.817],[8.088,56.813],[8.385,56.817],[8.682,56.835],[8.979,56.858],[9.277,56.883],[9.575,56.902],[9.874,56.918],[10.172,56.931],[10.471,56.953],[10.773,57.011],[11.077,57.1],[11.383,57.196],[11.69,57.281],[11.999,57.363],[12.307,57.461],[12.585,57.591],[12.817,57.743],[13.031,57.9],[13.291,58.055],[13.597,58.198],[13.927,58.322],[14.258,58.428],[14.591,58.536],[14.915,58.655],[15.226,58.784],[15.537,58.91],[15.865,59.018],[16.203,59.092],[16.536,59.131],[16.864,59.15],[17.192,59.163],[17.521,59.183],[17.853,59.207],[18.18,59.21],[18.5,59.192],[18.816,59.161],[19.134,59.139],[19.453,59.119],[19.775,59.107],[20.098,59.099],[20.424,59.097],[20.749,59.095],[21.074,59.088],[21.397,59.077],[21.718,59.062],[22.038,59.043],[22.354,59.016],[22.669,58.988],[22.982,58.956],[23.298,58.929],[23.611,58.897],[23.924,58.866],[24.232,58.826],[24.536,58.778],[24.834,58.72],[25.127,58.654],[25.407,58.566],[25.672,58.454],[25.92,58.314],[26.149,58.145],[26.351,57.954],[26.518,57.756],[26.644,57.564],[26.752,57.375],[26.852,57.187],[26.96,56.998],[27.058,56.81],[27.112,56.63],[27.084,56.465],[26.988,56.311],[26.866,56.162],[26.753,56.012],[26.655,55.86],[26.559,55.707],[26.434,55.559],[26.233,55.425],[25.972,55.301],[25.697,55.179],[25.442,55.053],[25.208,54.923],[24.987,54.792],[24.764,54.66],[24.537,54.53],[24.303,54.4],[24.064,54.27],[23.857,54.158],[23.705,54.076]]}},{"type":"Feature","properties":{"kind":"cold","line":0,"px_len":1510},"geometry":{"type":"LineString","coordinates":[[23.705,54.076],[23.444,53.945],[23.2,53.819],[22.953,53.69],[22.706,53.561],[22.461,53.431],[22.22,53.3],[21.983,53.168],[21.758,53.035],[21.55,52.899],[21.372,52.759],[21.225,52.615],[21.098,52.468],[20.967,52.326],[20.776,52.209],[20.522,52.117],[20.232,52.027],[19.948,51.919],[19.678,51.796],[19.424,51.665],[19.178,51.531],[18.932,51.397],[18.68,51.263],[18.428,51.128],[18.172,50.994],[17.912,50.86],[17.648,50.725],[17.384,50.59],[17.115,50.455],[16.841,50.32],[16.567,50.184],[16.295,50.051],[16.026,49.92],[15.76,49.794],[15.496,49.666],[15.234,49.541],[14.973,49.413],[14.722,49.277],[14.494,49.134],[14.304,48.988],[14.142,48.844],[13.965,48.734],[13.753,48.664],[13.515,48.622],[13.275,48.569],[13.033,48.502],[12.792,48.418],[12.55,48.322],[12.309,48.22],[12.07,48.117],[11.832,48.015],[11.595,47.915],[11.359,47.816],[11.125,47.718],[10.892,47.622],[10.661,47.526],[10.43,47.433],[10.201,47.34],[9.973,47.248],[9.746,47.157],[9.52,47.067],[9.295,46.977],[9.071,46.889],[8.848,46.802],[8.626,46.715],[8.404,46.628],[8.185,46.535],[7.966,46.431],[7.749,46.31],[7.542,46.17],[7.336,46.049],[7.128,45.969],[6.911,45.93],[6.694,45.894],[6.479,45.851],[6.264,45.795],[6.052,45.727],[5.84,45.652],[5.63,45.575],[5.42,45.5],[5.21,45.425],[5.002,45.352],[4.793,45.28],[4.586,45.21],[4.379,45.14],[4.172,45.073],[3.966,45.006],[3.76,44.941],[3.555,44.875],[3.35,44.814],[3.145,44.753],[2.94,44.694],[2.736,44.636],[2.532,44.58],[2.328,44.526],[2.125,44.471],[1.922,44.42],[1.718,44.37],[1.515,44.321],[1.312,44.273],[1.11,44.225],[0.908,44.175],[0.707,44.122],[0.509,44.062],[0.312,43.995],[0.118,43.919],[-0.074,43.835],[-0.27,43.773],[-0.473,43.74],[-0.681,43.73],[-0.888,43.715],[-1.093,43.692],[-1.296,43.665],[-1.499,43.633],[-1.7,43.597],[-1.899,43.557],[-2.1,43.522],[-2.302,43.49],[-2.503,43.459],[-2.705,43.428],[-2.906,43.397],[-3.109,43.37],[-3.312,43.346],[-3.516,43.324],[-3.722,43.309],[-3.928,43.295],[-4.135,43.283],[-4.343,43.272],[-4.55,43.262],[-4.759,43.253],[-4.968,43.245],[-5.177,43.239],[-5.387,43.233],[-5.598,43.23],[-5.81,43.229],[-6.022,43.229],[-6.235,43.229],[-6.448,43.229],[-6.659,43.224],[-6.867,43.21],[-7.072,43.189],[-7.275,43.163],[-7.479,43.139],[-7.698,43.153],[-7.934,43.204],[-8.18,43.276],[-8.421,43.333],[-8.656,43.376],[-8.889,43.412],[-9.123,43.448],[-9.35,43.487],[-9.575,43.53]]}},{"type":"Feature","properties":{"kind":"warm","line":0,"px_len":746},"geometry":{"type":"LineString","coordinates":[[-9.575,43.53],[-9.827,43.59],[-10.075,43.662],[-10.32,43.752],[-10.538,43.855],[-10.716,43.968],[-10.873,44.087],[-11.032,44.204],[-11.224,44.312],[-11.449,44.406],[-11.692,44.495],[-11.924,44.59],[-12.131,44.694],[-12.315,44.804],[-12.477,44.921],[-12.624,45.042],[-12.759,45.167],[-12.889,45.293],[-13.015,45.421],[-13.138,45.549],[-13.26,45.678],[-13.381,45.808],[-13.499,45.938],[-13.617,46.069],[-13.734,46.2],[-13.852,46.331],[-13.971,46.462],[-14.09,46.593],[-14.211,46.724],[-14.325,46.857],[-14.433,46.992],[-14.532,47.13],[-14.623,47.271],[-14.708,47.414],[-14.782,47.56],[-14.862,47.705],[-14.98,47.838],[-15.159,47.953],[-15.378,48.056],[-15.598,48.158],[-15.804,48.264],[-15.998,48.374],[-16.181,48.488],[-16.356,48.604],[-16.53,48.721],[-16.708,48.837],[-16.895,48.949],[-17.091,49.059],[-17.296,49.165],[-17.508,49.27],[-17.727,49.372],[-17.954,49.471],[-18.19,49.567],[-18.437,49.66],[-18.695,49.748],[-18.964,49.832],[-19.239,49.913],[-19.506,49.998],[-19.755,50.088],[-19.978,50.187],[-20.198,50.287],[-20.445,50.377],[-20.728,50.434],[-21.012,50.443],[-21.268,50.409],[-21.505,50.357],[-21.739,50.301],[-21.975,50.248],[-22.214,50.196],[-22.45,50.143],[-22.682,50.086],[-22.904,50.019],[-23.121,49.946],[-23.329,49.865],[-23.504,49.791],[-23.628,49.732]]}},{"type":"Feature","properties":{"kind":"cold","line":0,"px_len":918},"geometry":{"type":"LineString","coordinates":[[-23.628,49.732],[-23.764,49.575],[-23.864,49.399],[-23.937,49.203],[-23.98,49.005],[-24.024,48.823],[-24.112,48.672],[-24.256,48.546],[-24.413,48.423],[-24.56,48.291],[-24.693,48.146],[-24.82,47.995],[-24.944,47.843],[-25.071,47.695],[-25.203,47.552],[-25.338,47.414],[-25.475,47.278],[-25.615,47.146],[-25.758,47.017],[-25.903,46.892],[-26.05,46.769],[-26.195,46.645],[-26.341,46.523],[-26.487,46.4],[-26.635,46.281],[-26.782,46.162],[-26.93,46.044],[-27.079,45.928],[-27.228,45.812],[-27.376,45.696],[-27.519,45.577],[-27.658,45.454],[-27.791,45.326],[-27.915,45.19],[-28.032,45.049],[-28.165,44.923],[-28.324,44.821],[-28.503,44.739],[-28.679,44.654],[-28.848,44.563],[-29.01,44.466],[-29.168,44.366],[-29.321,44.262],[-29.473,44.157],[-29.625,44.053],[-29.776,43.949],[-29.927,43.845],[-30.079,43.742],[-30.231,43.64],[-30.382,43.537],[-30.534,43.436],[-30.685,43.334],[-30.836,43.233],[-30.987,43.133],[-31.141,43.034],[-31.292,42.934],[-31.441,42.833],[-31.589,42.731],[-31.741,42.633],[-31.893,42.535],[-32.044,42.437],[-32.196,42.34],[-32.351,42.246],[-32.505,42.151],[-32.659,42.057],[-32.811,41.961],[-32.965,41.868],[-33.117,41.772],[-33.265,41.674],[-33.402,41.568],[-33.533,41.457],[-33.66,41.343],[-33.809,41.248],[-33.986,41.175],[-34.184,41.118],[-34.374,41.056],[-34.556,40.987],[-34.73,40.912],[-34.902,40.835],[-35.071,40.756],[-35.242,40.679],[-35.415,40.604],[-35.59,40.53],[-35.766,40.457],[-35.944,40.386],[-36.124,40.316],[-36.305,40.247],[-36.488,40.179],[-36.672,40.112],[-36.858,40.047],[-37.049,39.986],[-37.233,39.934],[-37.395,39.896]]}},{"type":"Feature","properties":{"kind":"warm","line":0,"px_len":238},"geometry":{"type":"LineString","coordinates":[[-37.395,39.896],[-37.612,39.848],[-37.825,39.806],[-38.045,39.764],[-38.267,39.723],[-38.49,39.683],[-38.717,39.644],[-38.946,39.607],[-39.177,39.571],[-39.409,39.535],[-39.643,39.5],[-39.881,39.467],[-40.13,39.441],[-40.382,39.43],[-40.623,39.434],[-40.848,39.452],[-41.07,39.472],[-41.291,39.493],[-41.503,39.522],[-41.702,39.563],[-41.895,39.609],[-42.089,39.654],[-42.284,39.699],[-42.465,39.738],[-42.62,39.769]]}},{"type":"Feature","properties":{"kind":"cold","line":0,"px_len":943},"geometry":{"type":"LineString","coordinates":[[-42.62,39.769],[-42.76,39.868],[-42.822,40.009],[-42.816,40.181],[-42.782,40.345],[-42.733,40.501],[-42.675,40.652],[-42.615,40.802],[-42.559,40.955],[-42.504,41.109],[-42.443,41.26],[-42.374,41.406],[-42.295,41.547],[-42.208,41.683],[-42.112,41.815],[-42.012,41.945],[-41.909,42.073],[-41.806,42.201],[-41.703,42.33],[-41.601,42.46],[-41.5,42.591],[-41.4,42.722],[-41.301,42.856],[-41.204,42.99],[-41.108,43.125],[-41.014,43.262],[-40.922,43.401],[-40.832,43.54],[-40.743,43.682],[-40.655,43.824],[-40.569,43.968],[-40.485,44.113],[-40.401,44.259],[-40.32,44.407],[-40.239,44.556],[-40.16,44.706],[-40.082,44.857],[-40.006,45.01],[-39.931,45.164],[-39.858,45.32],[-39.786,45.477],[-39.716,45.635],[-39.646,45.793],[-39.577,45.954],[-39.51,46.115],[-39.446,46.278],[-39.383,46.444],[-39.32,46.609],[-39.257,46.775],[-39.196,46.942],[-39.131,47.108],[-39.054,47.267],[-38.962,47.417],[-38.857,47.559],[-38.742,47.697],[-38.66,47.841],[-38.639,48.007],[-38.668,48.203],[-38.686,48.41],[-38.678,48.614],[-38.652,48.807],[-38.619,48.996],[-38.584,49.185],[-38.554,49.376],[-38.527,49.571],[-38.505,49.768],[-38.487,49.968],[-38.472,50.17],[-38.461,50.375],[-38.458,50.585],[-38.459,50.797],[-38.467,51.014],[-38.48,51.234],[-38.504,51.452],[-38.533,51.668],[-38.569,51.88],[-38.612,52.087],[-38.663,52.29],[-38.722,52.488],[-38.788,52.681],[-38.856,52.875],[-38.92,53.07],[-38.969,53.273],[-38.993,53.481],[-39.0,53.683],[-39.052,53.862],[-39.169,54.013],[-39.331,54.148],[-39.489,54.286],[-39.634,54.434],[-39.76,54.595],[-39.873,54.765],[-39.983,54.939],[-40.094,55.112],[-40.177,55.245],[-40.219,55.328]]}},{"type":"Feature","properties":{"kind":"warm","line":1,"px_len":390},"geometry":{"type":"LineString","coordinates":[[-40.358,55.585],[-40.457,55.775],[-40.554,55.957],[-40.659,56.139],[-40.78,56.312],[-40.921,56.471],[-41.083,56.619],[-41.25,56.764],[-41.388,56.928],[-41.473,57.123],[-41.491,57.327],[-41.448,57.519],[-41.381,57.7],[-41.329,57.889],[-41.313,58.093],[-41.32,58.308],[-41.338,58.527],[-41.344,58.742],[-41.338,58.952],[-41.323,59.158],[-41.295,59.359],[-41.262,59.558],[-41.219,59.754],[-41.17,59.948],[-41.113,60.138],[-41.047,60.326],[-40.978,60.512],[-40.904,60.697],[-40.83,60.883],[-40.771,61.075],[-40.732,61.276],[-40.719,61.488],[-40.708,61.7],[-40.668,61.902],[-40.542,62.07],[-40.349,62.212],[-40.119,62.341],[-39.898,62.473],[-39.676,62.597],[-39.431,62.707]]}},{"type":"Feature","properties":{"kind":"cold","line":2,"px_len":556},"geometry":{"type":"LineString","coordinates":[[32.906,60.807],[33.276,60.913],[33.682,61.003],[34.118,61.09],[34.552,61.176],[34.99,61.26],[35.421,61.345],[35.853,61.428],[36.286,61.509],[36.715,61.577],[37.141,61.63],[37.562,61.667],[37.923,61.726],[38.214,61.821],[38.456,61.947],[38.706,62.073],[38.977,62.193],[39.279,62.305],[39.605,62.411],[39.938,62.514],[40.27,62.618],[40.6,62.722],[40.926,62.827],[41.249,62.933],[41.569,63.04],[41.883,63.149],[42.192,63.259],[42.501,63.369],[42.807,63.48],[43.113,63.591],[43.417,63.703],[43.722,63.814],[44.027,63.926],[44.333,64.038],[44.64,64.149],[44.948,64.261],[45.258,64.371],[45.57,64.482],[45.881,64.593],[46.195,64.703],[46.519,64.81],[46.865,64.911],[47.234,65.004],[47.623,65.09],[47.999,65.18],[48.307,65.294],[48.548,65.43],[48.779,65.57],[49.025,65.706],[49.291,65.835],[49.571,65.961],[49.86,66.084],[50.151,66.206],[50.446,66.328],[50.752,66.446],[51.056,66.536],[51.322,66.585]]}},{"type":"Feature","properties":{"kind":"cold","line":3,"px_len":1253},"geometry":{"type":"LineString","coordinates":[[38.624,47.866],[38.867,47.926],[39.097,48.006],[39.331,48.095],[39.566,48.183],[39.802,48.27],[40.038,48.357],[40.276,48.443],[40.517,48.528],[40.767,48.61],[41.035,48.683],[41.33,48.743],[41.628,48.796],[41.875,48.871],[42.063,48.973],[42.226,49.09],[42.398,49.202],[42.582,49.31],[42.785,49.41],[43.001,49.504],[43.222,49.596],[43.443,49.688],[43.663,49.78],[43.882,49.873],[44.1,49.966],[44.317,50.06],[44.534,50.153],[44.749,50.248],[44.964,50.343],[45.179,50.438],[45.393,50.533],[45.606,50.629],[45.818,50.725],[46.029,50.822],[46.24,50.919],[46.451,51.016],[46.66,51.114],[46.868,51.213],[47.075,51.312],[47.281,51.413],[47.485,51.513],[47.689,51.615],[47.892,51.717],[48.095,51.819],[48.297,51.922],[48.499,52.025],[48.703,52.127],[48.913,52.227],[49.13,52.323],[49.358,52.414],[49.597,52.499],[49.847,52.578],[50.068,52.673],[50.249,52.788],[50.4,52.92],[50.56,53.047],[50.729,53.171],[50.912,53.287],[51.097,53.402],[51.286,53.516],[51.476,53.63],[51.672,53.741],[51.862,53.855],[52.049,53.971],[52.234,54.089],[52.42,54.207],[52.608,54.324],[52.797,54.441],[52.982,54.561],[53.164,54.683],[53.34,54.808],[53.515,54.935],[53.684,55.065],[53.852,55.197],[54.019,55.33],[54.183,55.465],[54.345,55.602],[54.508,55.739],[54.666,55.879],[54.822,56.021],[54.975,56.166],[55.125,56.312],[55.27,56.463],[55.413,56.615],[55.553,56.77],[55.69,56.927],[55.824,57.086],[55.966,57.241],[56.124,57.389],[56.297,57.528],[56.481,57.662],[56.659,57.797],[56.768,57.954],[56.808,58.146],[56.822,58.362],[56.869,58.575],[56.942,58.776],[57.029,58.971],[57.12,59.164],[57.21,59.358],[57.297,59.556],[57.379,59.756],[57.458,59.958],[57.534,60.164],[57.607,60.372],[57.676,60.582],[57.74,60.796],[57.8,61.013],[57.856,61.233],[57.909,61.455],[57.956,61.681],[57.995,61.912],[58.025,62.145],[58.045,62.376],[58.058,62.604],[58.078,62.834],[58.121,63.06],[58.2,63.273],[58.32,63.467],[58.476,63.643],[58.65,63.81],[58.829,63.977],[59.005,64.146],[59.178,64.317],[59.375,64.473],[59.568,64.563],[59.725,64.587]]}},{"type":"Feature","properties":{"kind":"warm","line":3,"px_len":498},"geometry":{"type":"LineString","coordinates":[[59.725,64.587],[60.144,64.512],[60.526,64.433],[60.888,64.343],[61.223,64.243],[61.543,64.138],[61.841,64.026],[62.122,63.908],[62.383,63.785],[62.621,63.654],[62.839,63.516],[63.04,63.374],[63.227,63.228],[63.402,63.078],[63.56,62.923],[63.712,62.766],[63.853,62.607],[63.987,62.446],[64.113,62.282],[64.232,62.117],[64.344,61.95],[64.45,61.781],[64.55,61.611],[64.644,61.439],[64.735,61.267],[64.823,61.094],[64.914,60.923],[65.016,60.756],[65.133,60.594],[65.265,60.438],[65.408,60.285],[65.555,60.135],[65.704,59.986],[65.812,59.823],[65.845,59.639],[65.796,59.432],[65.72,59.215],[65.662,58.999],[65.636,58.793],[65.635,58.594],[65.645,58.401],[65.654,58.206],[65.656,58.01],[65.652,57.811],[65.643,57.612],[65.633,57.412],[65.631,57.214],[65.649,57.025],[65.697,56.846],[65.724,56.688],[65.711,56.558]]}}]}