{"type":"FeatureCollection","properties":{"chart":"ana","src":"Z__C_EDZW_20261003191219_tka01,ana_bwkman_dwdna_O_000000_000000_202610031800_WV12.png","valid_time":"2026-10-03T18:00:00+00:00"},"features":[{"type":"Feature","properties":{"kind":"occl","line":0,"px_len":724},"geometry":{"type":"LineString","coordinates":[[24.729,56.476],[24.927,56.619],[25.108,56.756],[25.289,56.897],[25.467,57.039],[25.639,57.182],[25.806,57.325],[25.972,57.469],[26.141,57.612],[26.316,57.755],[26.506,57.895],[26.714,58.032],[26.938,58.167],[27.175,58.299],[27.377,58.438],[27.526,58.585],[27.639,58.739],[27.759,58.891],[27.887,59.043],[28.025,59.193],[28.128,59.349],[28.181,59.514],[28.196,59.686],[28.219,59.856],[28.261,60.023],[28.313,60.189],[28.378,60.353],[28.449,60.517],[28.521,60.68],[28.586,60.844],[28.644,61.01],[28.696,61.178],[28.74,61.346],[28.778,61.516],[28.806,61.688],[28.823,61.862],[28.836,62.037],[28.843,62.213],[28.838,62.391],[28.819,62.571],[28.791,62.753],[28.757,62.936],[28.729,63.118],[28.729,63.295],[28.756,63.469],[28.796,63.641],[28.779,63.821],[28.658,64.018],[28.455,64.227],[28.255,64.435],[28.084,64.638],[27.894,64.839],[27.648,65.021],[27.339,65.168],[27.004,65.283],[26.664,65.396],[26.333,65.525],[26.017,65.679],[25.712,65.854],[25.413,66.042],[25.113,66.237],[24.814,66.437],[24.539,66.639],[24.303,66.84],[24.136,67.033],[24.038,67.219],[24.021,67.397],[24.061,67.569],[24.159,67.736],[24.282,67.9],[24.46,68.059],[24.661,68.216],[24.839,68.339],[24.948,68.417]]}},{"type":"Feature","properties":{"kind":"warm","line":1,"px_len":313},"geometry":{"type":"LineString","coordinates":[[-6.452,64.756],[-6.706,64.905],[-6.966,65.045],[-7.216,65.19],[-7.437,65.338],[-7.641,65.489],[-7.835,65.642],[-8.047,65.792],[-8.35,65.93],[-8.772,66.041],[-9.253,66.107],[-9.722,66.138],[-10.186,66.159],[-10.665,66.196],[-11.165,66.252],[-11.679,66.317],[-12.2,66.385],[-12.719,66.447],[-13.234,66.5],[-13.741,66.541],[-14.233,66.565],[-14.703,66.568],[-15.152,66.551],[-15.586,66.519],[-16.02,66.488],[-16.459,66.461],[-16.902,66.436],[-17.347,66.412],[-17.794,66.389],[-18.204,66.338],[-18.464,66.232],[-18.553,66.119],[-18.532,66.043]]}},{"type":"Feature","properties":{"kind":"cold","line":1,"px_len":859},"geometry":{"type":"LineString","coordinates":[[-18.532,66.043],[-18.445,65.866],[-18.344,65.7],[-18.234,65.533],[-18.139,65.363],[-18.062,65.189],[-17.989,65.014],[-17.909,64.842],[-17.819,64.671],[-17.723,64.503],[-17.626,64.335],[-17.537,64.166],[-17.462,63.994],[-17.407,63.817],[-17.371,63.637],[-17.35,63.454],[-17.341,63.268],[-17.334,63.082],[-17.326,62.896],[-17.319,62.71],[-17.317,62.523],[-17.324,62.334],[-17.344,62.142],[-17.378,61.947],[-17.412,61.752],[-17.428,61.562],[-17.412,61.379],[-17.368,61.203],[-17.364,61.037],[-17.473,60.884],[-17.685,60.744],[-17.912,60.598],[-18.121,60.436],[-18.313,60.26],[-18.494,60.076],[-18.67,59.89],[-18.847,59.707],[-19.028,59.528],[-19.208,59.352],[-19.39,59.178],[-19.573,59.009],[-19.763,58.846],[-19.956,58.689],[-20.154,58.537],[-20.354,58.39],[-20.556,58.245],[-20.75,58.095],[-20.931,57.934],[-21.098,57.762],[-21.268,57.595],[-21.476,57.463],[-21.723,57.368],[-21.977,57.279],[-22.226,57.187],[-22.466,57.088],[-22.702,56.986],[-22.93,56.877],[-23.154,56.767],[-23.376,56.656],[-23.6,56.547],[-23.823,56.439],[-24.047,56.331],[-24.271,56.225],[-24.495,56.12],[-24.719,56.015],[-24.943,55.912],[-25.167,55.808],[-25.39,55.705],[-25.615,55.605],[-25.837,55.502],[-26.063,55.404],[-26.29,55.306],[-26.513,55.206],[-26.726,55.1],[-26.929,54.986],[-27.122,54.865],[-27.317,54.746],[-27.545,54.654],[-27.805,54.586],[-28.076,54.526],[-28.336,54.459],[-28.586,54.384],[-28.828,54.304],[-29.066,54.221],[-29.302,54.137],[-29.526,54.059],[-29.726,53.986]]}},{"type":"Feature","properties":{"kind":"warm","line":1,"px_len":611},"geometry":{"type":"LineString","coordinates":[[-29.726,53.986],[-29.977,53.908],[-30.214,53.831],[-30.462,53.757],[-30.721,53.69],[-30.994,53.634],[-31.281,53.586],[-31.582,53.548],[-31.884,53.511],[-32.16,53.456],[-32.395,53.372],[-32.605,53.273],[-32.818,53.176],[-33.035,53.082],[-33.26,52.994],[-33.498,52.914],[-33.749,52.843],[-34.018,52.784],[-34.304,52.735],[-34.603,52.693],[-34.913,52.659],[-35.234,52.629],[-35.566,52.607],[-35.909,52.589],[-36.265,52.579],[-36.63,52.573],[-36.996,52.571],[-37.341,52.581],[-37.658,52.607],[-37.947,52.652],[-38.219,52.707],[-38.505,52.753],[-38.825,52.77],[-39.151,52.748],[-39.448,52.695],[-39.726,52.631],[-40.016,52.573],[-40.335,52.529],[-40.676,52.496],[-41.032,52.47],[-41.386,52.441],[-41.74,52.411],[-42.083,52.375],[-42.419,52.335],[-42.746,52.29],[-43.068,52.241],[-43.387,52.191],[-43.705,52.139],[-44.033,52.092],[-44.371,52.058],[-44.707,52.039],[-45.033,52.029],[-45.348,52.003],[-45.631,51.94],[-45.862,51.847],[-46.053,51.736],[-46.24,51.624],[-46.431,51.513],[-46.632,51.407],[-46.843,51.306],[-47.051,51.207],[-47.261,51.101]]}},{"type":"Feature","properties":{"kind":"cold","line":1,"px_len":826},"geometry":{"type":"LineString","coordinates":[[-47.261,51.101],[-47.461,50.991],[-47.642,50.881],[-47.809,50.762],[-47.964,50.638],[-48.106,50.51],[-48.238,50.377],[-48.363,50.242],[-48.514,50.118],[-48.698,50.007],[-48.904,49.905],[-49.098,49.798],[-49.276,49.685],[-49.442,49.568],[-49.599,49.447],[-49.749,49.324],[-49.897,49.201],[-50.046,49.077],[-50.196,48.955],[-50.346,48.832],[-50.496,48.71],[-50.647,48.589],[-50.797,48.467],[-50.948,48.346],[-51.099,48.225],[-51.25,48.104],[-51.402,47.984],[-51.551,47.863],[-51.695,47.74],[-51.826,47.613],[-51.955,47.485],[-52.073,47.353],[-52.186,47.22],[-52.297,47.086],[-52.449,46.967],[-52.643,46.864],[-52.855,46.768],[-53.049,46.664],[-53.229,46.556],[-53.398,46.444],[-53.558,46.329],[-53.715,46.213],[-53.871,46.097],[-54.028,45.981],[-54.184,45.865],[-54.341,45.749],[-54.5,45.634],[-54.66,45.52],[-54.819,45.405],[-54.978,45.291],[-55.139,45.177],[-55.301,45.063],[-55.464,44.95],[-55.628,44.838],[-55.792,44.725],[-55.946,44.61],[-56.089,44.49],[-56.217,44.366],[-56.338,44.24],[-56.461,44.116],[-56.636,44.013],[-56.861,43.927],[-57.11,43.845],[-57.338,43.753],[-57.544,43.653],[-57.738,43.55],[-57.927,43.446],[-58.12,43.342],[-58.316,43.239],[-58.512,43.136],[-58.711,43.034],[-58.914,42.932],[-59.118,42.831],[-59.322,42.73],[-59.527,42.629],[-59.734,42.528],[-59.941,42.427],[-60.145,42.325],[-60.334,42.219],[-60.505,42.108],[-60.673,41.996],[-60.81,41.875],[-60.906,41.765],[-60.949,41.677]]}},{"type":"Feature","properties":{"kind":"occl","line":2,"px_len":284},"geometry":{"type":"LineString","coordinates":[[-29.571,64.246],[-29.308,64.379],[-29.074,64.517],[-28.84,64.662],[-28.612,64.811],[-28.397,64.968],[-28.191,65.132],[-27.984,65.297],[-27.762,65.455],[-27.484,65.583],[-27.154,65.683],[-26.799,65.771],[-26.45,65.862],[-26.104,65.956],[-25.754,66.049],[-25.367,66.121],[-24.921,66.158],[-24.423,66.163],[-23.918,66.163],[-23.414,66.161],[-22.911,66.158],[-22.406,66.152],[-21.916,66.154],[-21.45,66.17],[-20.998,66.195],[-20.547,66.219],[-20.088,66.238],[-19.615,66.245],[-19.235,66.247],[-18.997,66.25]]}},{"type":"Feature","properties":{"kind":"occl","line":3,"px_len":326},"geometry":{"type":"LineString","coordinates":[[25.126,68.523],[25.346,68.682],[25.6,68.83],[25.905,68.976],[26.244,69.119],[26.616,69.258],[27.018,69.393],[27.452,69.524],[27.903,69.653],[28.353,69.782],[28.775,69.913],[29.149,70.05],[29.487,70.192],[29.833,70.332],[30.271,70.46],[30.836,70.567],[31.472,70.649],[32.12,70.72],[32.765,70.799],[33.387,70.891],[33.978,70.957],[34.539,70.976],[35.092,70.956],[35.651,70.937],[36.228,70.929],[36.833,70.937],[37.453,70.952],[38.079,70.967],[38.704,70.979],[39.329,70.989],[39.957,70.998],[40.585,71.004],[41.096,70.99],[41.436,70.961]]}},{"type":"Feature","properties":{"kind":"warm","line":4,"px_len":245},"geometry":{"type":"LineString","coordinates":[[63.112,56.809],[63.409,56.869],[63.693,56.926],[63.991,56.979],[64.302,57.021],[64.627,57.053],[64.973,57.068],[65.315,57.084],[65.623,57.128],[65.886,57.208],[66.133,57.302],[66.388,57.39],[66.67,57.455],[66.984,57.495],[67.303,57.529],[67.613,57.571],[67.916,57.619],[68.213,57.673],[68.508,57.728],[68.803,57.783],[69.102,57.835],[69.402,57.886],[69.705,57.935],[70.011,57.981],[70.268,58.017],[70.443,58.041]]}},{"type":"Feature","properties":{"kind":"cold","line":5,"px_len":707},"geometry":{"type":"LineString","coordinates":[[-3.189,50.079],[-2.987,50.173],[-2.77,50.242],[-2.54,50.305],[-2.308,50.362],[-2.074,50.417],[-1.837,50.461],[-1.599,50.506],[-1.358,50.54],[-1.115,50.569],[-0.878,50.618],[-0.651,50.707],[-0.433,50.828],[-0.211,50.944],[0.015,51.047],[0.245,51.139],[0.478,51.225],[0.712,51.312],[0.946,51.4],[1.18,51.491],[1.416,51.582],[1.652,51.677],[1.889,51.773],[2.126,51.872],[2.364,51.974],[2.603,52.079],[2.842,52.186],[3.083,52.296],[3.324,52.409],[3.566,52.526],[3.81,52.643],[4.056,52.754],[4.305,52.852],[4.558,52.933],[4.814,53.002],[5.062,53.07],[5.26,53.171],[5.411,53.313],[5.55,53.479],[5.728,53.646],[5.942,53.815],[6.184,53.983],[6.43,54.152],[6.674,54.32],[6.912,54.487],[7.142,54.654],[7.363,54.82],[7.574,54.985],[7.771,55.15],[7.958,55.314],[8.139,55.478],[8.313,55.642],[8.48,55.806],[8.641,55.969],[8.798,56.132],[8.954,56.295],[9.125,56.458],[9.323,56.621],[9.566,56.784],[9.795,56.946],[9.95,57.109],[10.013,57.271],[10.062,57.434],[10.124,57.597],[10.2,57.76],[10.302,57.923],[10.421,58.086],[10.548,58.249],[10.675,58.411],[10.8,58.574],[10.906,58.72],[10.982,58.835]]}},{"type":"Feature","properties":{"kind":"occl","line":5,"px_len":1227},"geometry":{"type":"LineString","coordinates":[[10.982,58.835],[11.102,59.001],[11.204,59.161],[11.31,59.324],[11.431,59.487],[11.578,59.649],[11.747,59.811],[11.948,59.972],[12.158,60.133],[12.32,60.295],[12.426,60.458],[12.524,60.621],[12.654,60.784],[12.823,60.946],[13.003,61.107],[13.153,61.269],[13.261,61.432],[13.36,61.596],[13.474,61.759],[13.616,61.921],[13.804,62.082],[14.037,62.241],[14.301,62.398],[14.58,62.555],[14.858,62.711],[15.127,62.867],[15.376,63.024],[15.603,63.182],[15.803,63.341],[15.979,63.501],[16.141,63.662],[16.307,63.822],[16.49,63.982],[16.69,64.14],[16.912,64.298],[17.116,64.456],[17.257,64.618],[17.33,64.784],[17.385,64.951],[17.44,65.118],[17.508,65.285],[17.571,65.452],[17.574,65.623],[17.45,65.801],[17.23,65.985],[16.985,66.17],[16.76,66.353],[16.557,66.534],[16.368,66.714],[16.183,66.894],[15.98,67.075],[15.758,67.256],[15.514,67.438],[15.258,67.619],[15.005,67.8],[14.775,67.98],[14.594,68.158],[14.463,68.334],[14.366,68.508],[14.207,68.685],[13.938,68.865],[13.593,69.046],[13.282,69.225],[13.026,69.403],[12.786,69.58],[12.475,69.758],[12.066,69.93],[11.606,70.102],[11.183,70.276],[10.831,70.451],[10.542,70.625],[10.337,70.799],[10.21,70.972],[10.13,71.144],[10.055,71.317],[9.974,71.49],[9.929,71.663],[9.913,71.836],[9.94,72.008],[9.998,72.181],[10.105,72.354],[10.229,72.527],[10.366,72.699],[10.487,72.872],[10.603,73.044],[10.704,73.217],[10.783,73.39],[10.85,73.563],[10.941,73.736],[11.173,73.908],[11.546,74.079],[11.963,74.248],[12.337,74.418],[12.656,74.587],[12.982,74.755],[13.44,74.908],[14.073,75.051],[14.766,75.196],[15.408,75.352],[15.977,75.511],[16.49,75.672],[16.978,75.832],[17.465,75.992],[17.963,76.151],[18.456,76.31],[18.953,76.468],[19.451,76.625],[19.96,76.782],[20.482,76.937],[21.033,77.091],[21.647,77.241],[22.345,77.386],[23.135,77.526],[23.922,77.664],[24.54,77.81],[24.976,77.967],[25.374,78.126],[25.845,78.28],[26.387,78.431],[26.959,78.579],[27.423,78.734],[27.769,78.897],[28.046,79.045],[28.318,79.158]]}}]}