{"type":"FeatureCollection","properties":{"chart":"ana","src":"Z__C_EDZW_20261002194250_tka01,ana_bwkman_dwdna_O_000000_000000_202610021800_WV12.png","valid_time":"2026-10-02T18:00:00+00:00"},"features":[{"type":"Feature","properties":{"kind":"warm","line":0,"px_len":363},"geometry":{"type":"LineString","coordinates":[[37.609,40.769],[37.732,40.89],[37.879,40.993],[38.032,41.097],[38.178,41.204],[38.311,41.317],[38.434,41.434],[38.548,41.556],[38.657,41.679],[38.755,41.807],[38.863,41.931],[39.008,42.04],[39.208,42.126],[39.437,42.199],[39.667,42.272],[39.881,42.351],[40.083,42.435],[40.279,42.522],[40.475,42.609],[40.68,42.691],[40.902,42.766],[41.141,42.833],[41.384,42.898],[41.617,42.967],[41.832,43.043],[42.053,43.115],[42.291,43.167],[42.53,43.176],[42.747,43.145],[42.94,43.088],[43.131,43.028],[43.323,42.97],[43.521,42.919],[43.725,42.873],[43.929,42.829],[44.134,42.789],[44.295,42.771],[44.397,42.776]]}},{"type":"Feature","properties":{"kind":"warm","line":1,"px_len":863},"geometry":{"type":"LineString","coordinates":[[-32.6,46.341],[-32.501,46.479],[-32.375,46.603],[-32.238,46.728],[-32.103,46.854],[-31.969,46.982],[-31.837,47.112],[-31.709,47.246],[-31.588,47.386],[-31.477,47.535],[-31.376,47.691],[-31.277,47.85],[-31.164,47.999],[-31.01,48.116],[-30.814,48.201],[-30.597,48.27],[-30.38,48.338],[-30.165,48.409],[-29.954,48.483],[-29.745,48.558],[-29.53,48.629],[-29.304,48.691],[-29.069,48.745],[-28.825,48.793],[-28.577,48.836],[-28.326,48.877],[-28.08,48.922],[-27.843,48.974],[-27.615,49.034],[-27.391,49.098],[-27.16,49.155],[-26.905,49.192],[-26.623,49.187],[-26.338,49.147],[-26.057,49.089],[-25.766,49.034],[-25.458,48.994],[-25.148,48.97],[-24.849,48.959],[-24.563,48.959],[-24.282,48.963],[-24.006,48.971],[-23.734,48.983],[-23.466,48.997],[-23.205,49.018],[-22.955,49.05],[-22.714,49.093],[-22.484,49.145],[-22.259,49.203],[-22.038,49.265],[-21.818,49.329],[-21.578,49.373],[-21.308,49.382],[-21.013,49.364],[-20.719,49.345],[-20.438,49.339],[-20.17,49.348],[-19.914,49.369],[-19.666,49.401],[-19.424,49.438],[-19.183,49.477],[-18.944,49.518],[-18.706,49.56],[-18.469,49.603],[-18.234,49.649],[-17.999,49.695],[-17.765,49.742],[-17.53,49.79],[-17.3,49.842],[-17.076,49.903],[-16.854,49.967],[-16.636,50.036],[-16.421,50.111],[-16.213,50.195],[-16.009,50.285],[-15.796,50.364],[-15.56,50.413],[-15.304,50.435],[-15.044,50.449],[-14.788,50.471],[-14.54,50.502],[-14.298,50.542],[-14.06,50.588],[-13.825,50.639],[-13.591,50.693],[-13.36,50.748],[-13.186,50.794],[-13.083,50.821]]}},{"type":"Feature","properties":{"kind":"cold","line":1,"px_len":611},"geometry":{"type":"LineString","coordinates":[[-13.083,50.821],[-12.854,50.891],[-12.632,50.956],[-12.403,51.02],[-12.177,51.089],[-11.949,51.156],[-11.719,51.22],[-11.486,51.28],[-11.249,51.335],[-11.008,51.383],[-10.764,51.426],[-10.536,51.497],[-10.328,51.604],[-10.133,51.736],[-9.934,51.863],[-9.729,51.981],[-9.519,52.092],[-9.307,52.201],[-9.094,52.312],[-8.883,52.428],[-8.674,52.548],[-8.465,52.674],[-8.258,52.804],[-8.053,52.94],[-7.85,53.082],[-7.646,53.227],[-7.438,53.367],[-7.223,53.495],[-6.999,53.609],[-6.772,53.713],[-6.606,53.832],[-6.523,53.975],[-6.502,54.143],[-6.469,54.315],[-6.408,54.492],[-6.321,54.674],[-6.226,54.856],[-6.128,55.039],[-6.035,55.221],[-5.951,55.402],[-5.873,55.582],[-5.799,55.761],[-5.731,55.939],[-5.669,56.117],[-5.612,56.293],[-5.56,56.469],[-5.513,56.644],[-5.463,56.82],[-5.398,56.998],[-5.311,57.179],[-5.19,57.365],[-5.067,57.551],[-5.006,57.728],[-5.023,57.894],[-5.065,58.058],[-5.098,58.223],[-5.12,58.389],[-5.122,58.558],[-5.112,58.729],[-5.116,58.899],[-5.127,59.064],[-5.13,59.237]]}},{"type":"Feature","properties":{"kind":"warm","line":2,"px_len":886},"geometry":{"type":"LineString","coordinates":[[-0.766,42.976],[-0.577,43.069],[-0.399,43.172],[-0.217,43.281],[-0.034,43.39],[0.148,43.506],[0.328,43.637],[0.499,43.783],[0.654,43.939],[0.811,44.091],[0.983,44.222],[1.178,44.31],[1.379,44.367],[1.583,44.411],[1.787,44.46],[1.99,44.513],[2.191,44.579],[2.391,44.655],[2.59,44.741],[2.79,44.83],[2.99,44.92],[3.191,45.009],[3.393,45.1],[3.595,45.191],[3.799,45.28],[4.003,45.367],[4.209,45.454],[4.415,45.542],[4.622,45.629],[4.83,45.718],[5.038,45.815],[5.245,45.925],[5.451,46.055],[5.658,46.2],[5.866,46.336],[6.08,46.433],[6.298,46.485],[6.518,46.514],[6.738,46.542],[6.959,46.575],[7.179,46.612],[7.4,46.66],[7.62,46.718],[7.841,46.782],[8.062,46.85],[8.285,46.919],[8.507,46.989],[8.731,47.061],[8.955,47.135],[9.181,47.211],[9.407,47.291],[9.634,47.377],[9.862,47.476],[10.087,47.594],[10.298,47.731],[10.482,47.878],[10.649,48.03],[10.837,48.181],[11.058,48.314],[11.296,48.417],[11.534,48.502],[11.775,48.598],[12.014,48.721],[12.235,48.861],[12.429,49.011],[12.604,49.16],[12.771,49.31],[12.933,49.46],[13.087,49.61],[13.237,49.76],[13.381,49.911],[13.522,50.061],[13.653,50.212],[13.771,50.364],[13.865,50.516],[13.942,50.67],[14.008,50.825],[14.066,50.979],[14.114,51.135],[14.176,51.29],[14.288,51.443],[14.461,51.592],[14.655,51.74],[14.834,51.888],[14.99,52.038],[15.121,52.19],[15.234,52.342],[15.331,52.496],[15.406,52.63],[15.456,52.728]]}},{"type":"Feature","properties":{"kind":"cold","line":2,"px_len":736},"geometry":{"type":"LineString","coordinates":[[15.456,52.728],[15.55,52.885],[15.631,53.037],[15.71,53.192],[15.788,53.348],[15.87,53.503],[15.96,53.658],[16.06,53.812],[16.17,53.966],[16.264,54.121],[16.303,54.28],[16.288,54.442],[16.263,54.606],[16.249,54.769],[16.242,54.932],[16.238,55.094],[16.232,55.257],[16.224,55.42],[16.208,55.584],[16.186,55.749],[16.156,55.914],[16.122,56.079],[16.081,56.245],[16.03,56.412],[15.972,56.579],[15.914,56.746],[15.871,56.913],[15.846,57.078],[15.828,57.244],[15.821,57.408],[15.785,57.571],[15.651,57.737],[15.426,57.909],[15.189,58.085],[14.986,58.261],[14.801,58.435],[14.622,58.608],[14.431,58.782],[14.226,58.956],[14.005,59.131],[13.764,59.306],[13.504,59.481],[13.243,59.655],[13.003,59.828],[12.802,60.0],[12.648,60.17],[12.539,60.339],[12.462,60.507],[12.356,60.673],[12.155,60.838],[11.878,61.004],[11.609,61.174],[11.387,61.344],[11.207,61.513],[11.063,61.682],[10.945,61.85],[10.837,62.018],[10.735,62.186],[10.645,62.354],[10.572,62.522],[10.518,62.69],[10.486,62.858],[10.469,63.025],[10.475,63.193],[10.508,63.361],[10.562,63.528],[10.587,63.696],[10.557,63.864],[10.491,64.033],[10.436,64.202],[10.409,64.37],[10.411,64.539],[10.431,64.708],[10.494,64.848],[10.578,64.943]]}},{"type":"Feature","properties":{"kind":"warm","line":3,"px_len":725},"geometry":{"type":"LineString","coordinates":[[2.181,52.736],[2.277,52.881],[2.33,53.037],[2.381,53.201],[2.451,53.367],[2.543,53.535],[2.661,53.704],[2.807,53.876],[2.955,54.047],[3.052,54.215],[3.073,54.378],[3.042,54.537],[3.011,54.697],[2.993,54.858],[2.987,55.02],[2.987,55.182],[2.988,55.345],[2.986,55.507],[2.982,55.67],[2.974,55.832],[2.964,55.995],[2.955,56.157],[2.947,56.32],[2.939,56.483],[2.934,56.646],[2.942,56.81],[2.965,56.976],[3.006,57.142],[3.061,57.31],[3.117,57.477],[3.122,57.642],[3.058,57.803],[2.942,57.961],[2.828,58.119],[2.729,58.277],[2.645,58.437],[2.58,58.599],[2.531,58.761],[2.483,58.924],[2.432,59.086],[2.372,59.248],[2.32,59.411],[2.261,59.574],[2.209,59.737],[2.155,59.9],[2.121,60.064],[2.099,60.23],[2.095,60.397],[2.102,60.564],[2.096,60.731],[2.016,60.893],[1.85,61.05],[1.648,61.205],[1.453,61.36],[1.277,61.516],[1.123,61.673],[0.991,61.833],[0.868,61.993],[0.749,62.153],[0.615,62.312],[0.45,62.469],[0.208,62.604],[-0.118,62.708],[-0.511,62.785],[-0.912,62.858],[-1.312,62.923],[-1.711,62.979],[-2.064,63.051],[-2.275,63.167],[-2.343,63.326],[-2.345,63.498],[-2.338,63.67],[-2.331,63.814],[-2.326,63.911]]}},{"type":"Feature","properties":{"kind":"cold","line":3,"px_len":222},"geometry":{"type":"LineString","coordinates":[[-2.326,63.911],[-2.265,64.093],[-2.174,64.269],[-2.053,64.452],[-1.92,64.635],[-1.788,64.819],[-1.658,65.002],[-1.529,65.184],[-1.385,65.368],[-1.207,65.554],[-0.974,65.744],[-0.707,65.932],[-0.511,66.112],[-0.438,66.283],[-0.449,66.455],[-0.457,66.626],[-0.454,66.799],[-0.425,66.974],[-0.369,67.15],[-0.294,67.328],[-0.223,67.506],[-0.159,67.681],[-0.117,67.809],[-0.098,67.877]]}},{"type":"Feature","properties":{"kind":"occl","line":3,"px_len":1035},"geometry":{"type":"LineString","coordinates":[[-0.098,67.877],[-0.041,68.058],[0.018,68.231],[0.103,68.409],[0.221,68.59],[0.365,68.771],[0.539,68.955],[0.693,69.137],[0.769,69.314],[0.754,69.487],[0.723,69.659],[0.709,69.832],[0.725,70.007],[0.73,70.181],[0.653,70.351],[0.483,70.516],[0.28,70.68],[0.087,70.844],[-0.084,71.009],[-0.225,71.177],[-0.361,71.344],[-0.482,71.513],[-0.615,71.681],[-0.764,71.848],[-0.937,72.014],[-1.135,72.178],[-1.354,72.342],[-1.604,72.503],[-1.885,72.663],[-2.198,72.821],[-2.532,72.978],[-2.866,73.134],[-3.172,73.292],[-3.457,73.452],[-3.782,73.605],[-4.252,73.723],[-4.879,73.809],[-5.589,73.877],[-6.313,73.952],[-7.051,74.03],[-7.784,74.095],[-8.471,74.114],[-9.096,74.078],[-9.679,74.009],[-10.254,73.937],[-10.83,73.867],[-11.405,73.8],[-11.979,73.733],[-12.541,73.66],[-13.096,73.584],[-13.627,73.494],[-14.131,73.389],[-14.596,73.262],[-15.025,73.115],[-15.41,72.944],[-15.724,72.745],[-15.943,72.53],[-16.068,72.32],[-16.116,72.121],[-16.095,71.933],[-16.029,71.751],[-15.98,71.567],[-16.021,71.371],[-16.202,71.174],[-16.508,70.999],[-16.875,70.853],[-17.251,70.715],[-17.608,70.567],[-17.942,70.408],[-18.294,70.263],[-18.683,70.144],[-19.102,70.047],[-19.518,69.948],[-19.921,69.844],[-20.316,69.737],[-20.694,69.621],[-21.064,69.502],[-21.431,69.382],[-21.798,69.265],[-22.171,69.153],[-22.553,69.047],[-22.936,68.944],[-23.335,68.851],[-23.742,68.763],[-24.166,68.685],[-24.602,68.615],[-25.05,68.551],[-25.511,68.494],[-25.98,68.442],[-26.423,68.376],[-26.828,68.29],[-27.201,68.19],[-27.568,68.087],[-27.932,67.984],[-28.296,67.882],[-28.635,67.769],[-28.923,67.631],[-29.158,67.47],[-29.374,67.302],[-29.596,67.137],[-29.831,66.98],[-30.083,66.832],[-30.348,66.692],[-30.543,66.573],[-30.643,66.488]]}},{"type":"Feature","properties":{"kind":"warm","line":4,"px_len":213},"geometry":{"type":"LineString","coordinates":[[-5.048,59.537],[-5.023,59.715],[-4.993,59.886],[-4.966,60.06],[-4.94,60.234],[-4.907,60.409],[-4.87,60.585],[-4.834,60.76],[-4.816,60.934],[-4.818,61.105],[-4.835,61.275],[-4.858,61.443],[-4.877,61.613],[-4.83,61.791],[-4.675,61.973],[-4.429,62.145],[-4.144,62.298],[-3.847,62.441],[-3.547,62.582],[-3.242,62.72],[-2.93,62.847],[-2.686,62.936],[-2.541,62.982]]}},{"type":"Feature","properties":{"kind":"warm","line":5,"px_len":617},"geometry":{"type":"LineString","coordinates":[[-32.317,55.2],[-32.314,55.387],[-32.352,55.572],[-32.4,55.765],[-32.443,55.961],[-32.472,56.164],[-32.476,56.378],[-32.447,56.594],[-32.392,56.803],[-32.348,56.999],[-32.359,57.189],[-32.453,57.354],[-32.606,57.5],[-32.785,57.633],[-32.961,57.769],[-33.133,57.907],[-33.297,58.049],[-33.446,58.2],[-33.586,58.355],[-33.729,58.51],[-33.879,58.662],[-34.035,58.811],[-34.199,58.958],[-34.367,59.103],[-34.536,59.248],[-34.697,59.398],[-34.85,59.552],[-34.995,59.712],[-35.137,59.873],[-35.282,60.034],[-35.474,60.172],[-35.727,60.28],[-36.03,60.364],[-36.342,60.443],[-36.653,60.523],[-36.959,60.606],[-37.255,60.694],[-37.545,60.786],[-37.832,60.879],[-38.121,60.971],[-38.413,61.062],[-38.707,61.153],[-38.998,61.246],[-39.285,61.341],[-39.565,61.44],[-39.84,61.543],[-40.106,61.651],[-40.366,61.764],[-40.634,61.872],[-40.947,61.956],[-41.326,62.002],[-41.748,62.023],[-42.174,62.04],[-42.587,62.064],[-42.982,62.097],[-43.363,62.139],[-43.735,62.187],[-44.105,62.234],[-44.469,62.286],[-44.818,62.347],[-45.154,62.417],[-45.444,62.486],[-45.664,62.546]]}},{"type":"Feature","properties":{"kind":"occl","line":5,"px_len":292},"geometry":{"type":"LineString","coordinates":[[-45.664,62.546],[-45.874,62.707],[-46.068,62.867],[-46.255,63.039],[-46.431,63.22],[-46.595,63.411],[-46.765,63.599],[-46.983,63.757],[-47.255,63.88],[-47.549,63.99],[-47.841,64.103],[-48.129,64.219],[-48.417,64.337],[-48.736,64.433],[-49.103,64.498],[-49.512,64.533],[-49.933,64.559],[-50.357,64.582],[-50.78,64.605],[-51.199,64.631],[-51.614,64.658],[-52.037,64.678],[-52.477,64.685],[-52.936,64.675],[-53.414,64.647],[-53.906,64.604],[-54.412,64.545],[-54.922,64.473],[-55.415,64.4],[-55.757,64.355],[-55.932,64.343]]}},{"type":"Feature","properties":{"kind":"warm","line":6,"px_len":565},"geometry":{"type":"LineString","coordinates":[[65.055,56.254],[65.241,56.397],[65.413,56.535],[65.509,56.688],[65.518,56.859],[65.472,57.039],[65.432,57.22],[65.39,57.402],[65.368,57.591],[65.405,57.786],[65.532,57.963],[65.733,58.098],[65.971,58.205],[66.215,58.309],[66.456,58.415],[66.69,58.528],[66.92,58.646],[67.144,58.769],[67.367,58.894],[67.596,59.016],[67.829,59.135],[68.069,59.25],[68.314,59.362],[68.562,59.472],[68.815,59.579],[69.072,59.683],[69.335,59.784],[69.601,59.883],[69.871,59.979],[70.145,60.073],[70.422,60.165],[70.703,60.255],[70.986,60.344],[71.27,60.433],[71.552,60.524],[71.831,60.62],[72.103,60.722],[72.371,60.832],[72.632,60.947],[72.909,61.051],[73.22,61.121],[73.566,61.159],[73.919,61.188],[74.267,61.222],[74.608,61.264],[74.941,61.314],[75.267,61.372],[75.59,61.435],[75.909,61.502],[76.229,61.568],[76.549,61.636],[76.867,61.706],[77.188,61.776],[77.514,61.839],[77.843,61.901],[78.173,61.962],[78.454,62.006],[78.65,62.03]]}},{"type":"Feature","properties":{"kind":"cold","line":7,"px_len":647},"geometry":{"type":"LineString","coordinates":[[13.999,68.726],[14.269,68.893],[14.546,69.053],[14.856,69.215],[15.216,69.374],[15.636,69.528],[16.102,69.67],[16.554,69.805],[16.895,69.95],[17.106,70.11],[17.267,70.276],[17.445,70.442],[17.648,70.606],[17.903,70.768],[18.188,70.928],[18.485,71.087],[18.779,71.247],[19.069,71.406],[19.355,71.566],[19.639,71.725],[19.922,71.885],[20.2,72.044],[20.474,72.204],[20.754,72.364],[21.055,72.522],[21.39,72.678],[21.762,72.831],[22.174,72.982],[22.541,73.135],[22.784,73.297],[22.912,73.467],[23.033,73.637],[23.178,73.806],[23.347,73.973],[23.541,74.139],[23.751,74.304],[23.965,74.469],[24.18,74.634],[24.389,74.799],[24.596,74.965],[24.798,75.131],[24.984,75.299],[25.171,75.467],[25.361,75.635],[25.557,75.803],[25.756,75.97],[25.943,76.139],[26.153,76.306],[26.399,76.471],[26.692,76.633],[27.019,76.793],[27.24,76.96],[27.306,77.14],[27.238,77.328],[27.183,77.516],[27.164,77.701],[27.176,77.884],[27.201,78.067],[27.218,78.25],[27.214,78.434],[27.19,78.62],[27.157,78.806],[27.112,78.993],[27.078,79.177],[26.913,79.332],[26.631,79.445]]}},{"type":"Feature","properties":{"kind":"cold","line":8,"px_len":860},"geometry":{"type":"LineString","coordinates":[[-49.308,57.38],[-49.482,57.242],[-49.656,57.113],[-49.835,56.981],[-50.013,56.85],[-50.183,56.715],[-50.346,56.58],[-50.496,56.44],[-50.636,56.297],[-50.763,56.15],[-50.933,56.018],[-51.158,55.903],[-51.422,55.8],[-51.673,55.693],[-51.905,55.581],[-52.123,55.464],[-52.331,55.344],[-52.535,55.223],[-52.738,55.102],[-52.942,54.981],[-53.149,54.862],[-53.354,54.742],[-53.561,54.622],[-53.769,54.503],[-53.977,54.384],[-54.171,54.261],[-54.349,54.133],[-54.511,54.001],[-54.666,53.867],[-54.812,53.731],[-55.001,53.608],[-55.25,53.501],[-55.548,53.408],[-55.826,53.309],[-56.079,53.202],[-56.311,53.09],[-56.532,52.975],[-56.747,52.858],[-56.962,52.742],[-57.177,52.625],[-57.391,52.508],[-57.607,52.391],[-57.823,52.274],[-58.042,52.158],[-58.259,52.042],[-58.478,51.926],[-58.697,51.81],[-58.918,51.694],[-59.138,51.578],[-59.357,51.461],[-59.566,51.343],[-59.757,51.219],[-59.926,51.091],[-60.079,50.959],[-60.22,50.824],[-60.391,50.708],[-60.62,50.618],[-60.915,50.541],[-61.214,50.45],[-61.491,50.346],[-61.741,50.235],[-61.976,50.12],[-62.208,50.005],[-62.441,49.89],[-62.677,49.775],[-62.915,49.66],[-63.156,49.546],[-63.397,49.431],[-63.641,49.317],[-63.887,49.202],[-64.135,49.088],[-64.384,48.974],[-64.636,48.86],[-64.885,48.745],[-65.121,48.627],[-65.332,48.505],[-65.511,48.376],[-65.665,48.244],[-65.828,48.127],[-66.025,48.057],[-66.259,48.033],[-66.501,48.023],[-66.743,48.012],[-66.968,47.971],[-67.151,47.883],[-67.288,47.757],[-67.4,47.627]]}}]}