{"type":"FeatureCollection","properties":{"chart":"ana","src":"Z__C_EDZW_20261009014403_tka01,ana_bwkman_dwdna_O_000000_000000_202610090000_WV12.png","valid_time":"2026-10-09T00:00:00+00:00"},"features":[{"type":"Feature","properties":{"kind":"cold","line":0,"px_len":887},"geometry":{"type":"LineString","coordinates":[[2.572,36.062],[2.747,36.087],[2.916,36.108],[3.088,36.129],[3.261,36.146],[3.435,36.158],[3.611,36.157],[3.787,36.152],[3.962,36.152],[4.134,36.184],[4.302,36.245],[4.471,36.313],[4.64,36.372],[4.811,36.424],[4.983,36.467],[5.155,36.506],[5.329,36.54],[5.502,36.573],[5.676,36.606],[5.85,36.636],[6.025,36.666],[6.199,36.694],[6.374,36.721],[6.549,36.749],[6.724,36.782],[6.9,36.813],[7.075,36.845],[7.251,36.883],[7.426,36.925],[7.602,36.971],[7.778,37.02],[7.954,37.074],[8.131,37.126],[8.308,37.172],[8.485,37.208],[8.658,37.256],[8.796,37.343],[8.903,37.471],[9.001,37.614],[9.122,37.758],[9.259,37.901],[9.407,38.045],[9.556,38.188],[9.701,38.331],[9.84,38.474],[9.974,38.617],[10.101,38.76],[10.219,38.903],[10.326,39.046],[10.417,39.189],[10.493,39.333],[10.553,39.477],[10.599,39.622],[10.629,39.766],[10.643,39.911],[10.649,40.057],[10.653,40.203],[10.665,40.348],[10.685,40.494],[10.718,40.64],[10.747,40.786],[10.742,40.933],[10.7,41.08],[10.644,41.228],[10.599,41.376],[10.567,41.523],[10.548,41.671],[10.543,41.819],[10.551,41.967],[10.564,42.114],[10.584,42.262],[10.61,42.41],[10.648,42.558],[10.698,42.706],[10.76,42.854],[10.834,43.001],[10.928,43.149],[11.044,43.296],[11.189,43.442],[11.353,43.582],[11.483,43.723],[11.566,43.868],[11.631,44.016],[11.716,44.164],[11.832,44.311],[11.978,44.458],[12.159,44.603],[12.366,44.746],[12.565,44.865],[12.722,44.945]]}},{"type":"Feature","properties":{"kind":"cold","line":1,"px_len":908},"geometry":{"type":"LineString","coordinates":[[16.845,46.14],[17.083,46.198],[17.315,46.269],[17.553,46.34],[17.79,46.402],[18.024,46.451],[18.257,46.487],[18.484,46.518],[18.677,46.585],[18.832,46.695],[18.97,46.834],[19.129,46.971],[19.312,47.105],[19.515,47.237],[19.724,47.367],[19.93,47.498],[20.127,47.63],[20.316,47.763],[20.497,47.897],[20.669,48.031],[20.831,48.167],[20.981,48.305],[21.119,48.444],[21.246,48.585],[21.368,48.726],[21.484,48.869],[21.598,49.012],[21.711,49.155],[21.83,49.297],[21.96,49.438],[22.102,49.578],[22.259,49.715],[22.41,49.853],[22.512,49.998],[22.562,50.151],[22.595,50.307],[22.64,50.462],[22.697,50.614],[22.763,50.766],[22.83,50.918],[22.899,51.069],[22.966,51.221],[23.032,51.374],[23.086,51.528],[23.137,51.683],[23.18,51.839],[23.223,51.996],[23.257,52.154],[23.288,52.313],[23.312,52.472],[23.333,52.633],[23.349,52.795],[23.36,52.957],[23.365,53.121],[23.366,53.285],[23.362,53.45],[23.353,53.616],[23.339,53.783],[23.323,53.95],[23.314,54.117],[23.322,54.281],[23.343,54.443],[23.37,54.605],[23.401,54.766],[23.388,54.93],[23.295,55.103],[23.146,55.284],[23.008,55.469],[22.893,55.651],[22.795,55.83],[22.706,56.009],[22.618,56.187],[22.527,56.365],[22.433,56.544],[22.335,56.723],[22.233,56.903],[22.127,57.083],[22.014,57.264],[21.896,57.445],[21.767,57.628],[21.623,57.812],[21.472,57.996],[21.333,58.179],[21.219,58.36],[21.14,58.536],[21.069,58.711],[20.942,58.886],[20.742,59.069],[20.515,59.255],[20.328,59.442],[20.196,59.609],[20.107,59.748]]}},{"type":"Feature","properties":{"kind":"warm","line":1,"px_len":610},"geometry":{"type":"LineString","coordinates":[[20.107,59.748],[20.287,59.903],[20.457,60.051],[20.622,60.204],[20.792,60.356],[20.968,60.507],[21.155,60.658],[21.359,60.806],[21.625,60.947],[21.964,61.061],[22.336,61.125],[22.699,61.145],[23.055,61.148],[23.412,61.154],[23.776,61.169],[24.146,61.196],[24.525,61.235],[24.908,61.277],[25.291,61.317],[25.672,61.352],[26.055,61.385],[26.441,61.421],[26.833,61.465],[27.237,61.521],[27.65,61.588],[28.059,61.645],[28.443,61.664],[28.794,61.636],[29.121,61.576],[29.445,61.513],[29.773,61.456],[30.104,61.404],[30.44,61.359],[30.777,61.316],[31.119,61.279],[31.46,61.241],[31.797,61.199],[32.132,61.154],[32.463,61.105],[32.791,61.054],[33.118,61.001],[33.442,60.947],[33.763,60.888],[34.082,60.829],[34.398,60.767],[34.718,60.71],[35.041,60.656],[35.369,60.608],[35.704,60.567],[36.045,60.532],[36.383,60.494],[36.689,60.425],[36.956,60.32],[37.204,60.197],[37.453,60.078],[37.712,59.969],[37.974,59.865],[38.242,59.767],[38.516,59.676],[38.793,59.588],[39.064,59.507],[39.335,59.437]]}},{"type":"Feature","properties":{"kind":"warm","line":2,"px_len":1012},"geometry":{"type":"LineString","coordinates":[[-48.683,38.078],[-48.598,38.209],[-48.515,38.334],[-48.435,38.464],[-48.362,38.598],[-48.296,38.735],[-48.233,38.875],[-48.143,39.002],[-48.012,39.108],[-47.85,39.199],[-47.687,39.29],[-47.531,39.384],[-47.383,39.483],[-47.243,39.585],[-47.107,39.69],[-46.972,39.796],[-46.835,39.9],[-46.696,40.004],[-46.554,40.106],[-46.409,40.208],[-46.262,40.307],[-46.111,40.405],[-45.956,40.502],[-45.796,40.596],[-45.634,40.688],[-45.468,40.779],[-45.302,40.87],[-45.143,40.964],[-44.991,41.063],[-44.849,41.166],[-44.709,41.272],[-44.575,41.381],[-44.44,41.489],[-44.282,41.585],[-44.085,41.657],[-43.851,41.705],[-43.606,41.745],[-43.364,41.792],[-43.139,41.849],[-42.928,41.915],[-42.726,41.986],[-42.526,42.058],[-42.325,42.129],[-42.121,42.198],[-41.915,42.266],[-41.709,42.334],[-41.501,42.4],[-41.292,42.466],[-41.081,42.531],[-40.871,42.595],[-40.659,42.658],[-40.446,42.722],[-40.239,42.788],[-40.042,42.86],[-39.855,42.939],[-39.681,43.026],[-39.515,43.118],[-39.353,43.213],[-39.18,43.301],[-38.974,43.368],[-38.726,43.403],[-38.454,43.419],[-38.183,43.435],[-37.924,43.465],[-37.681,43.505],[-37.45,43.554],[-37.226,43.606],[-37.003,43.66],[-36.781,43.714],[-36.557,43.766],[-36.334,43.819],[-36.11,43.871],[-35.885,43.922],[-35.661,43.973],[-35.437,44.024],[-35.213,44.075],[-34.988,44.125],[-34.764,44.176],[-34.547,44.232],[-34.341,44.295],[-34.143,44.365],[-33.957,44.444],[-33.776,44.527],[-33.601,44.614],[-33.42,44.697],[-33.214,44.761],[-32.965,44.792],[-32.693,44.804],[-32.424,44.818],[-32.173,44.845],[-31.938,44.885],[-31.716,44.935],[-31.503,44.992],[-31.294,45.053],[-31.087,45.115],[-30.882,45.179],[-30.679,45.244],[-30.477,45.31],[-30.275,45.377],[-30.075,45.446],[-29.881,45.516],[-29.74,45.569],[-29.667,45.6]]}},{"type":"Feature","properties":{"kind":"cold","line":2,"px_len":1191},"geometry":{"type":"LineString","coordinates":[[-29.667,45.6],[-29.463,45.67],[-29.272,45.742],[-29.076,45.815],[-28.882,45.888],[-28.688,45.964],[-28.494,46.039],[-28.301,46.115],[-28.109,46.191],[-27.916,46.268],[-27.723,46.345],[-27.531,46.423],[-27.337,46.5],[-27.138,46.572],[-26.933,46.639],[-26.721,46.7],[-26.501,46.753],[-26.289,46.814],[-26.102,46.898],[-25.939,47.006],[-25.776,47.115],[-25.607,47.218],[-25.43,47.315],[-25.248,47.407],[-25.06,47.494],[-24.872,47.581],[-24.683,47.668],[-24.493,47.754],[-24.302,47.84],[-24.111,47.925],[-23.923,48.015],[-23.734,48.104],[-23.547,48.196],[-23.358,48.286],[-23.171,48.379],[-22.982,48.471],[-22.794,48.563],[-22.606,48.657],[-22.417,48.751],[-22.229,48.845],[-22.04,48.941],[-21.851,49.036],[-21.662,49.132],[-21.474,49.229],[-21.285,49.327],[-21.096,49.424],[-20.903,49.519],[-20.706,49.61],[-20.506,49.697],[-20.298,49.778],[-20.086,49.852],[-19.867,49.921],[-19.668,50.012],[-19.492,50.132],[-19.331,50.27],[-19.164,50.401],[-18.987,50.522],[-18.804,50.637],[-18.615,50.748],[-18.423,50.854],[-18.23,50.961],[-18.036,51.067],[-17.842,51.175],[-17.648,51.284],[-17.454,51.393],[-17.258,51.502],[-17.063,51.612],[-16.867,51.723],[-16.67,51.834],[-16.473,51.946],[-16.275,52.058],[-16.077,52.171],[-15.878,52.284],[-15.679,52.398],[-15.478,52.512],[-15.279,52.628],[-15.078,52.744],[-14.877,52.862],[-14.674,52.979],[-14.465,53.088],[-14.249,53.189],[-14.023,53.279],[-13.794,53.364],[-13.561,53.446],[-13.352,53.553],[-13.172,53.697],[-13.01,53.869],[-12.832,54.034],[-12.641,54.185],[-12.441,54.324],[-12.234,54.455],[-12.026,54.587],[-11.816,54.718],[-11.607,54.853],[-11.398,54.99],[-11.189,55.128],[-10.978,55.268],[-10.767,55.409],[-10.556,55.553],[-10.348,55.703],[-10.142,55.86],[-9.938,56.022],[-9.728,56.178],[-9.51,56.324],[-9.279,56.454],[-9.039,56.569],[-8.791,56.673],[-8.6,56.796],[-8.485,56.948],[-8.421,57.127],[-8.335,57.313],[-8.215,57.505],[-8.058,57.704],[-7.871,57.903],[-7.658,58.092],[-7.431,58.262],[-7.187,58.405],[-6.933,58.534],[-6.68,58.656],[-6.414,58.784]]}},{"type":"Feature","properties":{"kind":"warm","line":2,"px_len":911},"geometry":{"type":"LineString","coordinates":[[-6.414,58.784],[-6.109,58.842],[-5.797,58.862],[-5.463,58.852],[-5.152,58.788],[-4.902,58.673],[-4.721,58.527],[-4.556,58.38],[-4.403,58.231],[-4.257,58.081],[-4.118,57.93],[-3.976,57.78],[-3.834,57.63],[-3.697,57.479],[-3.57,57.328],[-3.453,57.175],[-3.345,57.021],[-3.24,56.867],[-3.141,56.712],[-3.048,56.557],[-2.961,56.401],[-2.877,56.245],[-2.786,56.09],[-2.687,55.936],[-2.577,55.784],[-2.452,55.634],[-2.309,55.485],[-2.154,55.339],[-1.995,55.192],[-1.874,55.042],[-1.824,54.883],[-1.832,54.718],[-1.849,54.552],[-1.852,54.388],[-1.845,54.225],[-1.831,54.063],[-1.813,53.901],[-1.8,53.74],[-1.794,53.577],[-1.796,53.414],[-1.808,53.25],[-1.833,53.084],[-1.866,52.918],[-1.907,52.75],[-1.957,52.582],[-2.018,52.412],[-2.086,52.242],[-2.166,52.07],[-2.253,51.897],[-2.347,51.724],[-2.448,51.549],[-2.554,51.373],[-2.66,51.198],[-2.758,51.024],[-2.836,50.852],[-2.887,50.684],[-2.928,50.517],[-2.994,50.347],[-3.12,50.179],[-3.298,50.03],[-3.506,49.916],[-3.722,49.823],[-3.936,49.728],[-4.144,49.619],[-4.345,49.495],[-4.541,49.362],[-4.735,49.225],[-4.927,49.089],[-5.12,48.957],[-5.314,48.83],[-5.508,48.706],[-5.701,48.584],[-5.896,48.466],[-6.09,48.351],[-6.285,48.24],[-6.48,48.132],[-6.675,48.027],[-6.87,47.922],[-7.061,47.81],[-7.246,47.688],[-7.425,47.556],[-7.601,47.418],[-7.778,47.285],[-7.97,47.187],[-8.179,47.126],[-8.398,47.089],[-8.615,47.047],[-8.828,46.996],[-9.037,46.94],[-9.242,46.875],[-9.442,46.812],[-9.658,46.761]]}},{"type":"Feature","properties":{"kind":"occl","line":3,"px_len":647},"geometry":{"type":"LineString","coordinates":[[-6.471,58.947],[-6.646,59.096],[-6.813,59.239],[-6.977,59.386],[-7.138,59.534],[-7.298,59.682],[-7.451,59.831],[-7.588,59.983],[-7.705,60.138],[-7.819,60.294],[-7.939,60.449],[-8.071,60.602],[-8.209,60.755],[-8.353,60.907],[-8.504,61.058],[-8.654,61.209],[-8.801,61.361],[-8.939,61.514],[-9.071,61.669],[-9.194,61.825],[-9.299,61.984],[-9.41,62.143],[-9.565,62.295],[-9.771,62.439],[-9.992,62.58],[-10.191,62.725],[-10.381,62.872],[-10.595,63.015],[-10.872,63.147],[-11.226,63.267],[-11.629,63.377],[-12.038,63.486],[-12.41,63.601],[-12.754,63.721],[-13.071,63.845],[-13.375,63.971],[-13.685,64.096],[-14.005,64.22],[-14.337,64.34],[-14.674,64.46],[-15.022,64.578],[-15.382,64.692],[-15.758,64.804],[-16.144,64.913],[-16.519,65.024],[-16.867,65.14],[-17.179,65.264],[-17.472,65.391],[-17.807,65.498],[-18.228,65.572],[-18.734,65.621],[-19.261,65.678],[-19.786,65.744],[-20.318,65.81],[-20.826,65.841],[-21.278,65.82],[-21.676,65.764],[-22.062,65.698],[-22.449,65.634],[-22.842,65.575],[-23.244,65.521],[-23.657,65.473],[-24.076,65.43],[-24.499,65.39],[-24.879,65.362],[-25.175,65.352]]}},{"type":"Feature","properties":{"kind":"occl","line":4,"px_len":984},"geometry":{"type":"LineString","coordinates":[[71.62,58.376],[71.277,58.357],[70.946,58.341],[70.63,58.354],[70.356,58.417],[70.115,58.527],[69.867,58.642],[69.614,58.756],[69.385,58.878],[69.188,59.009],[69.002,59.144],[68.815,59.279],[68.621,59.412],[68.441,59.549],[68.299,59.698],[68.195,59.86],[68.099,60.024],[67.989,60.184],[67.865,60.341],[67.729,60.494],[67.589,60.646],[67.448,60.799],[67.311,60.953],[67.176,61.108],[67.051,61.267],[66.932,61.428],[66.816,61.59],[66.709,61.755],[66.609,61.923],[66.514,62.093],[66.423,62.265],[66.339,62.439],[66.265,62.616],[66.197,62.796],[66.136,62.978],[66.073,63.16],[66.017,63.344],[65.964,63.529],[65.913,63.716],[65.867,63.904],[65.83,64.095],[65.811,64.292],[65.823,64.498],[65.879,64.714],[65.98,64.934],[66.043,65.139],[66.022,65.325],[65.929,65.501],[65.853,65.683],[65.807,65.874],[65.78,66.07],[65.718,66.257],[65.572,66.423],[65.351,66.568],[65.129,66.714],[64.913,66.861],[64.71,67.013],[64.513,67.167],[64.338,67.328],[64.169,67.491],[64.0,67.654],[63.824,67.816],[63.639,67.976],[63.446,68.135],[63.245,68.292],[63.038,68.448],[62.825,68.603],[62.602,68.756],[62.368,68.907],[62.128,69.057],[61.88,69.205],[61.622,69.351],[61.357,69.496],[61.086,69.64],[60.811,69.783],[60.536,69.928],[60.267,70.074],[60.01,70.225],[59.767,70.381],[59.533,70.539],[59.299,70.699],[59.027,70.849],[58.707,70.986],[58.359,71.117],[58.006,71.246],[57.649,71.375],[57.277,71.501],[56.845,71.61],[56.336,71.697],[55.774,71.768],[55.214,71.84],[54.675,71.917],[54.153,72.0],[53.649,72.089],[53.16,72.182],[52.677,72.278],[52.197,72.376],[51.714,72.473],[51.34,72.554],[51.117,72.61]]}},{"type":"Feature","properties":{"kind":"warm","line":5,"px_len":481},"geometry":{"type":"LineString","coordinates":[[-53.203,48.978],[-53.363,49.122],[-53.493,49.289],[-53.618,49.474],[-53.743,49.659],[-53.863,49.852],[-53.966,50.052],[-54.041,50.252],[-54.094,50.444],[-54.159,50.636],[-54.264,50.818],[-54.422,50.969],[-54.608,51.087],[-54.809,51.189],[-55.01,51.291],[-55.206,51.401],[-55.394,51.523],[-55.574,51.656],[-55.752,51.795],[-55.931,51.933],[-56.112,52.071],[-56.296,52.207],[-56.483,52.339],[-56.673,52.469],[-56.866,52.596],[-57.063,52.721],[-57.262,52.843],[-57.463,52.964],[-57.667,53.083],[-57.875,53.198],[-58.09,53.305],[-58.313,53.4],[-58.543,53.487],[-58.78,53.566],[-59.025,53.634],[-59.273,53.697],[-59.518,53.766],[-59.76,53.841],[-60.001,53.918],[-60.24,53.999],[-60.492,54.061],[-60.771,54.081],[-61.075,54.044],[-61.396,53.974],[-61.718,53.896],[-62.044,53.828],[-62.362,53.771],[-62.665,53.726],[-62.969,53.702]]}},{"type":"Feature","properties":{"kind":"warm","line":6,"px_len":227},"geometry":{"type":"LineString","coordinates":[[43.273,73.608],[42.973,73.802],[42.638,73.969],[42.257,74.127],[41.878,74.289],[41.568,74.479],[41.384,74.689],[41.38,74.893],[41.515,75.077],[41.698,75.253],[41.853,75.435],[41.957,75.625],[42.018,75.822],[42.066,76.022],[42.126,76.22],[42.205,76.416],[42.317,76.607],[42.483,76.791],[42.708,76.966],[42.971,77.137],[43.261,77.304],[43.591,77.467],[43.944,77.605],[44.257,77.709]]}},{"type":"Feature","properties":{"kind":"warm","line":7,"px_len":331},"geometry":{"type":"LineString","coordinates":[[-60.4,41.812],[-60.377,41.966],[-60.337,42.109],[-60.288,42.254],[-60.23,42.396],[-60.166,42.537],[-60.096,42.676],[-60.055,42.824],[-60.065,42.986],[-60.128,43.157],[-60.208,43.332],[-60.277,43.505],[-60.33,43.679],[-60.364,43.847],[-60.386,44.013],[-60.405,44.178],[-60.428,44.345],[-60.454,44.512],[-60.484,44.68],[-60.517,44.85],[-60.555,45.02],[-60.597,45.192],[-60.644,45.366],[-60.706,45.542],[-60.793,45.724],[-60.914,45.903],[-61.061,46.065],[-61.224,46.203],[-61.398,46.321],[-61.579,46.427],[-61.763,46.529],[-61.948,46.632],[-62.127,46.736],[-62.314,46.847]]}},{"type":"Feature","properties":{"kind":"cold","line":7,"px_len":298},"geometry":{"type":"LineString","coordinates":[[-62.314,46.847],[-62.516,46.86],[-62.708,46.79],[-62.888,46.669],[-63.051,46.544],[-63.207,46.417],[-63.36,46.29],[-63.513,46.163],[-63.656,46.034],[-63.788,45.902],[-63.907,45.768],[-64.014,45.632],[-64.11,45.494],[-64.196,45.353],[-64.277,45.212],[-64.359,45.071],[-64.446,44.931],[-64.536,44.792],[-64.629,44.654],[-64.726,44.517],[-64.827,44.381],[-64.93,44.245],[-65.034,44.11],[-65.144,43.976],[-65.255,43.843],[-65.369,43.709],[-65.483,43.577],[-65.599,43.444],[-65.716,43.312],[-65.829,43.192],[-65.93,43.091]]}},{"type":"Feature","properties":{"kind":"stat","line":8,"px_len":267},"geometry":{"type":"LineString","coordinates":[[-62.408,47.046],[-62.352,47.198],[-62.304,47.346],[-62.276,47.502],[-62.285,47.666],[-62.354,47.832],[-62.481,47.991],[-62.644,48.148],[-62.809,48.311],[-62.97,48.485],[-63.134,48.659],[-63.301,48.825],[-63.472,48.988],[-63.644,49.151],[-63.814,49.322],[-63.99,49.484],[-64.172,49.636],[-64.36,49.775],[-64.553,49.908],[-64.751,50.031],[-64.957,50.14],[-65.172,50.23],[-65.395,50.303],[-65.623,50.367],[-65.854,50.421],[-66.081,50.423],[-66.275,50.37],[-66.417,50.285]]}}]}