{"type":"FeatureCollection","properties":{"chart":"ana","src":"Z__C_EDZW_20261005071558_tka01,ana_bwkman_dwdna_O_000000_000000_202610050600_WV12.png","valid_time":"2026-10-05T06:00:00+00:00"},"features":[{"type":"Feature","properties":{"kind":"occl","line":0,"px_len":357},"geometry":{"type":"LineString","coordinates":[[-11.177,63.293],[-10.889,63.396],[-10.567,63.473],[-10.224,63.543],[-9.876,63.609],[-9.526,63.674],[-9.174,63.738],[-8.821,63.801],[-8.469,63.868],[-8.119,63.938],[-7.771,64.014],[-7.427,64.097],[-7.082,64.181],[-6.719,64.242],[-6.337,64.273],[-5.943,64.288],[-5.554,64.309],[-5.167,64.333],[-4.781,64.361],[-4.383,64.367],[-3.969,64.342],[-3.541,64.29],[-3.117,64.239],[-2.697,64.191],[-2.278,64.142],[-1.858,64.084],[-1.43,64.005],[-1.021,63.895],[-0.676,63.761],[-0.423,63.61],[-0.245,63.453],[-0.102,63.294],[0.027,63.134],[0.153,62.973],[0.277,62.813],[0.384,62.669],[0.46,62.555]]}},{"type":"Feature","properties":{"kind":"cold","line":0,"px_len":1969},"geometry":{"type":"LineString","coordinates":[[0.46,62.555],[0.536,62.395],[0.433,62.258],[0.17,62.128],[-0.144,61.994],[-0.44,61.841],[-0.704,61.673],[-0.931,61.495],[-1.171,61.332],[-1.442,61.193],[-1.741,61.067],[-2.032,60.926],[-2.312,60.766],[-2.581,60.587],[-2.842,60.395],[-3.099,60.203],[-3.354,60.016],[-3.609,59.834],[-3.863,59.656],[-4.112,59.474],[-4.347,59.292],[-4.554,59.104],[-4.721,58.917],[-4.862,58.734],[-5.04,58.589],[-5.276,58.483],[-5.556,58.399],[-5.833,58.308],[-6.102,58.204],[-6.362,58.086],[-6.614,57.957],[-6.863,57.825],[-7.11,57.695],[-7.358,57.567],[-7.605,57.443],[-7.851,57.319],[-8.097,57.198],[-8.341,57.076],[-8.584,56.956],[-8.826,56.836],[-9.067,56.719],[-9.309,56.603],[-9.55,56.49],[-9.791,56.377],[-10.031,56.266],[-10.267,56.152],[-10.496,56.029],[-10.716,55.893],[-10.926,55.745],[-11.14,55.605],[-11.374,55.499],[-11.631,55.427],[-11.892,55.362],[-12.148,55.291],[-12.399,55.214],[-12.644,55.13],[-12.884,55.04],[-13.121,54.947],[-13.355,54.851],[-13.589,54.756],[-13.822,54.662],[-14.054,54.567],[-14.286,54.474],[-14.517,54.38],[-14.747,54.287],[-14.977,54.194],[-15.205,54.101],[-15.433,54.008],[-15.66,53.915],[-15.887,53.823],[-16.112,53.73],[-16.335,53.636],[-16.56,53.544],[-16.782,53.451],[-17.005,53.359],[-17.225,53.266],[-17.442,53.168],[-17.653,53.066],[-17.858,52.957],[-18.055,52.84],[-18.246,52.718],[-18.456,52.618],[-18.688,52.544],[-18.935,52.488],[-19.175,52.425],[-19.408,52.354],[-19.635,52.277],[-19.857,52.195],[-20.075,52.11],[-20.292,52.023],[-20.507,51.935],[-20.722,51.849],[-20.935,51.76],[-21.15,51.675],[-21.362,51.587],[-21.575,51.501],[-21.787,51.414],[-21.997,51.326],[-22.207,51.238],[-22.418,51.152],[-22.626,51.064],[-22.833,50.975],[-23.041,50.888],[-23.248,50.8],[-23.452,50.71],[-23.655,50.619],[-23.861,50.533],[-24.062,50.442],[-24.262,50.351],[-24.462,50.259],[-24.664,50.171],[-24.859,50.076],[-25.042,49.971],[-25.218,49.859],[-25.388,49.743],[-25.562,49.632],[-25.759,49.542],[-25.979,49.474],[-26.202,49.409],[-26.419,49.338],[-26.628,49.261],[-26.829,49.177],[-27.026,49.089],[-27.217,48.997],[-27.409,48.906],[-27.603,48.817],[-27.796,48.728],[-27.988,48.639],[-28.18,48.549],[-28.373,48.461],[-28.563,48.37],[-28.756,48.284],[-28.945,48.194],[-29.136,48.105],[-29.326,48.017],[-29.516,47.928],[-29.706,47.84],[-29.894,47.751],[-30.084,47.664],[-30.273,47.576],[-30.462,47.489],[-30.651,47.402],[-30.839,47.314],[-31.027,47.227],[-31.216,47.141],[-31.404,47.054],[-31.589,46.966],[-31.772,46.875],[-31.949,46.781],[-32.12,46.682],[-32.284,46.579],[-32.438,46.468],[-32.599,46.363],[-32.79,46.281],[-33.008,46.22],[-33.23,46.162],[-33.443,46.097],[-33.647,46.025],[-33.842,45.947],[-34.032,45.865],[-34.219,45.782],[-34.407,45.699],[-34.595,45.616],[-34.783,45.533],[-34.97,45.45],[-35.158,45.368],[-35.346,45.286],[-35.534,45.205],[-35.723,45.124],[-35.913,45.043],[-36.103,44.963],[-36.293,44.883],[-36.484,44.804],[-36.674,44.725],[-36.865,44.646],[-37.056,44.567],[-37.246,44.488],[-37.436,44.408],[-37.626,44.329],[-37.813,44.248],[-37.992,44.162],[-38.16,44.068],[-38.323,43.972],[-38.477,43.87],[-38.634,43.77],[-38.826,43.693],[-39.058,43.642],[-39.305,43.6],[-39.536,43.547],[-39.752,43.485],[-39.957,43.416],[-40.156,43.343],[-40.355,43.269],[-40.553,43.196],[-40.754,43.124],[-40.954,43.052],[-41.145,42.984],[-41.322,42.925]]}},{"type":"Feature","properties":{"kind":"warm","line":0,"px_len":625},"geometry":{"type":"LineString","coordinates":[[-41.322,42.925],[-41.531,42.854],[-41.735,42.788],[-41.946,42.721],[-42.159,42.656],[-42.374,42.592],[-42.598,42.532],[-42.84,42.482],[-43.094,42.446],[-43.354,42.427],[-43.609,42.417],[-43.86,42.395],[-44.093,42.345],[-44.289,42.268],[-44.462,42.178],[-44.628,42.084],[-44.806,41.997],[-45.0,41.918],[-45.214,41.85],[-45.442,41.79],[-45.679,41.733],[-45.918,41.678],[-46.158,41.622],[-46.4,41.567],[-46.642,41.511],[-46.885,41.456],[-47.129,41.401],[-47.374,41.345],[-47.619,41.29],[-47.865,41.234],[-48.113,41.178],[-48.368,41.126],[-48.626,41.085],[-48.877,41.059],[-49.111,41.052],[-49.337,41.054],[-49.573,41.041],[-49.811,40.999],[-50.025,40.926],[-50.205,40.836],[-50.377,40.742],[-50.563,40.655],[-50.775,40.578],[-51.008,40.511],[-51.259,40.451],[-51.518,40.394],[-51.779,40.336],[-52.038,40.278],[-52.295,40.222],[-52.55,40.167],[-52.802,40.116],[-53.053,40.063],[-53.301,40.012],[-53.546,39.966],[-53.783,39.929],[-54.009,39.908],[-54.223,39.904],[-54.433,39.907],[-54.62,39.877],[-54.763,39.793],[-54.858,39.667],[-54.939,39.537],[-55.007,39.428],[-55.052,39.354]]}},{"type":"Feature","properties":{"kind":"warm","line":1,"px_len":364},"geometry":{"type":"LineString","coordinates":[[13.345,60.597],[13.002,60.619],[12.67,60.618],[12.331,60.611],[11.993,60.613],[11.655,60.618],[11.318,60.634],[10.981,60.657],[10.644,60.69],[10.306,60.734],[9.968,60.789],[9.628,60.827],[9.288,60.833],[8.947,60.816],[8.608,60.799],[8.268,60.792],[7.927,60.794],[7.586,60.805],[7.245,60.822],[6.901,60.853],[6.555,60.895],[6.207,60.949],[5.857,61.012],[5.503,61.081],[5.147,61.155],[4.788,61.239],[4.422,61.34],[4.051,61.463],[3.698,61.606],[3.388,61.758],[3.123,61.913],[2.835,62.059],[2.499,62.172],[2.125,62.236],[1.756,62.261],[1.39,62.275],[1.097,62.288],[0.91,62.3]]}},{"type":"Feature","properties":{"kind":"warm","line":2,"px_len":468},"geometry":{"type":"LineString","coordinates":[[20.517,54.429],[20.716,54.559],[20.915,54.694],[21.14,54.832],[21.386,54.967],[21.617,55.104],[21.775,55.249],[21.853,55.405],[21.883,55.566],[21.91,55.729],[21.95,55.89],[22.003,56.049],[22.067,56.207],[22.136,56.365],[22.207,56.523],[22.273,56.681],[22.338,56.84],[22.39,57.0],[22.44,57.161],[22.481,57.324],[22.521,57.486],[22.555,57.65],[22.584,57.814],[22.607,57.979],[22.625,58.145],[22.641,58.312],[22.653,58.479],[22.66,58.647],[22.671,58.814],[22.693,58.98],[22.729,59.145],[22.773,59.309],[22.83,59.472],[22.902,59.633],[22.974,59.794],[22.994,59.961],[22.921,60.14],[22.743,60.331],[22.525,60.527],[22.323,60.72],[22.16,60.908],[22.012,61.094],[21.855,61.282],[21.679,61.47],[21.493,61.66],[21.324,61.847],[21.197,62.017],[21.122,62.156]]}},{"type":"Feature","properties":{"kind":"occl","line":2,"px_len":701},"geometry":{"type":"LineString","coordinates":[[21.122,62.156],[21.234,62.32],[21.354,62.475],[21.489,62.633],[21.649,62.788],[21.835,62.941],[22.041,63.092],[22.27,63.241],[22.518,63.387],[22.733,63.537],[22.886,63.694],[22.985,63.856],[23.089,64.018],[23.205,64.179],[23.334,64.339],[23.438,64.501],[23.48,64.671],[23.456,64.847],[23.424,65.025],[23.4,65.201],[23.394,65.376],[23.398,65.55],[23.413,65.723],[23.43,65.896],[23.435,66.07],[23.429,66.246],[23.407,66.423],[23.37,66.601],[23.322,66.781],[23.264,66.962],[23.211,67.142],[23.171,67.321],[23.162,67.498],[23.173,67.672],[23.197,67.846],[23.202,68.021],[23.125,68.204],[22.969,68.394],[22.8,68.584],[22.668,68.772],[22.546,68.958],[22.372,69.148],[22.092,69.335],[21.711,69.498],[21.288,69.629],[20.858,69.756],[20.433,69.9],[20.012,70.062],[19.587,70.228],[19.154,70.391],[18.707,70.542],[18.249,70.682],[17.782,70.817],[17.311,70.955],[16.836,71.101],[16.356,71.253],[15.864,71.391],[15.351,71.486],[14.818,71.531],[14.279,71.562],[13.74,71.597],[13.199,71.636],[12.658,71.68],[12.111,71.703],[11.56,71.695],[11.007,71.666],[10.456,71.64],[9.907,71.623],[9.36,71.614],[8.824,71.611],[8.265,71.608]]}},{"type":"Feature","properties":{"kind":"occl","line":3,"px_len":627},"geometry":{"type":"LineString","coordinates":[[60.231,56.131],[60.296,56.349],[60.353,56.562],[60.408,56.783],[60.457,57.007],[60.486,57.229],[60.492,57.442],[60.508,57.648],[60.571,57.845],[60.697,58.02],[60.869,58.169],[61.057,58.307],[61.246,58.447],[61.421,58.596],[61.605,58.741],[61.821,58.865],[62.076,58.963],[62.339,59.057],[62.596,59.156],[62.846,59.259],[63.099,59.362],[63.353,59.465],[63.609,59.566],[63.867,59.668],[64.133,59.764],[64.406,59.856],[64.685,59.945],[64.972,60.028],[65.261,60.11],[65.557,60.187],[65.861,60.26],[66.169,60.329],[66.484,60.393],[66.806,60.452],[67.134,60.507],[67.471,60.555],[67.812,60.599],[68.153,60.643],[68.484,60.696],[68.808,60.753],[69.133,60.811],[69.456,60.871],[69.789,60.922],[70.161,60.94],[70.579,60.916],[71.014,60.875],[71.437,60.842],[71.842,60.824],[72.226,60.809],[72.572,60.761],[72.896,60.674],[73.23,60.57],[73.6,60.476],[74.0,60.395],[74.417,60.326],[74.845,60.258],[75.264,60.181],[75.655,60.088],[75.999,59.983],[76.297,59.869],[76.593,59.788],[76.911,59.756],[77.22,59.763],[77.462,59.771]]}},{"type":"Feature","properties":{"kind":"occl","line":4,"px_len":1276},"geometry":{"type":"LineString","coordinates":[[31.41,55.873],[31.567,56.016],[31.743,56.147],[31.943,56.277],[32.159,56.403],[32.398,56.523],[32.653,56.64],[32.896,56.76],[33.093,56.89],[33.242,57.033],[33.39,57.175],[33.552,57.315],[33.733,57.45],[33.9,57.589],[34.022,57.739],[34.093,57.901],[34.16,58.065],[34.241,58.226],[34.336,58.384],[34.443,58.538],[34.557,58.692],[34.677,58.844],[34.791,58.999],[34.9,59.154],[34.999,59.313],[35.09,59.473],[35.178,59.635],[35.26,59.798],[35.338,59.963],[35.411,60.129],[35.477,60.297],[35.535,60.468],[35.588,60.639],[35.634,60.813],[35.68,60.987],[35.735,61.16],[35.811,61.327],[35.906,61.49],[36.011,61.651],[36.125,61.811],[36.216,61.976],[36.252,62.154],[36.244,62.343],[36.244,62.531],[36.275,62.711],[36.311,62.89],[36.317,63.077],[36.256,63.278],[36.15,63.49],[36.054,63.7],[36.002,63.899],[35.991,64.09],[36.014,64.273],[36.067,64.45],[36.142,64.622],[36.231,64.792],[36.328,64.961],[36.429,65.129],[36.536,65.295],[36.648,65.462],[36.767,65.627],[36.891,65.791],[37.031,65.952],[37.188,66.11],[37.367,66.264],[37.565,66.414],[37.78,66.561],[38.023,66.702],[38.265,66.843],[38.475,66.992],[38.66,67.147],[38.842,67.303],[39.043,67.455],[39.239,67.608],[39.409,67.768],[39.534,67.938],[39.616,68.118],[39.693,68.299],[39.787,68.476],[39.911,68.648],[40.06,68.815],[40.23,68.978],[40.42,69.137],[40.634,69.291],[40.889,69.438],[41.161,69.581],[41.431,69.724],[41.683,69.873],[41.94,70.02],[42.217,70.164],[42.525,70.301],[42.833,70.439],[43.129,70.58],[43.416,70.724],[43.684,70.872],[43.936,71.025],[44.179,71.18],[44.473,71.325],[44.832,71.455],[45.244,71.574],[45.637,71.697],[46.011,71.826],[46.391,71.953],[46.827,72.068],[47.323,72.169],[47.841,72.265],[48.328,72.368],[48.787,72.478],[49.216,72.597],[49.629,72.719],[50.014,72.85],[50.386,72.984],[50.761,73.119],[51.157,73.249],[51.559,73.379],[51.984,73.503],[52.445,73.619],[52.934,73.728],[53.452,73.83],[53.957,73.936],[54.41,74.057],[54.825,74.189],[55.246,74.321],[55.689,74.448],[56.129,74.577],[56.514,74.715],[56.695,74.882],[56.682,75.051],[56.606,75.184]]}}]}