{"type":"FeatureCollection","properties":{"chart":"ana","src":"Z__C_EDZW_20261007135251_tka01,ana_bwkman_dwdna_O_000000_000000_202610071200_WV12.png","valid_time":"2026-10-07T12:00:00+00:00"},"features":[{"type":"Feature","properties":{"kind":"cold","line":0,"px_len":829},"geometry":{"type":"LineString","coordinates":[[-12.243,44.841],[-12.062,44.937],[-11.891,45.034],[-11.716,45.132],[-11.54,45.232],[-11.363,45.33],[-11.185,45.429],[-11.005,45.525],[-10.824,45.619],[-10.64,45.711],[-10.456,45.803],[-10.271,45.894],[-10.085,45.984],[-9.898,46.074],[-9.71,46.163],[-9.521,46.253],[-9.332,46.343],[-9.142,46.431],[-8.951,46.521],[-8.76,46.61],[-8.564,46.692],[-8.364,46.764],[-8.16,46.831],[-7.953,46.892],[-7.742,46.946],[-7.541,47.021],[-7.356,47.135],[-7.185,47.282],[-7.009,47.421],[-6.826,47.546],[-6.638,47.662],[-6.447,47.773],[-6.254,47.882],[-6.062,47.995],[-5.872,48.116],[-5.683,48.243],[-5.495,48.373],[-5.306,48.504],[-5.116,48.636],[-4.926,48.773],[-4.737,48.915],[-4.549,49.06],[-4.359,49.207],[-4.17,49.357],[-3.979,49.509],[-3.788,49.662],[-3.596,49.818],[-3.402,49.974],[-3.208,50.132],[-3.012,50.289],[-2.814,50.446],[-2.614,50.602],[-2.413,50.758],[-2.209,50.913],[-2.003,51.064],[-1.792,51.206],[-1.575,51.332],[-1.351,51.439],[-1.12,51.53],[-0.908,51.625],[-0.754,51.75],[-0.647,51.91],[-0.532,52.084],[-0.373,52.262],[-0.18,52.442],[0.035,52.616],[0.256,52.783],[0.481,52.942],[0.709,53.098],[0.94,53.252],[1.173,53.403],[1.408,53.552],[1.646,53.696],[1.887,53.838],[2.131,53.975],[2.378,54.109],[2.628,54.235],[2.881,54.354],[3.137,54.467],[3.395,54.578],[3.654,54.691],[3.912,54.82],[4.156,54.954],[4.377,55.084]]}},{"type":"Feature","properties":{"kind":"warm","line":0,"px_len":709},"geometry":{"type":"LineString","coordinates":[[4.377,55.084],[4.645,55.224],[4.904,55.359],[5.171,55.5],[5.44,55.64],[5.711,55.775],[5.985,55.907],[6.262,56.032],[6.542,56.151],[6.825,56.262],[7.11,56.363],[7.397,56.457],[7.686,56.543],[7.978,56.62],[8.271,56.688],[8.565,56.748],[8.861,56.799],[9.158,56.844],[9.456,56.881],[9.754,56.913],[10.053,56.941],[10.352,56.971],[10.653,57.006],[10.954,57.048],[11.256,57.094],[11.56,57.142],[11.863,57.167],[12.163,57.154],[12.459,57.105],[12.754,57.05],[13.048,56.997],[13.341,56.948],[13.635,56.903],[13.928,56.864],[14.221,56.825],[14.512,56.781],[14.802,56.732],[15.09,56.678],[15.377,56.62],[15.662,56.558],[15.945,56.491],[16.226,56.421],[16.506,56.348],[16.783,56.272],[17.059,56.195],[17.334,56.114],[17.606,56.031],[17.877,55.945],[18.145,55.858],[18.413,55.77],[18.678,55.681],[18.942,55.591],[19.205,55.502],[19.467,55.412],[19.728,55.324],[19.989,55.239],[20.252,55.164],[20.517,55.099],[20.786,55.045],[21.056,54.997],[21.327,54.955],[21.601,54.919],[21.869,54.869],[22.122,54.784],[22.358,54.657],[22.588,54.519],[22.819,54.388],[23.053,54.27],[23.292,54.165],[23.533,54.069],[23.762,53.983],[23.968,53.904]]}},{"type":"Feature","properties":{"kind":"cold","line":1,"px_len":622},"geometry":{"type":"LineString","coordinates":[[43.543,49.889],[43.875,49.918],[44.189,49.942],[44.51,49.965],[44.827,49.983],[45.142,49.997],[45.45,50.003],[45.747,50.0],[46.028,49.981],[46.293,49.948],[46.543,49.903],[46.786,49.886],[47.02,49.917],[47.261,49.989],[47.522,50.057],[47.804,50.114],[48.105,50.16],[48.422,50.198],[48.744,50.233],[49.065,50.267],[49.382,50.302],[49.695,50.339],[50.005,50.376],[50.31,50.416],[50.609,50.458],[50.903,50.503],[51.193,50.549],[51.476,50.599],[51.755,50.651],[52.039,50.699],[52.336,50.739],[52.641,50.767],[52.955,50.781],[53.255,50.787],[53.512,50.825],[53.72,50.906],[53.91,51.009],[54.096,51.115],[54.284,51.22],[54.469,51.327],[54.654,51.435],[54.834,51.547],[55.015,51.657],[55.198,51.768],[55.382,51.878],[55.567,51.988],[55.749,52.1],[55.929,52.214],[56.109,52.329],[56.291,52.442],[56.471,52.557],[56.653,52.673],[56.833,52.789],[57.013,52.906],[57.193,53.024],[57.373,53.142],[57.552,53.261],[57.731,53.381],[57.911,53.501],[58.092,53.621],[58.271,53.743],[58.448,53.864],[58.577,53.952],[58.646,54.001]]}},{"type":"Feature","properties":{"kind":"occl","line":1,"px_len":1004},"geometry":{"type":"LineString","coordinates":[[58.646,54.001],[58.719,54.161],[58.721,54.335],[58.683,54.528],[58.644,54.721],[58.601,54.912],[58.556,55.103],[58.525,55.301],[58.509,55.507],[58.511,55.722],[58.51,55.936],[58.497,56.144],[58.464,56.343],[58.417,56.536],[58.358,56.724],[58.29,56.907],[58.215,57.088],[58.135,57.267],[58.05,57.444],[57.958,57.618],[57.867,57.793],[57.786,57.974],[57.724,58.164],[57.687,58.366],[57.682,58.582],[57.69,58.797],[57.646,58.989],[57.543,59.16],[57.423,59.326],[57.326,59.504],[57.252,59.693],[57.178,59.882],[57.053,60.049],[56.881,60.194],[56.685,60.33],[56.499,60.471],[56.318,60.614],[56.152,60.766],[55.999,60.924],[55.858,61.088],[55.718,61.253],[55.574,61.417],[55.429,61.582],[55.288,61.749],[55.148,61.917],[55.011,62.088],[54.877,62.26],[54.744,62.434],[54.611,62.609],[54.477,62.784],[54.346,62.961],[54.204,63.134],[54.06,63.307],[53.91,63.478],[53.761,63.65],[53.614,63.824],[53.463,63.998],[53.315,64.173],[53.165,64.348],[53.017,64.526],[52.872,64.705],[52.735,64.889],[52.618,65.083],[52.533,65.292],[52.49,65.514],[52.46,65.731],[52.366,65.92],[52.191,66.086],[51.999,66.252],[51.833,66.431],[51.687,66.619],[51.533,66.805],[51.327,66.969],[51.066,67.111],[50.775,67.24],[50.492,67.374],[50.216,67.513],[49.96,67.661],[49.721,67.817],[49.504,67.986],[49.294,68.158],[49.087,68.333],[48.871,68.505],[48.649,68.676],[48.419,68.845],[48.183,69.013],[47.94,69.179],[47.687,69.342],[47.423,69.502],[47.146,69.657],[46.859,69.81],[46.559,69.958],[46.247,70.102],[45.919,70.24],[45.575,70.374],[45.222,70.504],[44.859,70.631],[44.49,70.757],[44.115,70.881],[43.732,71.003],[43.399,71.089],[43.165,71.132]]}},{"type":"Feature","properties":{"kind":"warm","line":2,"px_len":335},"geometry":{"type":"LineString","coordinates":[[-51.054,38.515],[-50.961,38.643],[-50.872,38.765],[-50.78,38.89],[-50.688,39.015],[-50.595,39.141],[-50.504,39.267],[-50.421,39.397],[-50.347,39.531],[-50.279,39.669],[-50.217,39.809],[-50.163,39.954],[-50.106,40.097],[-50.017,40.226],[-49.895,40.34],[-49.758,40.448],[-49.628,40.559],[-49.502,40.673],[-49.384,40.789],[-49.274,40.911],[-49.17,41.035],[-49.069,41.16],[-48.967,41.285],[-48.87,41.413],[-48.773,41.542],[-48.674,41.669],[-48.575,41.797],[-48.476,41.925],[-48.377,42.054],[-48.276,42.182],[-48.176,42.31],[-48.076,42.439],[-47.974,42.567],[-47.888,42.673],[-47.826,42.744]]}},{"type":"Feature","properties":{"kind":"cold","line":2,"px_len":1117},"geometry":{"type":"LineString","coordinates":[[-47.826,42.744],[-47.733,42.882],[-47.635,43.009],[-47.536,43.139],[-47.435,43.27],[-47.335,43.4],[-47.235,43.532],[-47.134,43.663],[-47.031,43.794],[-46.929,43.925],[-46.826,44.056],[-46.723,44.187],[-46.619,44.318],[-46.512,44.448],[-46.407,44.58],[-46.295,44.708],[-46.179,44.834],[-46.049,44.955],[-45.912,45.072],[-45.762,45.183],[-45.614,45.294],[-45.491,45.419],[-45.4,45.56],[-45.319,45.706],[-45.227,45.847],[-45.124,45.982],[-45.007,46.112],[-44.884,46.239],[-44.762,46.366],[-44.639,46.493],[-44.511,46.619],[-44.386,46.746],[-44.266,46.875],[-44.143,47.004],[-44.023,47.134],[-43.899,47.263],[-43.776,47.393],[-43.655,47.524],[-43.534,47.655],[-43.412,47.786],[-43.292,47.918],[-43.171,48.051],[-43.05,48.184],[-42.928,48.317],[-42.806,48.45],[-42.683,48.583],[-42.562,48.717],[-42.44,48.852],[-42.317,48.986],[-42.193,49.12],[-42.07,49.255],[-41.945,49.389],[-41.818,49.523],[-41.691,49.657],[-41.564,49.791],[-41.435,49.925],[-41.304,50.058],[-41.174,50.192],[-41.043,50.326],[-40.91,50.46],[-40.779,50.595],[-40.648,50.73],[-40.516,50.865],[-40.386,51.002],[-40.255,51.139],[-40.121,51.274],[-39.982,51.408],[-39.834,51.537],[-39.68,51.663],[-39.515,51.784],[-39.342,51.901],[-39.197,52.033],[-39.093,52.188],[-39.017,52.359],[-38.93,52.524],[-38.829,52.683],[-38.716,52.835],[-38.597,52.984],[-38.475,53.133],[-38.355,53.283],[-38.233,53.433],[-38.114,53.584],[-38.001,53.74],[-37.894,53.9],[-37.788,54.06],[-37.687,54.224],[-37.597,54.395],[-37.517,54.571],[-37.44,54.75],[-37.37,54.933],[-37.304,55.118],[-37.245,55.308],[-37.186,55.499],[-37.136,55.695],[-37.092,55.894],[-37.054,56.097],[-37.019,56.303],[-37.002,56.518],[-37.005,56.744],[-37.018,56.973],[-37.05,57.191],[-37.104,57.398],[-37.176,57.594],[-37.259,57.785],[-37.351,57.972],[-37.441,58.161],[-37.523,58.355],[-37.606,58.549],[-37.681,58.746],[-37.65,58.919],[-37.472,59.048],[-37.207,59.122],[-36.989,59.176]]}},{"type":"Feature","properties":{"kind":"warm","line":2,"px_len":694},"geometry":{"type":"LineString","coordinates":[[-36.989,59.176],[-36.643,59.239],[-36.299,59.294],[-35.913,59.331],[-35.493,59.35],[-35.051,59.357],[-34.608,59.362],[-34.167,59.366],[-33.734,59.36],[-33.343,59.325],[-33.03,59.248],[-32.776,59.144],[-32.537,59.033],[-32.288,58.927],[-32.037,58.822],[-31.786,58.718],[-31.525,58.618],[-31.255,58.523],[-30.987,58.427],[-30.727,58.327],[-30.484,58.22],[-30.255,58.108],[-30.031,57.993],[-29.809,57.878],[-29.59,57.762],[-29.377,57.644],[-29.168,57.524],[-28.964,57.403],[-28.762,57.281],[-28.558,57.16],[-28.362,57.037],[-28.165,56.914],[-27.969,56.791],[-27.777,56.666],[-27.585,56.542],[-27.399,56.417],[-27.21,56.292],[-27.027,56.165],[-26.846,56.038],[-26.673,55.908],[-26.51,55.775],[-26.35,55.64],[-26.199,55.502],[-26.052,55.364],[-25.911,55.222],[-25.767,55.083],[-25.621,54.945],[-25.477,54.806],[-25.326,54.671],[-25.164,54.54],[-24.991,54.414],[-24.831,54.284],[-24.721,54.133],[-24.686,53.953],[-24.712,53.749],[-24.756,53.538],[-24.789,53.332],[-24.801,53.134],[-24.801,52.941],[-24.801,52.748],[-24.808,52.553],[-24.82,52.356],[-24.838,52.156],[-24.856,51.957],[-24.875,51.757],[-24.895,51.557],[-24.912,51.359],[-24.923,51.163],[-24.929,50.97],[-24.922,50.821],[-24.906,50.732]]}},{"type":"Feature","properties":{"kind":"stat","line":3,"px_len":137},"geometry":{"type":"LineString","coordinates":[[-37.957,59.055],[-38.265,59.131],[-38.56,59.204],[-38.875,59.271],[-39.206,59.329],[-39.549,59.379],[-39.899,59.425],[-40.256,59.467],[-40.62,59.503],[-40.99,59.536],[-41.364,59.565],[-41.743,59.59],[-42.13,59.609],[-42.474,59.628],[-42.736,59.646]]}},{"type":"Feature","properties":{"kind":"occl","line":3,"px_len":508},"geometry":{"type":"LineString","coordinates":[[-42.736,59.646],[-43.088,59.692],[-43.433,59.73],[-43.796,59.762],[-44.156,59.795],[-44.504,59.836],[-44.834,59.888],[-45.152,59.95],[-45.465,60.015],[-45.806,60.06],[-46.183,60.078],[-46.584,60.078],[-46.972,60.086],[-47.343,60.106],[-47.714,60.126],[-48.113,60.121],[-48.515,60.078],[-48.892,60.003],[-49.246,59.917],[-49.63,59.841],[-50.053,59.775],[-50.497,59.714],[-50.944,59.653],[-51.38,59.588],[-51.797,59.517],[-52.182,59.435],[-52.541,59.346],[-52.876,59.25],[-53.194,59.149],[-53.507,59.047],[-53.826,58.946],[-54.155,58.847],[-54.48,58.746],[-54.749,58.632],[-54.956,58.501],[-55.117,58.36],[-55.285,58.22],[-55.464,58.084],[-55.657,57.951],[-55.817,57.81],[-55.932,57.658],[-56.009,57.497],[-56.094,57.338],[-56.189,57.182],[-56.296,57.03],[-56.412,56.88],[-56.547,56.734],[-56.693,56.592],[-56.852,56.453],[-57.011,56.314],[-57.163,56.188],[-57.301,56.084]]}}]}