{"type":"FeatureCollection","properties":{"chart":"ana","src":"Z__C_EDZW_20261008073715_tka01,ana_bwkman_dwdna_O_000000_000000_202610080600_WV12.png","valid_time":"2026-10-08T06:00:00+00:00"},"features":[{"type":"Feature","properties":{"kind":"cold","line":0,"px_len":1297},"geometry":{"type":"LineString","coordinates":[[-1.407,38.537],[-1.248,38.667],[-1.091,38.782],[-0.93,38.896],[-0.768,39.009],[-0.605,39.121],[-0.441,39.232],[-0.276,39.345],[-0.111,39.458],[0.056,39.569],[0.225,39.673],[0.396,39.766],[0.572,39.846],[0.75,39.913],[0.926,39.981],[1.073,40.077],[1.194,40.213],[1.315,40.373],[1.463,40.533],[1.628,40.683],[1.799,40.82],[1.972,40.949],[2.145,41.079],[2.32,41.21],[2.495,41.347],[2.67,41.488],[2.845,41.638],[3.02,41.795],[3.186,41.958],[3.341,42.119],[3.48,42.279],[3.605,42.437],[3.723,42.595],[3.846,42.754],[3.982,42.911],[4.131,43.057],[4.283,43.195],[4.383,43.333],[4.426,43.482],[4.434,43.633],[4.445,43.784],[4.46,43.936],[4.485,44.088],[4.518,44.241],[4.559,44.394],[4.604,44.548],[4.658,44.703],[4.727,44.859],[4.813,45.015],[4.927,45.174],[5.082,45.33],[5.27,45.474],[5.475,45.596],[5.684,45.694],[5.895,45.775],[6.075,45.865],[6.197,45.986],[6.261,46.135],[6.314,46.29],[6.38,46.445],[6.462,46.601],[6.547,46.758],[6.626,46.914],[6.698,47.07],[6.77,47.226],[6.844,47.382],[6.926,47.539],[7.02,47.695],[7.127,47.853],[7.248,48.01],[7.387,48.169],[7.542,48.327],[7.707,48.485],[7.889,48.644],[8.093,48.802],[8.309,48.948],[8.517,49.089],[8.657,49.231],[8.725,49.386],[8.754,49.542],[8.786,49.698],[8.828,49.855],[8.885,50.012],[8.958,50.169],[9.042,50.326],[9.126,50.483],[9.215,50.64],[9.312,50.798],[9.417,50.955],[9.53,51.113],[9.658,51.27],[9.802,51.428],[9.971,51.585],[10.161,51.742],[10.371,51.889],[10.601,52.031],[10.822,52.171],[10.967,52.321],[11.018,52.476],[11.034,52.635],[11.053,52.794],[11.079,52.953],[11.097,53.112],[11.109,53.271],[11.117,53.431],[11.125,53.591],[11.133,53.751],[11.141,53.911],[11.149,54.071],[11.157,54.231],[11.166,54.392],[11.181,54.552],[11.207,54.713],[11.252,54.873],[11.283,55.034],[11.275,55.195],[11.232,55.358],[11.194,55.52],[11.174,55.682],[11.171,55.844],[11.185,56.006],[11.21,56.168],[11.235,56.33],[11.266,56.492],[11.296,56.654],[11.327,56.816],[11.365,56.978],[11.405,57.14],[11.461,57.303],[11.527,57.448],[11.589,57.562]]}},{"type":"Feature","properties":{"kind":"warm","line":0,"px_len":636},"geometry":{"type":"LineString","coordinates":[[11.589,57.562],[11.711,57.726],[11.83,57.884],[11.962,58.045],[12.107,58.205],[12.272,58.365],[12.469,58.524],[12.719,58.682],[13.021,58.831],[13.352,58.955],[13.686,59.052],[14.019,59.13],[14.354,59.204],[14.691,59.284],[15.031,59.37],[15.374,59.453],[15.712,59.509],[16.04,59.513],[16.359,59.477],[16.675,59.43],[16.99,59.387],[17.307,59.35],[17.624,59.316],[17.94,59.281],[18.255,59.245],[18.568,59.203],[18.878,59.151],[19.181,59.084],[19.478,59.004],[19.771,58.913],[20.061,58.819],[20.347,58.721],[20.63,58.614],[20.907,58.5],[21.179,58.379],[21.451,58.261],[21.722,58.146],[21.997,58.044],[22.276,57.953],[22.557,57.874],[22.837,57.792],[23.103,57.685],[23.339,57.534],[23.519,57.356],[23.659,57.169],[23.807,56.98],[23.996,56.789],[24.212,56.607],[24.436,56.438],[24.66,56.275],[24.881,56.109],[25.098,55.942],[25.318,55.782],[25.543,55.638],[25.777,55.514],[26.017,55.403],[26.25,55.282],[26.461,55.13],[26.621,54.951],[26.724,54.765],[26.794,54.584],[26.883,54.399],[27.011,54.208],[27.15,54.043],[27.264,53.924]]}},{"type":"Feature","properties":{"kind":"occl","line":1,"px_len":971},"geometry":{"type":"LineString","coordinates":[[71.785,58.458],[71.563,58.587],[71.358,58.712],[71.143,58.839],[70.921,58.964],[70.698,59.089],[70.473,59.213],[70.246,59.337],[70.016,59.461],[69.788,59.585],[69.565,59.711],[69.352,59.84],[69.154,59.973],[68.968,60.11],[68.789,60.25],[68.62,60.393],[68.426,60.528],[68.202,60.656],[67.963,60.779],[67.739,60.906],[67.521,61.037],[67.292,61.163],[67.024,61.278],[66.716,61.381],[66.396,61.481],[66.086,61.583],[65.791,61.69],[65.515,61.803],[65.256,61.922],[65.01,62.045],[64.775,62.172],[64.544,62.301],[64.312,62.429],[64.08,62.558],[63.852,62.689],[63.62,62.819],[63.393,62.951],[63.164,63.082],[62.944,63.217],[62.721,63.352],[62.5,63.487],[62.29,63.627],[62.1,63.774],[61.924,63.927],[61.76,64.084],[61.61,64.246],[61.46,64.409],[61.27,64.559],[61.05,64.7],[60.819,64.837],[60.59,64.975],[60.366,65.116],[60.122,65.251],[59.841,65.373],[59.53,65.486],[59.217,65.598],[58.919,65.716],[58.631,65.838],[58.356,65.964],[58.091,66.096],[57.84,66.232],[57.597,66.373],[57.355,66.514],[57.114,66.657],[56.871,66.8],[56.627,66.943],[56.384,67.086],[56.14,67.231],[55.897,67.377],[55.669,67.529],[55.456,67.688],[55.268,67.856],[55.103,68.034],[54.964,68.223],[54.832,68.415],[54.645,68.588],[54.396,68.739],[54.12,68.881],[53.863,69.032],[53.627,69.191],[53.384,69.349],[53.083,69.486],[52.719,69.602],[52.33,69.708],[51.952,69.82],[51.586,69.937],[51.233,70.06],[50.889,70.187],[50.556,70.319],[50.222,70.453],[49.886,70.587],[49.543,70.719],[49.197,70.851],[48.844,70.982],[48.485,71.112],[48.123,71.242],[47.788,71.374],[47.523,71.528]]}},{"type":"Feature","properties":{"kind":"warm","line":2,"px_len":578},"geometry":{"type":"LineString","coordinates":[[-47.926,37.025],[-47.863,37.165],[-47.811,37.304],[-47.762,37.448],[-47.689,37.58],[-47.576,37.692],[-47.433,37.789],[-47.289,37.886],[-47.154,37.987],[-47.025,38.091],[-46.906,38.201],[-46.791,38.313],[-46.681,38.428],[-46.574,38.545],[-46.466,38.662],[-46.356,38.778],[-46.249,38.895],[-46.139,39.012],[-46.028,39.128],[-45.917,39.244],[-45.807,39.361],[-45.694,39.477],[-45.581,39.593],[-45.468,39.709],[-45.353,39.825],[-45.238,39.94],[-45.122,40.056],[-45.006,40.171],[-44.887,40.286],[-44.77,40.402],[-44.649,40.516],[-44.53,40.631],[-44.413,40.747],[-44.297,40.864],[-44.189,40.986],[-44.085,41.111],[-43.989,41.24],[-43.898,41.373],[-43.814,41.509],[-43.718,41.64],[-43.588,41.752],[-43.423,41.843],[-43.248,41.93],[-43.08,42.021],[-42.921,42.117],[-42.767,42.216],[-42.622,42.32],[-42.482,42.427],[-42.346,42.537],[-42.209,42.647],[-42.072,42.757],[-41.934,42.867],[-41.796,42.976],[-41.656,43.086],[-41.516,43.195],[-41.376,43.305],[-41.236,43.414],[-41.104,43.514],[-40.989,43.596]]}},{"type":"Feature","properties":{"kind":"cold","line":2,"px_len":1200},"geometry":{"type":"LineString","coordinates":[[-40.989,43.596],[-40.848,43.71],[-40.709,43.818],[-40.566,43.927],[-40.422,44.036],[-40.28,44.146],[-40.133,44.254],[-39.991,44.365],[-39.844,44.474],[-39.7,44.584],[-39.555,44.694],[-39.409,44.804],[-39.262,44.914],[-39.116,45.024],[-38.963,45.131],[-38.799,45.231],[-38.626,45.325],[-38.448,45.417],[-38.275,45.512],[-38.13,45.625],[-38.011,45.755],[-37.895,45.887],[-37.771,46.015],[-37.636,46.136],[-37.496,46.254],[-37.351,46.37],[-37.205,46.485],[-37.057,46.599],[-36.909,46.713],[-36.761,46.828],[-36.613,46.944],[-36.464,47.059],[-36.317,47.176],[-36.17,47.294],[-36.024,47.411],[-35.876,47.529],[-35.73,47.649],[-35.584,47.768],[-35.439,47.889],[-35.292,48.009],[-35.145,48.13],[-34.999,48.251],[-34.85,48.371],[-34.693,48.486],[-34.535,48.601],[-34.365,48.708],[-34.187,48.81],[-34.003,48.908],[-33.844,49.024],[-33.719,49.164],[-33.614,49.319],[-33.502,49.469],[-33.376,49.61],[-33.242,49.747],[-33.101,49.878],[-32.955,50.007],[-32.807,50.136],[-32.66,50.265],[-32.512,50.395],[-32.364,50.525],[-32.217,50.656],[-32.068,50.787],[-31.919,50.918],[-31.77,51.05],[-31.622,51.183],[-31.471,51.315],[-31.319,51.446],[-31.158,51.572],[-30.988,51.692],[-30.811,51.807],[-30.626,51.917],[-30.434,52.023],[-30.251,52.135],[-30.106,52.277],[-29.994,52.443],[-29.881,52.61],[-29.755,52.768],[-29.615,52.917],[-29.468,53.06],[-29.314,53.2],[-29.159,53.339],[-29.005,53.481],[-28.852,53.624],[-28.699,53.767],[-28.546,53.912],[-28.396,54.059],[-28.247,54.208],[-28.097,54.358],[-27.951,54.511],[-27.806,54.666],[-27.665,54.825],[-27.52,54.983],[-27.37,55.136],[-27.204,55.28],[-27.026,55.414],[-26.834,55.539],[-26.655,55.669],[-26.539,55.829],[-26.479,56.027],[-26.42,56.239],[-26.326,56.443],[-26.21,56.632],[-26.082,56.814],[-25.948,56.992],[-25.816,57.173],[-25.688,57.358],[-25.563,57.547],[-25.441,57.738],[-25.325,57.936],[-25.216,58.14],[-25.112,58.349],[-25.008,58.56],[-24.898,58.767],[-24.769,58.962],[-24.614,59.137],[-24.437,59.298],[-24.245,59.448],[-24.051,59.598],[-23.86,59.752],[-23.677,59.902],[-23.499,60.049]]}},{"type":"Feature","properties":{"kind":"stat","line":2,"px_len":147},"geometry":{"type":"LineString","coordinates":[[-23.499,60.049],[-23.534,60.208],[-23.684,60.344],[-23.899,60.473],[-24.114,60.602],[-24.319,60.734],[-24.517,60.869],[-24.704,61.008],[-24.887,61.149],[-25.066,61.291],[-25.25,61.433],[-25.438,61.573],[-25.637,61.71],[-25.84,61.846],[-26.024,61.968],[-26.169,62.064]]}},{"type":"Feature","properties":{"kind":"occl","line":2,"px_len":1404},"geometry":{"type":"LineString","coordinates":[[-26.169,62.064],[-26.382,62.202],[-26.599,62.331],[-26.823,62.462],[-27.053,62.592],[-27.281,62.722],[-27.516,62.851],[-27.744,62.983],[-27.972,63.114],[-28.255,63.228],[-28.605,63.318],[-29.009,63.389],[-29.399,63.464],[-29.771,63.546],[-30.157,63.622],[-30.581,63.678],[-31.033,63.695],[-31.47,63.67],[-31.885,63.625],[-32.305,63.583],[-32.747,63.55],[-33.202,63.523],[-33.652,63.492],[-34.085,63.453],[-34.493,63.401],[-34.883,63.34],[-35.258,63.272],[-35.628,63.202],[-36.004,63.134],[-36.387,63.069],[-36.78,63.008],[-37.159,62.94],[-37.485,62.85],[-37.756,62.737],[-38.0,62.613],[-38.255,62.493],[-38.51,62.375],[-38.763,62.256],[-38.978,62.122],[-39.136,61.964],[-39.247,61.788],[-39.345,61.607],[-39.457,61.433],[-39.586,61.266],[-39.737,61.109],[-39.901,60.958],[-40.073,60.811],[-40.243,60.664],[-40.411,60.517],[-40.576,60.369],[-40.739,60.22],[-40.898,60.071],[-41.064,59.925],[-41.229,59.779],[-41.396,59.635],[-41.556,59.488],[-41.711,59.34],[-41.856,59.188],[-41.986,59.031],[-42.102,58.868],[-42.201,58.699],[-42.315,58.537],[-42.471,58.392],[-42.664,58.263],[-42.871,58.14],[-43.07,58.014],[-43.265,57.888],[-43.454,57.758],[-43.682,57.646],[-43.968,57.556],[-44.297,57.483],[-44.623,57.409],[-44.932,57.328],[-45.227,57.241],[-45.519,57.153],[-45.819,57.068],[-46.132,56.988],[-46.465,56.914],[-46.814,56.846],[-47.17,56.78],[-47.523,56.713],[-47.858,56.638],[-48.165,56.553],[-48.455,56.462],[-48.772,56.381],[-49.12,56.332],[-49.467,56.324],[-49.78,56.351],[-50.076,56.392],[-50.373,56.433],[-50.676,56.468],[-50.975,56.506],[-51.246,56.572],[-51.491,56.665],[-51.726,56.768],[-51.968,56.865],[-52.217,56.956],[-52.473,57.04],[-52.732,57.123],[-52.988,57.209],[-53.239,57.302],[-53.489,57.397],[-53.735,57.496],[-53.978,57.6],[-54.218,57.71],[-54.454,57.824],[-54.688,57.942],[-54.919,58.066],[-55.148,58.193],[-55.377,58.321],[-55.616,58.441],[-55.865,58.551],[-56.121,58.654],[-56.381,58.754],[-56.63,58.868],[-56.851,59.014],[-57.029,59.199],[-57.183,59.402],[-57.344,59.607],[-57.529,59.799],[-57.716,59.977],[-57.824,60.147],[-57.842,60.317],[-57.813,60.491],[-57.8,60.668],[-57.809,60.85],[-57.837,61.036],[-57.861,61.221],[-57.876,61.404],[-57.898,61.589],[-57.941,61.778],[-58.011,61.972],[-58.124,62.175],[-58.285,62.379],[-58.413,62.57],[-58.437,62.742],[-58.358,62.906],[-58.265,63.07],[-58.097,63.22],[-57.834,63.352],[-57.567,63.447],[-57.402,63.507]]}},{"type":"Feature","properties":{"kind":"warm","line":3,"px_len":721},"geometry":{"type":"LineString","coordinates":[[-18.883,49.116],[-18.706,49.237],[-18.553,49.373],[-18.392,49.508],[-18.219,49.631],[-18.037,49.742],[-17.848,49.847],[-17.662,49.956],[-17.495,50.09],[-17.368,50.26],[-17.294,50.444],[-17.261,50.63],[-17.233,50.815],[-17.183,51.007],[-17.108,51.207],[-17.012,51.413],[-16.901,51.623],[-16.807,51.829],[-16.744,52.024],[-16.71,52.211],[-16.686,52.395],[-16.675,52.575],[-16.676,52.752],[-16.683,52.927],[-16.692,53.103],[-16.694,53.28],[-16.681,53.461],[-16.652,53.648],[-16.61,53.838],[-16.58,54.025],[-16.605,54.196],[-16.696,54.349],[-16.825,54.491],[-16.955,54.633],[-17.074,54.779],[-17.186,54.927],[-17.291,55.077],[-17.39,55.229],[-17.481,55.384],[-17.567,55.54],[-17.66,55.695],[-17.76,55.848],[-17.861,56.001],[-17.966,56.154],[-18.078,56.304],[-18.191,56.455],[-18.307,56.605],[-18.416,56.757],[-18.513,56.913],[-18.597,57.073],[-18.671,57.237],[-18.739,57.402],[-18.825,57.562],[-18.973,57.705],[-19.179,57.832],[-19.402,57.954],[-19.615,58.078],[-19.822,58.205],[-20.015,58.336],[-20.199,58.47],[-20.369,58.609],[-20.532,58.749],[-20.699,58.889],[-20.878,59.026],[-21.07,59.159],[-21.271,59.289],[-21.49,59.415],[-21.725,59.535],[-21.974,59.652],[-22.239,59.764],[-22.521,59.87],[-22.819,59.967],[-23.158,60.06]]}},{"type":"Feature","properties":{"kind":"warm","line":4,"px_len":223},"geometry":{"type":"LineString","coordinates":[[37.675,74.198],[38.033,74.347],[38.325,74.498],[38.619,74.654],[38.908,74.811],[39.206,74.967],[39.502,75.124],[39.784,75.284],[40.057,75.446],[40.3,75.612],[40.531,75.782],[40.736,75.955],[40.937,76.13],[41.222,76.294],[41.669,76.434],[42.27,76.552],[42.914,76.663],[43.558,76.774],[44.184,76.889],[44.798,77.005],[45.404,77.123],[46.027,77.235],[46.552,77.306],[46.906,77.334]]}}]}