{"type":"FeatureCollection","properties":{"chart":"ana","src":"Z__C_EDZW_20261003135820_tka01,ana_bwkman_dwdna_O_000000_000000_202610031200_WV12.png","valid_time":"2026-10-03T12:00:00+00:00"},"features":[{"type":"Feature","properties":{"kind":"warm","line":0,"px_len":853},"geometry":{"type":"LineString","coordinates":[[-0.32,44.25],[-0.173,44.407],[-0.008,44.557],[0.172,44.707],[0.355,44.852],[0.542,44.982],[0.734,45.096],[0.929,45.198],[1.126,45.294],[1.326,45.384],[1.527,45.468],[1.731,45.544],[1.937,45.613],[2.145,45.673],[2.354,45.726],[2.566,45.772],[2.779,45.813],[2.993,45.849],[3.207,45.882],[3.422,45.914],[3.637,45.952],[3.85,45.998],[4.063,46.052],[4.276,46.114],[4.488,46.181],[4.703,46.236],[4.922,46.254],[5.145,46.237],[5.37,46.209],[5.593,46.187],[5.815,46.175],[6.035,46.174],[6.256,46.174],[6.476,46.177],[6.697,46.181],[6.917,46.192],[7.136,46.204],[7.356,46.217],[7.576,46.23],[7.796,46.248],[8.016,46.268],[8.237,46.291],[8.457,46.316],[8.677,46.342],[8.898,46.368],[9.119,46.393],[9.341,46.416],[9.563,46.44],[9.785,46.475],[10.007,46.524],[10.231,46.589],[10.456,46.677],[10.671,46.794],[10.867,46.934],[11.058,47.081],[11.267,47.216],[11.494,47.322],[11.726,47.404],[11.959,47.488],[12.192,47.593],[12.418,47.718],[12.63,47.857],[12.828,48.002],[13.019,48.149],[13.2,48.297],[13.368,48.444],[13.521,48.593],[13.663,48.742],[13.789,48.891],[13.901,49.041],[13.991,49.193],[14.061,49.345],[14.116,49.499],[14.165,49.653],[14.199,49.808],[14.235,49.963],[14.314,50.115],[14.46,50.265],[14.644,50.412],[14.826,50.559],[14.986,50.707],[15.127,50.856],[15.254,51.006],[15.372,51.157],[15.476,51.308],[15.538,51.424],[15.554,51.494]]}},{"type":"Feature","properties":{"kind":"warm","line":1,"px_len":420},"geometry":{"type":"LineString","coordinates":[[-14.605,66.772],[-15.06,66.748],[-15.531,66.754],[-16.028,66.772],[-16.535,66.794],[-17.059,66.828],[-17.608,66.879],[-18.158,66.947],[-18.691,67.03],[-19.223,67.106],[-19.758,67.15],[-20.256,67.146],[-20.697,67.102],[-21.119,67.046],[-21.543,66.992],[-21.977,66.943],[-22.421,66.902],[-22.874,66.865],[-23.329,66.83],[-23.775,66.788],[-24.207,66.737],[-24.618,66.674],[-25.013,66.602],[-25.391,66.521],[-25.767,66.439],[-26.142,66.357],[-26.517,66.276],[-26.893,66.196],[-27.272,66.118],[-27.644,66.036],[-27.957,65.923],[-28.185,65.766],[-28.347,65.576],[-28.494,65.379],[-28.656,65.191],[-28.835,65.013],[-29.02,64.84],[-29.195,64.663],[-29.347,64.475],[-29.467,64.271],[-29.54,64.054],[-29.565,63.845],[-29.551,63.647]]}},{"type":"Feature","properties":{"kind":"cold","line":1,"px_len":895},"geometry":{"type":"LineString","coordinates":[[-29.551,63.647],[-29.185,63.557],[-28.849,63.467],[-28.516,63.37],[-28.182,63.274],[-27.842,63.18],[-27.504,63.086],[-27.179,62.987],[-26.901,62.872],[-26.7,62.732],[-26.573,62.567],[-26.47,62.395],[-26.374,62.221],[-26.286,62.045],[-26.211,61.865],[-26.16,61.677],[-26.134,61.481],[-26.134,61.277],[-26.155,61.065],[-26.197,60.846],[-26.25,60.623],[-26.303,60.401],[-26.34,60.183],[-26.348,59.976],[-26.343,59.78],[-26.406,59.609],[-26.564,59.465],[-26.783,59.34],[-26.998,59.211],[-27.203,59.076],[-27.396,58.934],[-27.579,58.787],[-27.761,58.639],[-27.948,58.496],[-28.138,58.356],[-28.33,58.219],[-28.527,58.085],[-28.727,57.955],[-28.931,57.828],[-29.139,57.705],[-29.349,57.584],[-29.563,57.466],[-29.779,57.35],[-29.997,57.237],[-30.222,57.128],[-30.449,57.022],[-30.678,56.917],[-30.906,56.812],[-31.127,56.703],[-31.341,56.59],[-31.539,56.469],[-31.736,56.346],[-31.964,56.244],[-32.235,56.17],[-32.53,56.11],[-32.814,56.044],[-33.088,55.971],[-33.352,55.892],[-33.609,55.81],[-33.862,55.725],[-34.117,55.642],[-34.372,55.558],[-34.629,55.476],[-34.886,55.395],[-35.145,55.314],[-35.404,55.234],[-35.663,55.153],[-35.924,55.074],[-36.184,54.994],[-36.444,54.915],[-36.704,54.836],[-36.965,54.756],[-37.226,54.678],[-37.486,54.598],[-37.737,54.514],[-37.975,54.423],[-38.199,54.325],[-38.417,54.224],[-38.627,54.118],[-38.876,54.037],[-39.181,53.99],[-39.535,53.967],[-39.883,53.934],[-40.209,53.888],[-40.518,53.832],[-40.823,53.774],[-41.128,53.715],[-41.435,53.657],[-41.746,53.601],[-42.009,53.555],[-42.189,53.524]]}},{"type":"Feature","properties":{"kind":"warm","line":1,"px_len":418},"geometry":{"type":"LineString","coordinates":[[-42.189,53.524],[-42.509,53.466],[-42.816,53.411],[-43.131,53.354],[-43.449,53.297],[-43.777,53.245],[-44.126,53.203],[-44.478,53.178],[-44.817,53.169],[-45.146,53.161],[-45.467,53.127],[-45.748,53.055],[-45.978,52.957],[-46.181,52.848],[-46.387,52.74],[-46.604,52.637],[-46.837,52.541],[-47.089,52.452],[-47.346,52.365],[-47.605,52.278],[-47.858,52.19],[-48.108,52.099],[-48.36,52.01],[-48.622,51.924],[-48.897,51.843],[-49.197,51.771],[-49.523,51.709],[-49.856,51.648],[-50.153,51.573],[-50.38,51.473],[-50.56,51.355],[-50.718,51.23],[-50.88,51.107],[-51.047,50.985],[-51.227,50.868],[-51.419,50.756],[-51.624,50.648],[-51.832,50.542],[-52.036,50.434],[-52.229,50.322],[-52.409,50.206],[-52.562,50.095],[-52.68,49.997]]}},{"type":"Feature","properties":{"kind":"cold","line":1,"px_len":687},"geometry":{"type":"LineString","coordinates":[[-52.68,49.997],[-52.831,49.867],[-52.966,49.74],[-53.095,49.608],[-53.221,49.475],[-53.341,49.339],[-53.454,49.202],[-53.563,49.064],[-53.67,48.925],[-53.776,48.786],[-53.882,48.648],[-53.98,48.507],[-54.067,48.362],[-54.141,48.214],[-54.21,48.064],[-54.283,47.916],[-54.4,47.783],[-54.558,47.663],[-54.729,47.548],[-54.892,47.43],[-55.047,47.31],[-55.198,47.189],[-55.348,47.067],[-55.498,46.946],[-55.652,46.825],[-55.807,46.706],[-55.966,46.587],[-56.125,46.469],[-56.285,46.351],[-56.446,46.234],[-56.61,46.118],[-56.777,46.002],[-56.943,45.887],[-57.111,45.772],[-57.279,45.657],[-57.446,45.542],[-57.602,45.423],[-57.742,45.3],[-57.866,45.172],[-57.983,45.043],[-58.098,44.913],[-58.255,44.795],[-58.459,44.691],[-58.692,44.596],[-58.905,44.494],[-59.095,44.386],[-59.268,44.272],[-59.43,44.156],[-59.589,44.039],[-59.747,43.922],[-59.909,43.805],[-60.07,43.689],[-60.235,43.574],[-60.401,43.458],[-60.571,43.344],[-60.744,43.231],[-60.921,43.119],[-61.099,43.007],[-61.269,42.893],[-61.42,42.774],[-61.548,42.649],[-61.663,42.521],[-61.788,42.396],[-61.923,42.273],[-62.039,42.145],[-62.117,42.009],[-62.179,41.868],[-62.242,41.728],[-62.297,41.603],[-62.341,41.504]]}},{"type":"Feature","properties":{"kind":"warm","line":2,"px_len":395},"geometry":{"type":"LineString","coordinates":[[64.878,56.225],[64.742,56.375],[64.637,56.528],[64.552,56.694],[64.469,56.86],[64.377,57.024],[64.272,57.183],[64.154,57.338],[64.037,57.493],[63.957,57.663],[63.96,57.849],[64.067,58.023],[64.254,58.165],[64.476,58.283],[64.703,58.4],[64.932,58.515],[65.163,58.63],[65.392,58.747],[65.631,58.858],[65.879,58.962],[66.137,59.059],[66.405,59.15],[66.688,59.229],[66.986,59.297],[67.306,59.347],[67.647,59.38],[68.004,59.399],[68.364,59.415],[68.728,59.427],[69.102,59.429],[69.491,59.416],[69.894,59.389],[70.301,59.357],[70.7,59.33],[71.081,59.317],[71.447,59.318],[71.807,59.31],[72.161,59.268],[72.476,59.18],[72.693,59.082],[72.808,59.008]]}},{"type":"Feature","properties":{"kind":"cold","line":3,"px_len":716},"geometry":{"type":"LineString","coordinates":[[-6.229,50.821],[-5.984,50.867],[-5.751,50.913],[-5.513,50.96],[-5.272,51.001],[-5.029,51.041],[-4.787,51.08],[-4.543,51.119],[-4.301,51.16],[-4.057,51.2],[-3.812,51.236],[-3.564,51.263],[-3.314,51.288],[-3.061,51.304],[-2.809,51.32],[-2.567,51.369],[-2.337,51.453],[-2.112,51.558],[-1.884,51.655],[-1.653,51.745],[-1.418,51.828],[-1.181,51.906],[-0.944,51.985],[-0.706,52.067],[-0.469,52.153],[-0.232,52.243],[0.006,52.336],[0.243,52.435],[0.48,52.538],[0.718,52.644],[0.956,52.754],[1.195,52.868],[1.433,52.986],[1.673,53.11],[1.913,53.236],[2.156,53.359],[2.402,53.47],[2.654,53.564],[2.91,53.644],[3.15,53.723],[3.324,53.834],[3.439,53.981],[3.541,54.149],[3.679,54.318],[3.84,54.489],[4.025,54.661],[4.209,54.833],[4.384,55.003],[4.546,55.173],[4.695,55.343],[4.835,55.511],[4.965,55.679],[5.085,55.847],[5.199,56.014],[5.308,56.181],[5.423,56.348],[5.556,56.516],[5.722,56.685],[5.925,56.855],[6.167,57.022],[6.362,57.185],[6.479,57.346],[6.528,57.511],[6.585,57.676],[6.661,57.842],[6.769,58.008],[6.905,58.176],[7.053,58.343],[7.201,58.51],[7.343,58.678],[7.483,58.845],[7.592,58.989],[7.662,59.095]]}},{"type":"Feature","properties":{"kind":"occl","line":3,"px_len":1402},"geometry":{"type":"LineString","coordinates":[[7.662,59.095],[7.797,59.265],[7.912,59.428],[8.019,59.594],[8.133,59.761],[8.26,59.927],[8.414,60.094],[8.592,60.261],[8.795,60.428],[8.964,60.595],[9.067,60.761],[9.11,60.927],[9.158,61.093],[9.224,61.26],[9.308,61.426],[9.361,61.593],[9.352,61.759],[9.278,61.926],[9.195,62.093],[9.123,62.26],[9.067,62.427],[9.031,62.594],[9.002,62.761],[8.969,62.928],[8.92,63.096],[8.86,63.263],[8.783,63.43],[8.692,63.598],[8.576,63.765],[8.427,63.932],[8.249,64.099],[8.063,64.266],[7.887,64.432],[7.745,64.599],[7.625,64.766],[7.485,64.933],[7.262,65.099],[6.966,65.263],[6.665,65.427],[6.417,65.591],[6.192,65.756],[5.946,65.919],[5.646,66.082],[5.33,66.243],[5.046,66.405],[4.813,66.568],[4.621,66.732],[4.476,66.898],[4.374,67.065],[4.307,67.234],[4.264,67.403],[4.227,67.573],[4.201,67.743],[4.196,67.915],[4.214,68.087],[4.243,68.259],[4.294,68.433],[4.371,68.607],[4.485,68.782],[4.623,68.958],[4.781,69.135],[4.962,69.312],[5.161,69.49],[5.358,69.667],[5.523,69.843],[5.645,70.018],[5.743,70.192],[5.842,70.367],[6.02,70.543],[6.315,70.717],[6.718,70.89],[7.13,71.062],[7.495,71.239],[7.794,71.414],[8.124,71.57],[8.552,71.705],[9.081,71.831],[9.629,71.98],[10.141,72.146],[10.584,72.317],[10.962,72.487],[11.305,72.658],[11.641,72.827],[11.971,72.997],[12.292,73.166],[12.608,73.335],[12.92,73.504],[13.229,73.672],[13.531,73.84],[13.823,74.009],[14.105,74.177],[14.396,74.345],[14.719,74.512],[15.095,74.677],[15.512,74.841],[15.962,75.003],[16.348,75.167],[16.605,75.334],[16.736,75.506],[16.841,75.678],[16.964,75.85],[17.125,76.021],[17.266,76.193],[17.275,76.369],[17.085,76.551],[16.769,76.737],[16.411,76.924],[16.059,77.109],[15.726,77.294],[15.41,77.477],[15.076,77.661],[14.703,77.844],[14.27,78.028],[13.769,78.212],[13.2,78.396],[12.597,78.579],[12.007,78.761],[11.462,78.941],[10.906,79.12],[10.268,79.298],[9.494,79.447],[8.606,79.534],[7.649,79.555],[6.68,79.55],[5.713,79.54],[4.749,79.526],[3.813,79.475],[2.952,79.361],[2.146,79.193],[1.346,79.024],[0.542,78.867],[-0.256,78.728],[-1.049,78.602],[-1.836,78.486],[-2.61,78.371],[-3.374,78.257],[-4.124,78.144],[-4.865,78.032],[-5.597,77.923],[-6.298,77.814],[-6.772,77.729],[-6.991,77.676]]}},{"type":"Feature","properties":{"kind":"occl","line":4,"px_len":1550},"geometry":{"type":"LineString","coordinates":[[19.219,53.559],[19.51,53.67],[19.803,53.77],[20.107,53.859],[20.405,53.939],[20.649,54.037],[20.836,54.163],[20.992,54.308],[21.167,54.451],[21.363,54.591],[21.574,54.73],[21.765,54.871],[21.891,55.02],[21.961,55.176],[22.02,55.334],[22.093,55.49],[22.178,55.645],[22.274,55.799],[22.378,55.952],[22.495,56.103],[22.621,56.253],[22.747,56.403],[22.873,56.554],[22.998,56.705],[23.123,56.856],[23.246,57.007],[23.369,57.158],[23.489,57.31],[23.61,57.462],[23.736,57.613],[23.875,57.763],[24.028,57.911],[24.197,58.057],[24.381,58.201],[24.565,58.344],[24.717,58.493],[24.828,58.647],[24.912,58.806],[24.997,58.964],[25.093,59.121],[25.197,59.277],[25.27,59.438],[25.293,59.606],[25.29,59.779],[25.29,59.95],[25.3,60.121],[25.325,60.289],[25.363,60.456],[25.411,60.622],[25.461,60.787],[25.508,60.954],[25.545,61.121],[25.575,61.29],[25.589,61.462],[25.59,61.635],[25.588,61.808],[25.601,61.98],[25.626,62.151],[25.659,62.32],[25.693,62.49],[25.669,62.667],[25.577,62.854],[25.442,63.046],[25.334,63.234],[25.255,63.418],[25.163,63.605],[25.0,63.797],[24.755,63.985],[24.469,64.167],[24.188,64.354],[23.941,64.551],[23.746,64.746],[23.6,64.936],[23.481,65.123],[23.38,65.308],[23.297,65.491],[23.232,65.672],[23.189,65.85],[23.174,66.026],[23.215,66.197],[23.304,66.363],[23.415,66.527],[23.539,66.69],[23.663,66.853],[23.825,67.012],[24.038,67.167],[24.307,67.315],[24.606,67.461],[24.934,67.603],[25.291,67.742],[25.667,67.879],[26.059,68.014],[26.452,68.148],[26.836,68.283],[27.185,68.421],[27.492,68.565],[27.769,68.712],[28.03,68.861],[28.339,69.004],[28.737,69.136],[29.214,69.258],[29.691,69.379],[30.13,69.505],[30.53,69.635],[30.926,69.758],[31.397,69.852],[31.955,69.918],[32.554,69.984],[33.146,70.067],[33.711,70.165],[34.244,70.272],[34.764,70.38],[35.294,70.486],[35.823,70.591],[36.361,70.694],[36.899,70.797],[37.441,70.898],[37.984,70.999],[38.53,71.098],[39.074,71.197],[39.617,71.295],[40.159,71.394],[40.697,71.492],[41.233,71.591],[41.784,71.686],[42.363,71.775],[43.001,71.851],[43.687,71.916],[44.364,71.981],[44.921,72.071],[45.362,72.187],[45.783,72.307],[46.241,72.42],[46.736,72.524],[47.245,72.626],[47.68,72.744],[48.032,72.883],[48.348,73.031],[48.686,73.174],[49.051,73.312],[49.436,73.446],[49.848,73.575],[50.27,73.702],[50.706,73.826],[51.148,73.949],[51.596,74.072],[52.042,74.196],[52.479,74.323],[52.922,74.45],[53.373,74.576],[53.813,74.705],[54.252,74.836],[54.688,74.969],[55.127,75.102],[55.568,75.226],[56.044,75.336]]}}]}