{"type":"FeatureCollection","properties":{"chart":"ana","src":"Z__C_EDZW_20261008200005_tka01,ana_bwkman_dwdna_O_000000_000000_202610081800_WV12.png","valid_time":"2026-10-08T18:00:00+00:00"},"features":[{"type":"Feature","properties":{"kind":"cold","line":0,"px_len":476},"geometry":{"type":"LineString","coordinates":[[2.757,38.559],[2.946,38.562],[3.124,38.584],[3.305,38.612],[3.488,38.632],[3.67,38.654],[3.849,38.704],[4.024,38.787],[4.199,38.882],[4.376,38.966],[4.554,39.041],[4.733,39.11],[4.913,39.176],[5.094,39.241],[5.275,39.307],[5.457,39.367],[5.64,39.42],[5.824,39.466],[6.009,39.509],[6.174,39.584],[6.315,39.698],[6.442,39.846],[6.586,39.998],[6.749,40.15],[6.924,40.302],[7.102,40.454],[7.255,40.604],[7.376,40.754],[7.466,40.903],[7.541,41.052],[7.604,41.201],[7.662,41.349],[7.716,41.498],[7.77,41.646],[7.823,41.795],[7.867,41.944],[7.866,42.092],[7.808,42.239],[7.71,42.385],[7.607,42.531],[7.51,42.677],[7.415,42.824],[7.327,42.97],[7.242,43.117],[7.165,43.265],[7.112,43.413],[7.093,43.562],[7.097,43.692],[7.104,43.787]]}},{"type":"Feature","properties":{"kind":"warm","line":0,"px_len":351},"geometry":{"type":"LineString","coordinates":[[7.104,43.787],[7.103,43.94],[7.122,44.088],[7.174,44.24],[7.26,44.393],[7.366,44.546],[7.475,44.7],[7.571,44.853],[7.662,45.007],[7.78,45.157],[7.949,45.296],[8.155,45.402],[8.369,45.469],[8.585,45.51],[8.801,45.55],[9.017,45.596],[9.234,45.652],[9.452,45.718],[9.67,45.795],[9.889,45.882],[10.109,45.985],[10.321,46.1],[10.529,46.228],[10.738,46.349],[10.96,46.444],[11.184,46.498],[11.408,46.525],[11.632,46.547],[11.856,46.573],[12.081,46.61],[12.307,46.659],[12.536,46.724],[12.766,46.801],[12.998,46.887],[13.227,46.978],[13.468,47.079]]}},{"type":"Feature","properties":{"kind":"cold","line":0,"px_len":756},"geometry":{"type":"LineString","coordinates":[[13.468,47.079],[13.711,47.191],[13.944,47.307],[14.179,47.435],[14.409,47.569],[14.645,47.71],[14.878,47.849],[15.12,47.981],[15.365,48.103],[15.588,48.217],[15.746,48.341],[15.842,48.483],[15.922,48.633],[16.013,48.782],[16.125,48.93],[16.258,49.076],[16.407,49.221],[16.559,49.366],[16.706,49.511],[16.851,49.656],[16.99,49.802],[17.128,49.948],[17.265,50.094],[17.417,50.239],[17.587,50.382],[17.776,50.523],[17.938,50.666],[18.039,50.816],[18.078,50.971],[18.114,51.127],[18.161,51.282],[18.216,51.436],[18.278,51.59],[18.345,51.744],[18.416,51.897],[18.485,52.051],[18.548,52.205],[18.606,52.36],[18.657,52.516],[18.702,52.673],[18.745,52.83],[18.787,52.987],[18.827,53.145],[18.864,53.303],[18.908,53.46],[18.964,53.617],[19.029,53.773],[19.104,53.928],[19.136,54.087],[19.105,54.253],[19.028,54.423],[18.955,54.593],[18.895,54.762],[18.843,54.931],[18.798,55.098],[18.751,55.266],[18.702,55.434],[18.646,55.603],[18.584,55.773],[18.515,55.943],[18.444,56.114],[18.39,56.283],[18.349,56.45],[18.317,56.618],[18.246,56.777],[18.086,56.909],[17.838,57.021],[17.565,57.136],[17.298,57.28],[17.039,57.445],[16.801,57.625],[16.587,57.804],[16.406,57.981],[16.288,58.153],[16.234,58.322],[16.22,58.466],[16.212,58.571]]}},{"type":"Feature","properties":{"kind":"warm","line":0,"px_len":787},"geometry":{"type":"LineString","coordinates":[[16.212,58.571],[16.197,58.741],[16.236,58.901],[16.334,59.06],[16.479,59.217],[16.635,59.373],[16.781,59.53],[16.912,59.688],[17.03,59.847],[17.148,60.005],[17.312,60.161],[17.57,60.307],[17.913,60.421],[18.275,60.494],[18.63,60.537],[18.986,60.578],[19.347,60.631],[19.713,60.692],[20.081,60.755],[20.45,60.811],[20.816,60.859],[21.181,60.899],[21.546,60.934],[21.909,60.964],[22.273,60.992],[22.639,61.022],[23.012,61.064],[23.394,61.118],[23.781,61.18],[24.168,61.235],[24.533,61.25],[24.874,61.218],[25.196,61.157],[25.516,61.092],[25.839,61.034],[26.164,60.981],[26.492,60.935],[26.822,60.891],[27.154,60.851],[27.483,60.808],[27.81,60.762],[28.132,60.71],[28.453,60.656],[28.772,60.602],[29.086,60.541],[29.398,60.478],[29.706,60.411],[30.013,60.343],[30.316,60.273],[30.613,60.195],[30.909,60.118],[31.207,60.044],[31.508,59.974],[31.813,59.911],[32.122,59.854],[32.434,59.8],[32.727,59.725],[32.986,59.611],[33.205,59.454],[33.411,59.284],[33.62,59.12],[33.837,58.967],[34.061,58.824],[34.291,58.69],[34.521,58.558],[34.744,58.421],[34.962,58.279],[35.173,58.132],[35.38,57.982],[35.58,57.827],[35.776,57.669],[35.968,57.509],[36.157,57.347],[36.344,57.185],[36.528,57.023],[36.71,56.86],[36.892,56.698],[37.076,56.541],[37.256,56.417],[37.413,56.337]]}},{"type":"Feature","properties":{"kind":"warm","line":1,"px_len":785},"geometry":{"type":"LineString","coordinates":[[-46.678,38.219],[-46.574,38.341],[-46.475,38.458],[-46.378,38.58],[-46.283,38.704],[-46.192,38.83],[-46.109,38.961],[-46.034,39.096],[-45.966,39.235],[-45.897,39.374],[-45.797,39.497],[-45.659,39.6],[-45.495,39.688],[-45.332,39.778],[-45.176,39.871],[-45.025,39.967],[-44.883,40.068],[-44.743,40.171],[-44.605,40.275],[-44.464,40.377],[-44.323,40.479],[-44.179,40.58],[-44.034,40.681],[-43.887,40.781],[-43.739,40.88],[-43.589,40.978],[-43.438,41.076],[-43.284,41.173],[-43.129,41.269],[-42.973,41.364],[-42.816,41.459],[-42.658,41.554],[-42.504,41.651],[-42.359,41.754],[-42.219,41.859],[-42.086,41.969],[-41.958,42.083],[-41.833,42.198],[-41.695,42.306],[-41.521,42.393],[-41.308,42.456],[-41.078,42.509],[-40.85,42.563],[-40.638,42.626],[-40.439,42.698],[-40.251,42.776],[-40.067,42.856],[-39.884,42.937],[-39.699,43.018],[-39.514,43.098],[-39.328,43.177],[-39.142,43.257],[-38.954,43.335],[-38.766,43.414],[-38.578,43.492],[-38.388,43.57],[-38.198,43.647],[-38.007,43.724],[-37.817,43.801],[-37.633,43.882],[-37.455,43.968],[-37.288,44.061],[-37.125,44.157],[-36.967,44.257],[-36.813,44.36],[-36.662,44.465],[-36.483,44.552],[-36.265,44.611],[-36.022,44.653],[-35.782,44.696],[-35.552,44.747],[-35.336,44.807],[-35.131,44.875],[-34.936,44.949],[-34.745,45.027],[-34.555,45.106],[-34.365,45.186],[-34.176,45.266],[-34.018,45.332],[-33.909,45.376]]}},{"type":"Feature","properties":{"kind":"cold","line":1,"px_len":1182},"geometry":{"type":"LineString","coordinates":[[-33.909,45.376],[-33.723,45.464],[-33.541,45.545],[-33.355,45.628],[-33.17,45.712],[-32.986,45.797],[-32.803,45.883],[-32.621,45.97],[-32.437,46.056],[-32.248,46.138],[-32.054,46.216],[-31.851,46.288],[-31.643,46.356],[-31.45,46.436],[-31.286,46.538],[-31.141,46.658],[-30.996,46.777],[-30.844,46.891],[-30.682,46.997],[-30.512,47.099],[-30.339,47.197],[-30.17,47.299],[-30.0,47.401],[-29.828,47.502],[-29.657,47.604],[-29.484,47.706],[-29.315,47.81],[-29.142,47.912],[-28.971,48.016],[-28.798,48.119],[-28.623,48.221],[-28.451,48.325],[-28.276,48.428],[-28.101,48.532],[-27.925,48.635],[-27.749,48.738],[-27.572,48.841],[-27.393,48.944],[-27.215,49.047],[-27.034,49.149],[-26.85,49.248],[-26.66,49.342],[-26.461,49.429],[-26.254,49.509],[-26.041,49.585],[-25.849,49.679],[-25.684,49.799],[-25.538,49.936],[-25.385,50.069],[-25.223,50.195],[-25.054,50.314],[-24.878,50.428],[-24.698,50.538],[-24.517,50.649],[-24.336,50.76],[-24.155,50.872],[-23.974,50.985],[-23.791,51.096],[-23.609,51.21],[-23.427,51.325],[-23.246,51.44],[-23.063,51.556],[-22.882,51.673],[-22.701,51.792],[-22.519,51.91],[-22.336,52.029],[-22.151,52.147],[-21.966,52.266],[-21.775,52.379],[-21.578,52.488],[-21.37,52.586],[-21.159,52.681],[-20.941,52.771],[-20.719,52.856],[-20.522,52.97],[-20.354,53.113],[-20.199,53.273],[-20.031,53.42],[-19.852,53.556],[-19.664,53.685],[-19.469,53.807],[-19.273,53.929],[-19.075,54.05],[-18.876,54.172],[-18.677,54.295],[-18.479,54.419],[-18.278,54.543],[-18.078,54.668],[-17.877,54.795],[-17.678,54.923],[-17.476,55.051],[-17.271,55.177],[-17.058,55.295],[-16.837,55.405],[-16.605,55.504],[-16.369,55.599],[-16.146,55.706],[-15.967,55.857],[-15.822,56.043],[-15.674,56.23],[-15.508,56.402],[-15.326,56.569],[-15.136,56.731],[-14.943,56.892],[-14.749,57.053],[-14.551,57.212],[-14.351,57.371],[-14.148,57.529],[-13.941,57.684],[-13.727,57.832],[-13.499,57.965],[-13.259,58.085],[-13.009,58.195],[-12.756,58.302],[-12.501,58.409],[-12.246,58.517],[-11.993,58.631],[-11.746,58.748],[-11.566,58.837],[-11.47,58.886]]}},{"type":"Feature","properties":{"kind":"warm","line":1,"px_len":822},"geometry":{"type":"LineString","coordinates":[[-11.47,58.886],[-11.14,58.91],[-10.801,58.901],[-10.444,58.876],[-10.084,58.83],[-9.788,58.742],[-9.576,58.613],[-9.433,58.465],[-9.298,58.316],[-9.164,58.166],[-9.031,58.017],[-8.902,57.868],[-8.774,57.718],[-8.641,57.569],[-8.503,57.421],[-8.366,57.274],[-8.232,57.126],[-8.099,56.978],[-7.969,56.829],[-7.841,56.681],[-7.715,56.532],[-7.592,56.383],[-7.475,56.233],[-7.356,56.084],[-7.237,55.935],[-7.111,55.787],[-6.972,55.641],[-6.824,55.497],[-6.668,55.355],[-6.512,55.212],[-6.402,55.062],[-6.365,54.901],[-6.38,54.731],[-6.403,54.56],[-6.419,54.39],[-6.423,54.223],[-6.417,54.057],[-6.403,53.893],[-6.388,53.729],[-6.375,53.565],[-6.37,53.399],[-6.37,53.233],[-6.377,53.066],[-6.394,52.898],[-6.418,52.728],[-6.44,52.559],[-6.45,52.392],[-6.442,52.228],[-6.426,52.066],[-6.406,51.905],[-6.399,51.742],[-6.439,51.57],[-6.556,51.395],[-6.729,51.236],[-6.924,51.092],[-7.116,50.945],[-7.299,50.782],[-7.473,50.603],[-7.641,50.417],[-7.81,50.233],[-7.982,50.06],[-8.156,49.896],[-8.333,49.739],[-8.512,49.589],[-8.691,49.443],[-8.867,49.293],[-9.036,49.131],[-9.194,48.952],[-9.352,48.774],[-9.524,48.626],[-9.723,48.532],[-9.938,48.471],[-10.16,48.422],[-10.377,48.366],[-10.593,48.306],[-10.803,48.238],[-11.01,48.166],[-11.211,48.084],[-11.409,47.997],[-11.604,47.906],[-11.798,47.815],[-11.991,47.728],[-12.137,47.674],[-12.222,47.655]]}},{"type":"Feature","properties":{"kind":"stat","line":2,"px_len":119},"geometry":{"type":"LineString","coordinates":[[-11.483,59.042],[-11.564,59.206],[-11.648,59.362],[-11.735,59.522],[-11.835,59.679],[-11.947,59.834],[-12.068,59.988],[-12.199,60.14],[-12.338,60.291],[-12.49,60.439],[-12.644,60.587],[-12.791,60.727],[-12.919,60.855]]}},{"type":"Feature","properties":{"kind":"occl","line":2,"px_len":487},"geometry":{"type":"LineString","coordinates":[[-12.919,60.855],[-13.053,61.012],[-13.189,61.16],[-13.339,61.31],[-13.506,61.457],[-13.679,61.603],[-13.857,61.748],[-14.028,61.895],[-14.198,62.042],[-14.364,62.19],[-14.522,62.34],[-14.669,62.493],[-14.836,62.642],[-15.068,62.777],[-15.359,62.901],[-15.656,63.023],[-15.929,63.15],[-16.199,63.277],[-16.501,63.398],[-16.866,63.501],[-17.29,63.573],[-17.751,63.621],[-18.222,63.668],[-18.702,63.732],[-19.165,63.808],[-19.624,63.889],[-20.087,63.968],[-20.573,64.04],[-21.07,64.108],[-21.57,64.174],[-22.065,64.24],[-22.542,64.31],[-22.974,64.392],[-23.375,64.48],[-23.774,64.541],[-24.202,64.561],[-24.655,64.551],[-25.127,64.549],[-25.624,64.561],[-26.131,64.577],[-26.614,64.576],[-27.041,64.541],[-27.426,64.481],[-27.803,64.416],[-28.191,64.359],[-28.6,64.312],[-29.035,64.279],[-29.491,64.258],[-29.896,64.261],[-30.196,64.285]]}},{"type":"Feature","properties":{"kind":"occl","line":3,"px_len":1001},"geometry":{"type":"LineString","coordinates":[[68.334,57.408],[68.142,57.541],[67.967,57.67],[67.79,57.804],[67.626,57.943],[67.475,58.086],[67.332,58.232],[67.199,58.382],[67.087,58.539],[66.999,58.705],[66.92,58.873],[66.821,59.036],[66.688,59.188],[66.535,59.333],[66.383,59.48],[66.249,59.633],[66.113,59.785],[65.95,59.929],[65.746,60.06],[65.536,60.189],[65.336,60.321],[65.152,60.46],[64.976,60.601],[64.811,60.747],[64.66,60.898],[64.519,61.053],[64.382,61.209],[64.243,61.366],[64.107,61.524],[63.983,61.686],[63.87,61.853],[63.759,62.021],[63.648,62.189],[63.534,62.357],[63.42,62.525],[63.313,62.696],[63.231,62.876],[63.178,63.066],[63.141,63.262],[63.12,63.463],[63.109,63.668],[63.12,63.88],[63.156,64.101],[63.233,64.323],[63.353,64.534],[63.513,64.727],[63.623,64.908],[63.635,65.088],[63.572,65.274],[63.522,65.467],[63.501,65.67],[63.495,65.878],[63.456,66.076],[63.333,66.249],[63.146,66.405],[62.936,66.554],[62.729,66.705],[62.528,66.858],[62.345,67.017],[62.176,67.181],[62.018,67.348],[61.858,67.516],[61.687,67.681],[61.505,67.844],[61.313,68.004],[61.11,68.162],[60.901,68.318],[60.681,68.473],[60.449,68.624],[60.21,68.774],[59.974,68.926],[59.746,69.08],[59.528,69.239],[59.322,69.402],[59.128,69.569],[58.892,69.725],[58.606,69.866],[58.277,69.996],[57.944,70.125],[57.607,70.253],[57.271,70.383],[56.889,70.499],[56.441,70.596],[55.928,70.672],[55.412,70.747],[54.911,70.828],[54.428,70.913],[53.957,71.003],[53.502,71.098],[53.05,71.195],[52.596,71.292],[52.134,71.386],[51.666,71.479],[51.195,71.572],[50.721,71.663],[50.244,71.754],[49.763,71.844],[49.28,71.935],[48.797,72.025],[48.314,72.11],[47.784,72.19]]}},{"type":"Feature","properties":{"kind":"cold","line":4,"px_len":590},"geometry":{"type":"LineString","coordinates":[[9.418,68.415],[9.895,68.488],[10.355,68.578],[10.83,68.673],[11.309,68.763],[11.791,68.849],[12.277,68.925],[12.764,68.985],[13.25,69.028],[13.737,69.058],[14.222,69.084],[14.682,69.146],[15.121,69.26],[15.554,69.404],[16.013,69.537],[16.51,69.662],[17.043,69.782],[17.594,69.901],[18.151,70.017],[18.716,70.134],[19.29,70.253],[19.878,70.382],[20.477,70.516],[21.077,70.652],[21.677,70.786],[22.285,70.918],[22.911,71.04],[23.535,71.141],[24.146,71.215],[24.685,71.293],[25.102,71.404],[25.409,71.551],[25.711,71.703],[26.054,71.852],[26.458,71.994],[26.908,72.132],[27.374,72.268],[27.833,72.405],[28.274,72.543],[28.709,72.681],[29.134,72.82],[29.556,72.96],[29.973,73.099],[30.397,73.238],[30.844,73.375],[31.339,73.505],[31.868,73.632],[32.421,73.755],[32.86,73.892],[33.169,74.044],[33.401,74.206],[33.663,74.365],[33.957,74.52],[34.272,74.673],[34.616,74.823],[34.965,74.973],[35.319,75.122],[35.668,75.273],[36.007,75.417],[36.332,75.559]]}},{"type":"Feature","properties":{"kind":"warm","line":4,"px_len":159},"geometry":{"type":"LineString","coordinates":[[36.332,75.559],[36.659,75.718],[36.979,75.87],[37.313,76.024],[37.636,76.181],[37.937,76.341],[38.212,76.505],[38.459,76.673],[38.679,76.845],[38.874,77.021],[39.071,77.197],[39.345,77.364],[39.747,77.516],[40.241,77.656],[40.758,77.795],[41.402,77.901],[42.16,77.962]]}},{"type":"Feature","properties":{"kind":"warm","line":5,"px_len":519},"geometry":{"type":"LineString","coordinates":[[-61.913,42.552],[-61.88,42.704],[-61.856,42.852],[-61.831,43.003],[-61.797,43.152],[-61.755,43.299],[-61.705,43.445],[-61.648,43.589],[-61.581,43.731],[-61.504,43.87],[-61.427,44.01],[-61.382,44.157],[-61.392,44.319],[-61.446,44.492],[-61.508,44.667],[-61.555,44.838],[-61.588,45.006],[-61.604,45.17],[-61.61,45.332],[-61.612,45.493],[-61.62,45.655],[-61.638,45.82],[-61.665,45.987],[-61.707,46.158],[-61.762,46.333],[-61.833,46.511],[-61.906,46.689],[-61.971,46.866],[-62.02,47.039],[-62.053,47.208],[-62.097,47.38],[-62.185,47.552],[-62.33,47.704],[-62.512,47.821],[-62.711,47.909],[-62.914,47.991],[-63.118,48.072],[-63.319,48.159],[-63.52,48.251],[-63.722,48.341],[-63.928,48.424],[-64.138,48.499],[-64.354,48.562],[-64.574,48.618],[-64.794,48.672],[-65.015,48.728],[-65.237,48.782],[-65.458,48.836],[-65.681,48.89],[-65.903,48.946],[-66.105,48.959],[-66.264,48.906],[-66.376,48.798]]}},{"type":"Feature","properties":{"kind":"cold","line":5,"px_len":260},"geometry":{"type":"LineString","coordinates":[[-66.376,48.798],[-66.484,48.652],[-66.579,48.512],[-66.664,48.366],[-66.737,48.219],[-66.805,48.071],[-66.868,47.922],[-66.925,47.772],[-66.979,47.623],[-67.025,47.472],[-67.069,47.321],[-67.105,47.168],[-67.163,47.02],[-67.248,46.876],[-67.357,46.736],[-67.457,46.595],[-67.547,46.453],[-67.627,46.309],[-67.701,46.164],[-67.773,46.019],[-67.845,45.874],[-67.917,45.729],[-67.988,45.585],[-68.059,45.44],[-68.131,45.296],[-68.196,45.157],[-68.253,45.02]]}},{"type":"Feature","properties":{"kind":"occl","line":6,"px_len":161},"geometry":{"type":"LineString","coordinates":[[-66.149,49.129],[-66.131,49.29],[-66.095,49.442],[-66.05,49.595],[-66.001,49.748],[-65.968,49.904],[-65.949,50.063],[-65.934,50.222],[-65.909,50.38],[-65.87,50.536],[-65.818,50.69],[-65.759,50.842],[-65.711,50.997],[-65.687,51.156],[-65.694,51.32],[-65.733,51.487],[-65.801,51.665]]}}]}