{"type":"FeatureCollection","properties":{"chart":"ana","src":"Z__C_EDZW_20261005141601_tka01,ana_bwkman_dwdna_O_000000_000000_202610051200_WV12.png","valid_time":"2026-10-05T12:00:00+00:00"},"features":[{"type":"Feature","properties":{"kind":"cold","line":0,"px_len":554},"geometry":{"type":"LineString","coordinates":[[-39.872,42.597],[-39.67,42.652],[-39.49,42.727],[-39.311,42.809],[-39.129,42.89],[-38.946,42.971],[-38.762,43.051],[-38.575,43.128],[-38.379,43.2],[-38.172,43.265],[-37.951,43.32],[-37.714,43.364],[-37.47,43.404],[-37.259,43.465],[-37.083,43.55],[-36.925,43.648],[-36.758,43.739],[-36.585,43.828],[-36.401,43.908],[-36.208,43.982],[-36.006,44.05],[-35.801,44.116],[-35.597,44.182],[-35.392,44.248],[-35.187,44.314],[-34.981,44.379],[-34.776,44.444],[-34.571,44.51],[-34.366,44.575],[-34.158,44.638],[-33.944,44.697],[-33.719,44.747],[-33.481,44.788],[-33.231,44.819],[-33.004,44.867],[-32.811,44.941],[-32.645,45.037],[-32.477,45.131],[-32.302,45.221],[-32.122,45.306],[-31.932,45.384],[-31.74,45.46],[-31.545,45.535],[-31.351,45.61],[-31.158,45.686],[-30.965,45.763],[-30.776,45.842],[-30.587,45.922],[-30.398,46.003],[-30.211,46.086],[-30.028,46.171],[-29.846,46.259],[-29.664,46.345],[-29.48,46.431],[-29.298,46.519],[-29.154,46.591],[-29.066,46.639]]}},{"type":"Feature","properties":{"kind":"warm","line":0,"px_len":329},"geometry":{"type":"LineString","coordinates":[[-29.066,46.639],[-28.879,46.728],[-28.708,46.822],[-28.536,46.92],[-28.368,47.023],[-28.195,47.122],[-28.024,47.222],[-27.853,47.324],[-27.684,47.428],[-27.515,47.531],[-27.346,47.636],[-27.177,47.741],[-27.01,47.849],[-26.849,47.963],[-26.695,48.084],[-26.55,48.213],[-26.412,48.35],[-26.281,48.495],[-26.15,48.64],[-25.992,48.761],[-25.802,48.853],[-25.592,48.927],[-25.385,49.003],[-25.184,49.086],[-24.988,49.174],[-24.797,49.268],[-24.611,49.367],[-24.43,49.471],[-24.249,49.577],[-24.068,49.682],[-23.884,49.786],[-23.7,49.889],[-23.523,49.985],[-23.359,50.068]]}},{"type":"Feature","properties":{"kind":"cold","line":0,"px_len":1465},"geometry":{"type":"LineString","coordinates":[[-23.359,50.068],[-23.167,50.173],[-22.979,50.27],[-22.785,50.367],[-22.589,50.463],[-22.392,50.559],[-22.193,50.654],[-21.993,50.748],[-21.788,50.837],[-21.578,50.923],[-21.364,51.003],[-21.143,51.078],[-20.913,51.144],[-20.678,51.204],[-20.458,51.281],[-20.261,51.383],[-20.078,51.502],[-19.889,51.615],[-19.692,51.721],[-19.485,51.816],[-19.272,51.905],[-19.056,51.992],[-18.838,52.077],[-18.618,52.16],[-18.397,52.245],[-18.175,52.327],[-17.952,52.409],[-17.729,52.493],[-17.505,52.574],[-17.279,52.656],[-17.052,52.737],[-16.825,52.818],[-16.597,52.899],[-16.368,52.979],[-16.138,53.059],[-15.903,53.133],[-15.664,53.204],[-15.419,53.267],[-15.169,53.324],[-14.91,53.371],[-14.658,53.425],[-14.427,53.509],[-14.215,53.62],[-14.003,53.733],[-13.783,53.835],[-13.554,53.928],[-13.321,54.015],[-13.084,54.098],[-12.844,54.178],[-12.604,54.259],[-12.363,54.34],[-12.122,54.421],[-11.881,54.504],[-11.637,54.585],[-11.394,54.667],[-11.15,54.749],[-10.906,54.832],[-10.661,54.915],[-10.416,55.0],[-10.17,55.085],[-9.923,55.17],[-9.674,55.251],[-9.42,55.329],[-9.162,55.399],[-8.901,55.465],[-8.634,55.522],[-8.363,55.575],[-8.106,55.651],[-7.867,55.762],[-7.64,55.897],[-7.406,56.024],[-7.165,56.141],[-6.918,56.248],[-6.666,56.349],[-6.412,56.446],[-6.155,56.542],[-5.898,56.64],[-5.639,56.738],[-5.38,56.836],[-5.117,56.931],[-4.854,57.027],[-4.588,57.121],[-4.321,57.214],[-4.051,57.305],[-3.779,57.394],[-3.505,57.48],[-3.229,57.565],[-2.95,57.647],[-2.667,57.721],[-2.38,57.787],[-2.088,57.842],[-1.793,57.891],[-1.495,57.936],[-1.201,57.992],[-0.92,58.087],[-0.649,58.218],[-0.377,58.352],[-0.098,58.471],[0.187,58.577],[0.477,58.674],[0.769,58.769],[1.061,58.867],[1.356,58.965],[1.652,59.064],[1.952,59.155],[2.256,59.233],[2.566,59.297],[2.878,59.355],[3.17,59.432],[3.407,59.554],[3.609,59.718],[3.826,59.895],[4.089,60.074],[4.38,60.25],[4.674,60.423],[4.964,60.595],[5.249,60.77],[5.524,60.946],[5.8,61.121],[6.081,61.291],[6.381,61.448],[6.696,61.589],[7.016,61.722],[7.256,61.866],[7.398,62.026],[7.476,62.194],[7.575,62.363],[7.705,62.532],[7.875,62.702],[8.08,62.871],[8.326,63.041],[8.618,63.209],[8.951,63.368],[9.309,63.51],[9.639,63.645],[9.861,63.789],[9.973,63.952],[10.057,64.12],[10.159,64.288],[10.277,64.456],[10.389,64.624],[10.475,64.792],[10.512,64.96],[10.52,65.129],[10.509,65.298],[10.502,65.468],[10.493,65.609],[10.491,65.705]]}},{"type":"Feature","properties":{"kind":"warm","line":0,"px_len":575},"geometry":{"type":"LineString","coordinates":[[10.491,65.705],[10.476,65.878],[10.469,66.044],[10.575,66.213],[10.826,66.378],[11.221,66.5],[11.641,66.553],[12.067,66.544],[12.492,66.521],[12.915,66.495],[13.337,66.469],[13.759,66.445],[14.18,66.421],[14.6,66.391],[15.016,66.354],[15.429,66.303],[15.837,66.243],[16.243,66.181],[16.648,66.124],[17.054,66.075],[17.46,66.028],[17.866,65.985],[18.268,65.933],[18.653,65.844],[18.99,65.704],[19.269,65.528],[19.516,65.34],[19.789,65.148],[20.097,64.961],[20.419,64.776],[20.728,64.588],[21.004,64.394],[21.237,64.201],[21.434,64.011],[21.628,63.82],[21.839,63.629],[22.074,63.443],[22.303,63.26],[22.49,63.079],[22.567,62.9],[22.542,62.731],[22.469,62.567],[22.408,62.402],[22.365,62.235],[22.33,62.068],[22.317,61.898],[22.325,61.726],[22.35,61.552],[22.377,61.379],[22.403,61.205],[22.429,61.032],[22.458,60.858],[22.488,60.684],[22.524,60.51],[22.566,60.335],[22.614,60.159],[22.663,59.984],[22.676,59.841],[22.654,59.747]]}},{"type":"Feature","properties":{"kind":"occl","line":1,"px_len":1147},"geometry":{"type":"LineString","coordinates":[[24.889,55.276],[24.966,55.435],[25.083,55.581],[25.222,55.727],[25.364,55.872],[25.508,56.018],[25.656,56.163],[25.805,56.308],[25.956,56.452],[26.108,56.597],[26.259,56.742],[26.41,56.887],[26.556,57.033],[26.701,57.179],[26.843,57.326],[26.983,57.473],[27.118,57.622],[27.244,57.772],[27.364,57.923],[27.471,58.077],[27.57,58.232],[27.667,58.388],[27.765,58.544],[27.856,58.701],[27.956,58.857],[28.065,59.012],[28.192,59.164],[28.33,59.314],[28.477,59.462],[28.591,59.617],[28.662,59.779],[28.717,59.945],[28.786,60.108],[28.863,60.27],[28.928,60.434],[28.953,60.606],[28.914,60.788],[28.835,60.978],[28.743,61.17],[28.671,61.358],[28.621,61.542],[28.593,61.723],[28.582,61.902],[28.576,62.079],[28.568,62.257],[28.554,62.436],[28.536,62.616],[28.502,62.799],[28.446,62.985],[28.355,63.176],[28.237,63.372],[28.153,63.562],[28.122,63.744],[28.117,63.922],[28.075,64.106],[28.007,64.293],[27.917,64.484],[27.817,64.676],[27.709,64.869],[27.597,65.062],[27.48,65.256],[27.374,65.449],[27.295,65.637],[27.257,65.82],[27.257,65.998],[27.279,66.173],[27.25,66.355],[27.144,66.547],[26.981,66.746],[26.846,66.941],[26.756,67.13],[26.668,67.319],[26.525,67.513],[26.282,67.701],[25.966,67.879],[25.629,68.055],[25.309,68.245],[25.021,68.445],[24.757,68.649],[24.485,68.853],[24.186,69.059],[23.854,69.261],[23.491,69.454],[23.111,69.632],[22.715,69.797],[22.306,69.949],[21.884,70.092],[21.452,70.227],[21.009,70.354],[20.558,70.475],[20.101,70.595],[19.643,70.723],[19.184,70.857],[18.725,71.006],[18.264,71.163],[17.78,71.288],[17.273,71.372],[16.75,71.427],[16.226,71.486],[15.702,71.553],[15.177,71.627],[14.641,71.676],[14.092,71.685],[13.534,71.66],[12.979,71.631],[12.425,71.605],[11.875,71.583],[11.326,71.563],[10.778,71.538],[10.231,71.503],[9.686,71.459],[9.144,71.41],[8.605,71.358],[8.069,71.308],[7.589,71.276],[7.211,71.27]]}},{"type":"Feature","properties":{"kind":"warm","line":2,"px_len":436},"geometry":{"type":"LineString","coordinates":[[-58.217,42.421],[-58.337,42.574],[-58.457,42.731],[-58.571,42.905],[-58.686,43.081],[-58.819,43.235],[-58.979,43.346],[-59.159,43.422],[-59.345,43.488],[-59.528,43.559],[-59.711,43.632],[-59.892,43.708],[-60.072,43.788],[-60.252,43.87],[-60.432,43.951],[-60.614,44.032],[-60.796,44.111],[-60.98,44.189],[-61.163,44.269],[-61.345,44.353],[-61.526,44.439],[-61.707,44.527],[-61.888,44.617],[-62.071,44.703],[-62.271,44.755],[-62.491,44.762],[-62.725,44.739],[-62.962,44.708],[-63.197,44.681],[-63.428,44.659],[-63.659,44.638],[-63.893,44.608],[-64.134,44.56],[-64.385,44.485],[-64.633,44.389],[-64.859,44.278],[-65.065,44.163],[-65.27,44.048],[-65.49,43.938],[-65.722,43.833],[-65.941,43.725],[-66.108,43.603],[-66.201,43.466],[-66.232,43.338],[-66.236,43.241]]}},{"type":"Feature","properties":{"kind":"occl","line":3,"px_len":872},"geometry":{"type":"LineString","coordinates":[[59.082,53.652],[58.941,53.796],[58.813,53.937],[58.692,54.088],[58.579,54.242],[58.473,54.401],[58.373,54.564],[58.284,54.732],[58.204,54.906],[58.134,55.085],[58.065,55.265],[57.987,55.441],[57.892,55.61],[57.787,55.774],[57.699,55.946],[57.664,56.136],[57.706,56.328],[57.811,56.504],[57.942,56.668],[58.069,56.835],[58.18,57.013],[58.298,57.187],[58.457,57.337],[58.66,57.46],[58.873,57.578],[59.082,57.698],[59.283,57.825],[59.475,57.958],[59.662,58.094],[59.853,58.23],[60.05,58.362],[60.25,58.493],[60.454,58.622],[60.661,58.751],[60.876,58.875],[61.095,58.997],[61.322,59.115],[61.556,59.229],[61.8,59.337],[62.052,59.441],[62.311,59.54],[62.576,59.636],[62.847,59.73],[63.128,59.816],[63.413,59.9],[63.707,59.978],[64.006,60.054],[64.314,60.123],[64.634,60.184],[64.968,60.235],[65.318,60.274],[65.687,60.299],[66.073,60.31],[66.467,60.314],[66.832,60.34],[67.166,60.389],[67.494,60.442],[67.839,60.483],[68.199,60.51],[68.555,60.54],[68.888,60.59],[69.196,60.66],[69.502,60.732],[69.816,60.799],[70.136,60.859],[70.466,60.912],[70.809,60.955],[71.164,60.985],[71.525,61.01],[71.889,61.032],[72.254,61.051],[72.622,61.068],[72.995,61.079],[73.378,61.079],[73.777,61.062],[74.194,61.024],[74.625,60.962],[75.045,60.9],[75.434,60.869],[75.803,60.871],[76.175,60.87],[76.56,60.854],[76.957,60.821],[77.362,60.769],[77.747,60.704],[78.131,60.623],[78.504,60.553],[78.778,60.516],[78.915,60.514]]}},{"type":"Feature","properties":{"kind":"warm","line":4,"px_len":138},"geometry":{"type":"LineString","coordinates":[[-61.017,53.244],[-61.263,53.318],[-61.505,53.377],[-61.757,53.433],[-62.007,53.491],[-62.252,53.559],[-62.494,53.635],[-62.732,53.719],[-62.967,53.81],[-63.2,53.906],[-63.435,54.001],[-63.685,54.071],[-63.946,54.119],[-64.188,54.16],[-64.387,54.206]]}},{"type":"Feature","properties":{"kind":"occl","line":5,"px_len":1259},"geometry":{"type":"LineString","coordinates":[[40.483,54.121],[40.41,54.307],[40.372,54.497],[40.34,54.696],[40.309,54.894],[40.284,55.09],[40.28,55.279],[40.304,55.459],[40.358,55.63],[40.431,55.794],[40.476,55.967],[40.466,56.16],[40.417,56.366],[40.386,56.566],[40.382,56.756],[40.379,56.947],[40.335,57.148],[40.229,57.347],[40.086,57.537],[39.94,57.726],[39.82,57.93],[39.735,58.139],[39.683,58.345],[39.645,58.546],[39.61,58.747],[39.577,58.947],[39.547,59.146],[39.52,59.345],[39.49,59.544],[39.459,59.744],[39.426,59.944],[39.39,60.145],[39.365,60.343],[39.365,60.535],[39.403,60.715],[39.471,60.888],[39.548,61.058],[39.561,61.247],[39.51,61.453],[39.434,61.666],[39.396,61.869],[39.387,62.064],[39.363,62.263],[39.278,62.468],[39.122,62.668],[38.94,62.86],[38.77,63.064],[38.634,63.28],[38.54,63.496],[38.479,63.703],[38.437,63.905],[38.401,64.106],[38.372,64.306],[38.343,64.505],[38.319,64.704],[38.3,64.901],[38.287,65.097],[38.279,65.292],[38.278,65.485],[38.293,65.675],[38.331,65.86],[38.402,66.037],[38.505,66.208],[38.632,66.374],[38.775,66.537],[38.924,66.699],[39.032,66.87],[39.106,67.049],[39.176,67.23],[39.288,67.401],[39.418,67.569],[39.535,67.741],[39.603,67.923],[39.619,68.117],[39.614,68.316],[39.629,68.51],[39.683,68.697],[39.78,68.875],[39.905,69.047],[40.063,69.213],[40.241,69.375],[40.434,69.534],[40.639,69.692],[40.85,69.848],[41.072,70.003],[41.304,70.156],[41.545,70.308],[41.788,70.46],[42.016,70.616],[42.238,70.774],[42.432,70.938],[42.609,71.106],[42.758,71.281],[42.9,71.457],[43.087,71.625],[43.329,71.782],[43.625,71.929],[43.929,72.074],[44.233,72.22],[44.541,72.365],[44.886,72.504],[45.296,72.629],[45.75,72.744],[46.204,72.861],[46.637,72.982],[47.063,73.105],[47.476,73.232],[47.894,73.358],[48.325,73.482],[48.783,73.6],[49.277,73.71],[49.809,73.812],[50.393,73.902],[50.997,73.986],[51.608,74.069],[52.191,74.159],[52.755,74.253],[53.307,74.351],[53.885,74.443],[54.527,74.517],[55.215,74.579],[55.903,74.64],[56.554,74.691],[57.204,74.69],[57.864,74.634],[58.489,74.561],[59.043,74.492]]}}]}