{"type":"FeatureCollection","properties":{"chart":"ana","src":"Z__C_EDZW_20261004140019_tka01,ana_bwkman_dwdna_O_000000_000000_202610041200_WV12.png","valid_time":"2026-10-04T12:00:00+00:00"},"features":[{"type":"Feature","properties":{"kind":"occl","line":0,"px_len":331},"geometry":{"type":"LineString","coordinates":[[-7.881,69.134],[-7.462,69.246],[-7.056,69.351],[-6.636,69.458],[-6.213,69.564],[-5.784,69.669],[-5.353,69.774],[-4.921,69.884],[-4.487,69.996],[-4.05,70.111],[-3.604,70.218],[-3.138,70.301],[-2.64,70.341],[-2.12,70.344],[-1.595,70.338],[-1.072,70.334],[-0.552,70.332],[-0.034,70.333],[0.475,70.295],[0.98,70.204],[1.499,70.066],[2.036,69.928],[2.586,69.797],[3.129,69.666],[3.649,69.525],[4.12,69.373],[4.537,69.214],[4.898,69.052],[5.215,68.889],[5.483,68.725],[5.721,68.559],[5.923,68.392],[6.096,68.229],[6.263,68.057]]}},{"type":"Feature","properties":{"kind":"cold","line":0,"px_len":683},"geometry":{"type":"LineString","coordinates":[[6.263,68.057],[6.386,67.885],[6.494,67.72],[6.59,67.551],[6.655,67.382],[6.692,67.212],[6.699,67.041],[6.684,66.871],[6.636,66.7],[6.564,66.528],[6.471,66.356],[6.361,66.184],[6.229,66.011],[6.079,65.838],[5.91,65.664],[5.732,65.49],[5.566,65.315],[5.435,65.142],[5.336,64.97],[5.259,64.798],[5.114,64.64],[4.857,64.505],[4.505,64.38],[4.144,64.241],[3.792,64.078],[3.459,63.9],[3.135,63.715],[2.814,63.53],[2.486,63.344],[2.161,63.161],[1.84,62.981],[1.52,62.809],[1.206,62.632],[0.904,62.451],[0.639,62.263],[0.422,62.079],[0.195,61.924],[-0.082,61.814],[-0.411,61.743],[-0.742,61.671],[-1.067,61.589],[-1.384,61.492],[-1.695,61.384],[-2.001,61.272],[-2.308,61.164],[-2.614,61.059],[-2.919,60.958],[-3.225,60.861],[-3.53,60.767],[-3.835,60.677],[-4.141,60.591],[-4.447,60.507],[-4.753,60.428],[-5.06,60.352],[-5.365,60.276],[-5.668,60.197],[-5.966,60.112],[-6.259,60.02],[-6.546,59.921],[-6.841,59.838],[-7.154,59.788],[-7.483,59.765],[-7.811,59.741],[-8.135,59.71],[-8.453,59.669],[-8.766,59.622],[-9.077,59.573],[-9.388,59.526],[-9.626,59.491],[-9.763,59.468]]}},{"type":"Feature","properties":{"kind":"warm","line":0,"px_len":602},"geometry":{"type":"LineString","coordinates":[[-9.763,59.468],[-10.088,59.429],[-10.402,59.398],[-10.731,59.376],[-11.069,59.366],[-11.418,59.37],[-11.78,59.39],[-12.155,59.426],[-12.533,59.462],[-12.889,59.468],[-13.22,59.444],[-13.538,59.403],[-13.858,59.365],[-14.184,59.334],[-14.518,59.312],[-14.862,59.301],[-15.221,59.306],[-15.591,59.322],[-15.971,59.345],[-16.353,59.371],[-16.739,59.398],[-17.127,59.424],[-17.52,59.454],[-17.923,59.492],[-18.344,59.545],[-18.763,59.612],[-19.183,59.683],[-19.588,59.735],[-19.969,59.741],[-20.308,59.707],[-20.62,59.65],[-20.933,59.594],[-21.251,59.542],[-21.58,59.5],[-21.922,59.468],[-22.278,59.448],[-22.643,59.434],[-23.011,59.421],[-23.378,59.407],[-23.741,59.389],[-24.1,59.367],[-24.46,59.345],[-24.828,59.328],[-25.208,59.32],[-25.606,59.323],[-26.003,59.324],[-26.373,59.304],[-26.679,59.239],[-26.94,59.143],[-27.184,59.035],[-27.432,58.931],[-27.686,58.832],[-27.943,58.736],[-28.208,58.645],[-28.478,58.559],[-28.75,58.474],[-29.016,58.386],[-29.272,58.291],[-29.517,58.19],[-29.739,58.077],[-29.891,57.988],[-29.966,57.937]]}},{"type":"Feature","properties":{"kind":"cold","line":0,"px_len":1607},"geometry":{"type":"LineString","coordinates":[[-29.966,57.937],[-30.167,57.804],[-30.336,57.661],[-30.489,57.505],[-30.623,57.337],[-30.738,57.158],[-30.83,56.967],[-30.89,56.769],[-30.91,56.568],[-30.889,56.371],[-30.835,56.185],[-30.827,56.013],[-30.897,55.851],[-31.031,55.692],[-31.151,55.522],[-31.242,55.334],[-31.306,55.129],[-31.35,54.912],[-31.381,54.686],[-31.402,54.463],[-31.425,54.242],[-31.457,54.025],[-31.509,53.816],[-31.574,53.616],[-31.649,53.424],[-31.729,53.236],[-31.811,53.05],[-31.897,52.867],[-31.986,52.688],[-32.079,52.511],[-32.176,52.339],[-32.28,52.172],[-32.389,52.009],[-32.504,51.851],[-32.626,51.698],[-32.747,51.546],[-32.867,51.393],[-32.976,51.234],[-33.077,51.069],[-33.196,50.918],[-33.356,50.795],[-33.556,50.7],[-33.757,50.607],[-33.947,50.506],[-34.13,50.401],[-34.308,50.293],[-34.489,50.187],[-34.671,50.083],[-34.856,49.98],[-35.036,49.875],[-35.221,49.773],[-35.406,49.672],[-35.592,49.572],[-35.779,49.472],[-35.966,49.373],[-36.152,49.274],[-36.339,49.175],[-36.524,49.076],[-36.709,48.977],[-36.895,48.879],[-37.082,48.782],[-37.267,48.684],[-37.453,48.586],[-37.639,48.489],[-37.825,48.392],[-38.011,48.296],[-38.198,48.2],[-38.385,48.104],[-38.573,48.01],[-38.761,47.915],[-38.949,47.821],[-39.138,47.727],[-39.327,47.634],[-39.517,47.541],[-39.708,47.449],[-39.899,47.358],[-40.093,47.268],[-40.287,47.179],[-40.481,47.089],[-40.676,47.0],[-40.871,46.911],[-41.068,46.823],[-41.258,46.732],[-41.441,46.637],[-41.612,46.536],[-41.778,46.431],[-41.936,46.323],[-42.107,46.222],[-42.322,46.145],[-42.579,46.091],[-42.838,46.038],[-43.078,45.974],[-43.301,45.901],[-43.513,45.821],[-43.717,45.738],[-43.922,45.655],[-44.124,45.571],[-44.326,45.487],[-44.526,45.401],[-44.724,45.315],[-44.923,45.229],[-45.12,45.142],[-45.317,45.055],[-45.513,44.967],[-45.709,44.88],[-45.905,44.793],[-46.102,44.705],[-46.299,44.618],[-46.497,44.532],[-46.695,44.445],[-46.895,44.36],[-47.097,44.275],[-47.302,44.192],[-47.509,44.109],[-47.719,44.028],[-47.93,43.947],[-48.148,43.869],[-48.367,43.792],[-48.59,43.715],[-48.803,43.635],[-49.0,43.547],[-49.176,43.45],[-49.341,43.348],[-49.504,43.249],[-49.692,43.187],[-49.914,43.162],[-50.162,43.148],[-50.426,43.115],[-50.691,43.062],[-50.948,42.997],[-51.197,42.929],[-51.449,42.862],[-51.703,42.795],[-51.959,42.728],[-52.217,42.662],[-52.479,42.597],[-52.745,42.533],[-53.016,42.47],[-53.287,42.406],[-53.558,42.342],[-53.827,42.277],[-54.094,42.213],[-54.359,42.151],[-54.619,42.092],[-54.878,42.035],[-55.134,41.98],[-55.389,41.925],[-55.642,41.871],[-55.895,41.816],[-56.149,41.754],[-56.395,41.678],[-56.618,41.591],[-56.814,41.495],[-57.002,41.419],[-57.193,41.387],[-57.395,41.397],[-57.602,41.406],[-57.818,41.402],[-58.043,41.38],[-58.274,41.344],[-58.483,41.31],[-58.642,41.29]]}},{"type":"Feature","properties":{"kind":"occl","line":1,"px_len":208},"geometry":{"type":"LineString","coordinates":[[62.015,55.011],[62.23,55.121],[62.426,55.234],[62.624,55.353],[62.825,55.471],[63.028,55.587],[63.232,55.703],[63.44,55.818],[63.649,55.932],[63.861,56.044],[64.075,56.157],[64.293,56.266],[64.513,56.375],[64.737,56.481],[64.966,56.584],[65.207,56.678],[65.461,56.763],[65.724,56.84],[65.973,56.93],[66.177,57.058],[66.33,57.205],[66.457,57.333]]}},{"type":"Feature","properties":{"kind":"occl","line":2,"px_len":1407},"geometry":{"type":"LineString","coordinates":[[17.043,54.419],[17.169,54.575],[17.34,54.72],[17.536,54.867],[17.739,55.013],[17.948,55.158],[18.159,55.303],[18.375,55.448],[18.596,55.592],[18.821,55.735],[19.051,55.877],[19.294,56.018],[19.56,56.157],[19.847,56.285],[20.154,56.397],[20.467,56.491],[20.741,56.595],[20.958,56.722],[21.15,56.865],[21.37,57.006],[21.627,57.143],[21.898,57.278],[22.127,57.417],[22.288,57.565],[22.407,57.719],[22.524,57.872],[22.651,58.024],[22.789,58.176],[22.948,58.324],[23.129,58.47],[23.318,58.615],[23.5,58.761],[23.675,58.907],[23.844,59.055],[24.007,59.203],[24.167,59.352],[24.323,59.502],[24.477,59.652],[24.626,59.803],[24.774,59.954],[24.919,60.105],[25.065,60.257],[25.205,60.409],[25.344,60.562],[25.482,60.715],[25.619,60.869],[25.757,61.022],[25.894,61.176],[26.03,61.33],[26.17,61.484],[26.325,61.635],[26.498,61.785],[26.691,61.931],[26.907,62.074],[27.146,62.214],[27.388,62.353],[27.592,62.498],[27.747,62.651],[27.884,62.806],[28.026,62.961],[28.198,63.112],[28.369,63.263],[28.489,63.422],[28.558,63.589],[28.619,63.757],[28.692,63.924],[28.783,64.088],[28.895,64.25],[29.025,64.408],[29.18,64.563],[29.327,64.72],[29.479,64.876],[29.63,65.033],[29.783,65.189],[29.927,65.347],[30.07,65.505],[30.223,65.662],[30.384,65.818],[30.547,65.974],[30.714,66.13],[30.882,66.286],[31.059,66.44],[31.232,66.596],[31.411,66.75],[31.588,66.906],[31.768,67.061],[31.939,67.218],[32.127,67.372],[32.336,67.523],[32.565,67.671],[32.812,67.817],[33.075,67.96],[33.348,68.101],[33.588,68.249],[33.794,68.402],[33.967,68.561],[34.142,68.72],[34.315,68.88],[34.484,69.041],[34.601,69.21],[34.632,69.395],[34.597,69.59],[34.55,69.787],[34.533,69.98],[34.544,70.168],[34.574,70.353],[34.613,70.537],[34.642,70.723],[34.662,70.91],[34.664,71.101],[34.648,71.294],[34.616,71.489],[34.568,71.687],[34.5,71.888],[34.398,72.093],[34.262,72.303],[34.105,72.516],[33.963,72.726],[33.87,72.928],[33.819,73.126],[33.69,73.312],[33.421,73.485],[33.022,73.654],[32.627,73.836],[32.265,74.035],[31.914,74.239],[31.53,74.428],[31.07,74.587],[30.56,74.72],[30.038,74.85],[29.532,74.995],[29.054,75.168],[28.611,75.365],[28.224,75.577],[27.897,75.788],[27.611,75.995],[27.342,76.2],[27.07,76.404],[26.787,76.608],[26.49,76.812],[26.309,76.989],[26.286,77.119]]}}]}