{"type":"FeatureCollection","properties":{"chart":"ana","src":"Z__C_EDZW_20261009074005_tka01,ana_bwkman_dwdna_O_000000_000000_202610090600_WV12.png","valid_time":"2026-10-09T06:00:00+00:00"},"features":[{"type":"Feature","properties":{"kind":"cold","line":0,"px_len":998},"geometry":{"type":"LineString","coordinates":[[-0.87,37.437],[-0.681,37.427],[-0.494,37.388],[-0.299,37.327],[-0.105,37.267],[0.082,37.238],[0.262,37.243],[0.44,37.259],[0.619,37.27],[0.799,37.275],[0.98,37.273],[1.162,37.265],[1.345,37.254],[1.527,37.244],[1.709,37.235],[1.89,37.227],[2.072,37.22],[2.252,37.216],[2.432,37.215],[2.612,37.216],[2.791,37.22],[2.971,37.221],[3.151,37.216],[3.333,37.204],[3.514,37.186],[3.694,37.187],[3.87,37.215],[4.043,37.268],[4.216,37.318],[4.391,37.362],[4.567,37.399],[4.744,37.432],[4.92,37.465],[5.097,37.498],[5.274,37.533],[5.451,37.569],[5.628,37.607],[5.806,37.645],[5.983,37.686],[6.161,37.725],[6.34,37.761],[6.519,37.788],[6.698,37.814],[6.878,37.833],[7.057,37.863],[7.224,37.929],[7.387,38.035],[7.554,38.153],[7.732,38.263],[7.911,38.362],[8.092,38.455],[8.273,38.549],[8.454,38.649],[8.637,38.754],[8.82,38.866],[9.004,38.982],[9.189,39.1],[9.375,39.21],[9.562,39.307],[9.75,39.386],[9.937,39.451],[10.093,39.531],[10.207,39.644],[10.291,39.785],[10.393,39.93],[10.519,40.074],[10.67,40.217],[10.833,40.36],[11.0,40.503],[11.165,40.646],[11.323,40.788],[11.476,40.931],[11.622,41.074],[11.763,41.217],[11.908,41.359],[12.068,41.5],[12.234,41.63],[12.396,41.75],[12.504,41.875],[12.564,42.015],[12.589,42.162],[12.624,42.309],[12.665,42.456],[12.715,42.603],[12.772,42.749],[12.829,42.896],[12.884,43.043],[12.932,43.19],[12.975,43.338],[13.011,43.486],[13.048,43.634],[13.09,43.782],[13.141,43.93],[13.157,44.08],[13.11,44.233],[13.002,44.389],[12.879,44.545],[12.749,44.701],[12.599,44.858],[12.438,44.994],[12.283,45.098]]}},{"type":"Feature","properties":{"kind":"occl","line":0,"px_len":307},"geometry":{"type":"LineString","coordinates":[[12.283,45.098],[12.07,45.199],[11.864,45.272],[11.652,45.323],[11.438,45.365],[11.224,45.406],[11.009,45.445],[10.794,45.473],[10.578,45.489],[10.361,45.493],[10.144,45.487],[9.928,45.479],[9.711,45.467],[9.495,45.452],[9.278,45.427],[9.063,45.395],[8.847,45.356],[8.632,45.315],[8.418,45.271],[8.204,45.228],[8.002,45.169],[7.841,45.071],[7.72,44.932],[7.613,44.779],[7.492,44.625],[7.366,44.471],[7.246,44.317],[7.171,44.164],[7.169,44.014],[7.224,43.865],[7.291,43.733],[7.34,43.629]]}},{"type":"Feature","properties":{"kind":"cold","line":1,"px_len":1150},"geometry":{"type":"LineString","coordinates":[[16.113,44.568],[16.326,44.543],[16.531,44.525],[16.743,44.517],[16.956,44.514],[17.168,44.51],[17.381,44.507],[17.594,44.504],[17.799,44.538],[17.995,44.618],[18.198,44.738],[18.421,44.855],[18.661,44.969],[18.904,45.079],[19.149,45.193],[19.394,45.314],[19.633,45.438],[19.861,45.563],[20.079,45.69],[20.289,45.817],[20.493,45.944],[20.692,46.072],[20.892,46.2],[21.101,46.326],[21.331,46.446],[21.576,46.552],[21.819,46.645],[22.009,46.75],[22.14,46.876],[22.237,47.019],[22.338,47.161],[22.453,47.3],[22.591,47.436],[22.742,47.571],[22.895,47.704],[23.042,47.839],[23.187,47.974],[23.33,48.11],[23.467,48.247],[23.604,48.383],[23.738,48.521],[23.868,48.659],[23.995,48.797],[24.119,48.937],[24.242,49.076],[24.364,49.216],[24.489,49.355],[24.619,49.494],[24.764,49.63],[24.922,49.764],[25.089,49.896],[25.223,50.035],[25.306,50.182],[25.349,50.338],[25.396,50.492],[25.452,50.645],[25.522,50.796],[25.599,50.946],[25.677,51.096],[25.747,51.247],[25.818,51.398],[25.89,51.55],[25.958,51.702],[26.021,51.856],[26.076,52.011],[26.132,52.166],[26.184,52.322],[26.231,52.479],[26.276,52.637],[26.316,52.796],[26.36,52.954],[26.409,53.112],[26.471,53.268],[26.542,53.422],[26.622,53.574],[26.706,53.726],[26.733,53.889],[26.703,54.062],[26.642,54.241],[26.605,54.416],[26.586,54.588],[26.579,54.757],[26.582,54.925],[26.587,55.093],[26.591,55.261],[26.592,55.43],[26.588,55.6],[26.583,55.77],[26.574,55.941],[26.558,56.114],[26.538,56.287],[26.524,56.459],[26.531,56.628],[26.553,56.795],[26.586,56.959],[26.585,57.124],[26.49,57.286],[26.301,57.451],[26.081,57.625],[25.866,57.814],[25.655,58.013],[25.439,58.208],[25.215,58.393],[24.98,58.564],[24.737,58.723],[24.485,58.87],[24.225,59.006],[23.96,59.136],[23.694,59.267],[23.429,59.406],[23.168,59.557],[22.909,59.717],[22.647,59.878],[22.383,60.04],[22.203,60.196],[22.149,60.348]]}},{"type":"Feature","properties":{"kind":"warm","line":1,"px_len":331},"geometry":{"type":"LineString","coordinates":[[22.149,60.348],[22.285,60.507],[22.405,60.66],[22.516,60.817],[22.615,60.977],[22.734,61.134],[22.913,61.284],[23.189,61.417],[23.535,61.509],[23.912,61.557],[24.287,61.581],[24.665,61.609],[25.05,61.645],[25.443,61.693],[25.842,61.746],[26.241,61.796],[26.639,61.84],[27.035,61.879],[27.431,61.915],[27.828,61.949],[28.225,61.98],[28.625,62.014],[29.035,62.057],[29.46,62.117],[29.879,62.19],[30.289,62.258],[30.686,62.303],[31.062,62.295],[31.408,62.248],[31.736,62.181],[32.068,62.12],[32.402,62.061],[32.727,62.002],[33.048,61.921]]}},{"type":"Feature","properties":{"kind":"warm","line":2,"px_len":758},"geometry":{"type":"LineString","coordinates":[[-43.425,42.328],[-43.318,42.458],[-43.204,42.576],[-43.088,42.698],[-42.977,42.823],[-42.855,42.942],[-42.699,43.042],[-42.496,43.116],[-42.273,43.177],[-42.051,43.24],[-41.839,43.308],[-41.639,43.383],[-41.446,43.461],[-41.256,43.542],[-41.065,43.622],[-40.871,43.7],[-40.674,43.777],[-40.473,43.851],[-40.271,43.924],[-40.068,43.997],[-39.874,44.075],[-39.688,44.159],[-39.513,44.249],[-39.344,44.343],[-39.18,44.441],[-39.008,44.533],[-38.805,44.607],[-38.561,44.647],[-38.29,44.661],[-38.011,44.67],[-37.735,44.689],[-37.467,44.718],[-37.214,44.756],[-36.967,44.799],[-36.722,44.841],[-36.471,44.88],[-36.218,44.916],[-35.96,44.949],[-35.703,44.981],[-35.452,45.018],[-35.214,45.063],[-34.993,45.121],[-34.786,45.187],[-34.58,45.256],[-34.357,45.311],[-34.097,45.337],[-33.827,45.326],[-33.561,45.294],[-33.298,45.259],[-33.015,45.24],[-32.73,45.239],[-32.457,45.252],[-32.194,45.272],[-31.935,45.295],[-31.679,45.319],[-31.425,45.345],[-31.172,45.371],[-30.922,45.399],[-30.678,45.431],[-30.442,45.471],[-30.222,45.522],[-30.011,45.582],[-29.811,45.651],[-29.614,45.723],[-29.412,45.79],[-29.184,45.835],[-28.917,45.846],[-28.626,45.835],[-28.336,45.823],[-28.064,45.826],[-27.807,45.842],[-27.564,45.871],[-27.331,45.908],[-27.102,45.95],[-26.876,45.993],[-26.668,46.034],[-26.494,46.069]]}},{"type":"Feature","properties":{"kind":"cold","line":2,"px_len":1182},"geometry":{"type":"LineString","coordinates":[[-26.494,46.069],[-26.268,46.119],[-26.052,46.166],[-25.833,46.215],[-25.615,46.266],[-25.397,46.318],[-25.179,46.368],[-24.957,46.415],[-24.729,46.456],[-24.492,46.487],[-24.246,46.509],[-24.001,46.532],[-23.78,46.58],[-23.588,46.657],[-23.402,46.741],[-23.211,46.821],[-23.012,46.893],[-22.811,46.963],[-22.602,47.025],[-22.392,47.085],[-22.179,47.143],[-21.967,47.202],[-21.755,47.26],[-21.544,47.32],[-21.333,47.381],[-21.123,47.443],[-20.912,47.504],[-20.702,47.567],[-20.492,47.63],[-20.283,47.694],[-20.074,47.759],[-19.867,47.826],[-19.658,47.891],[-19.452,47.961],[-19.243,48.028],[-19.036,48.097],[-18.829,48.166],[-18.619,48.232],[-18.404,48.292],[-18.182,48.344],[-17.956,48.392],[-17.735,48.445],[-17.534,48.525],[-17.351,48.628],[-17.171,48.737],[-16.984,48.838],[-16.792,48.933],[-16.594,49.021],[-16.393,49.106],[-16.192,49.192],[-15.99,49.278],[-15.789,49.365],[-15.587,49.451],[-15.385,49.539],[-15.183,49.628],[-14.981,49.718],[-14.779,49.809],[-14.577,49.901],[-14.375,49.993],[-14.173,50.087],[-13.97,50.181],[-13.768,50.276],[-13.565,50.372],[-13.363,50.47],[-13.16,50.57],[-12.957,50.669],[-12.751,50.765],[-12.54,50.855],[-12.322,50.934],[-12.1,51.01],[-11.875,51.08],[-11.652,51.155],[-11.449,51.264],[-11.266,51.406],[-11.089,51.563],[-10.904,51.707],[-10.711,51.84],[-10.511,51.965],[-10.309,52.087],[-10.107,52.211],[-9.904,52.336],[-9.701,52.463],[-9.498,52.592],[-9.295,52.723],[-9.091,52.856],[-8.886,52.99],[-8.681,53.125],[-8.475,53.262],[-8.269,53.4],[-8.058,53.533],[-7.841,53.657],[-7.615,53.766],[-7.381,53.863],[-7.142,53.951],[-6.939,54.058],[-6.789,54.202],[-6.672,54.381],[-6.523,54.57],[-6.339,54.759],[-6.136,54.938],[-5.928,55.112],[-5.717,55.284],[-5.506,55.46],[-5.295,55.641],[-5.084,55.826],[-4.873,56.017],[-4.666,56.212],[-4.463,56.407],[-4.255,56.594],[-4.031,56.771],[-3.794,56.93],[-3.548,57.072],[-3.322,57.219],[-3.129,57.384],[-2.96,57.569],[-2.763,57.759],[-2.536,57.941],[-2.289,58.108],[-2.104,58.219],[-2.003,58.279]]}},{"type":"Feature","properties":{"kind":"warm","line":2,"px_len":876},"geometry":{"type":"LineString","coordinates":[[-2.003,58.279],[-1.675,58.271],[-1.365,58.273],[-1.051,58.281],[-0.736,58.288],[-0.417,58.281],[-0.097,58.238],[0.182,58.144],[0.403,58.008],[0.575,57.857],[0.729,57.704],[0.882,57.551],[1.045,57.399],[1.215,57.248],[1.386,57.096],[1.553,56.944],[1.713,56.792],[1.866,56.639],[2.019,56.486],[2.179,56.334],[2.351,56.182],[2.531,56.031],[2.713,55.88],[2.865,55.727],[2.94,55.569],[2.947,55.407],[2.924,55.243],[2.913,55.08],[2.915,54.918],[2.926,54.757],[2.958,54.597],[2.994,54.437],[3.034,54.278],[3.065,54.119],[3.095,53.959],[3.122,53.8],[3.149,53.641],[3.18,53.482],[3.23,53.325],[3.285,53.168],[3.355,53.012],[3.422,52.856],[3.443,52.697],[3.381,52.533],[3.243,52.364],[3.077,52.194],[2.916,52.023],[2.775,51.853],[2.642,51.684],[2.501,51.515],[2.348,51.344],[2.181,51.172],[2.01,50.999],[1.85,50.827],[1.71,50.656],[1.592,50.488],[1.465,50.318],[1.299,50.158],[1.09,50.032],[0.863,49.949],[0.631,49.892],[0.399,49.836],[0.168,49.778],[-0.06,49.711],[-0.284,49.634],[-0.506,49.548],[-0.726,49.462],[-0.946,49.376],[-1.165,49.29],[-1.383,49.207],[-1.602,49.127],[-1.821,49.049],[-2.039,48.973],[-2.258,48.9],[-2.477,48.831],[-2.696,48.762],[-2.914,48.694],[-3.13,48.62],[-3.343,48.539],[-3.552,48.45],[-3.759,48.357],[-3.968,48.271],[-4.188,48.219],[-4.419,48.198],[-4.656,48.193],[-4.891,48.181],[-5.123,48.161],[-5.322,48.14],[-5.469,48.127]]}},{"type":"Feature","properties":{"kind":"stat","line":3,"px_len":74},"geometry":{"type":"LineString","coordinates":[[-2.108,58.385],[-2.253,58.54],[-2.389,58.69],[-2.529,58.842],[-2.671,58.995],[-2.806,59.148],[-2.938,59.302],[-3.036,59.426],[-3.092,59.504]]}},{"type":"Feature","properties":{"kind":"occl","line":3,"px_len":448},"geometry":{"type":"LineString","coordinates":[[-3.092,59.504],[-3.207,59.664],[-3.3,59.819],[-3.389,59.978],[-3.484,60.137],[-3.575,60.297],[-3.664,60.457],[-3.74,60.618],[-3.808,60.781],[-3.888,60.942],[-4.018,61.098],[-4.203,61.247],[-4.395,61.396],[-4.563,61.548],[-4.725,61.7],[-4.909,61.85],[-5.164,61.991],[-5.496,62.116],[-5.89,62.227],[-6.299,62.335],[-6.696,62.453],[-7.06,62.578],[-7.406,62.705],[-7.754,62.831],[-8.112,62.956],[-8.48,63.078],[-8.857,63.199],[-9.242,63.318],[-9.624,63.437],[-9.993,63.557],[-10.335,63.682],[-10.635,63.812],[-10.905,63.948],[-11.198,64.065],[-11.569,64.152],[-12.022,64.218],[-12.51,64.294],[-13.002,64.385],[-13.496,64.474],[-13.966,64.532],[-14.403,64.541],[-14.803,64.512],[-15.193,64.475],[-15.589,64.442],[-15.956,64.437],[-16.257,64.459]]}},{"type":"Feature","properties":{"kind":"cold","line":4,"px_len":452},"geometry":{"type":"LineString","coordinates":[[-62.586,42.372],[-62.412,42.49],[-62.23,42.599],[-62.025,42.705],[-61.838,42.816],[-61.704,42.94],[-61.62,43.076],[-61.541,43.214],[-61.454,43.35],[-61.364,43.486],[-61.265,43.62],[-61.163,43.752],[-61.056,43.884],[-60.95,44.016],[-60.846,44.149],[-60.745,44.283],[-60.647,44.418],[-60.551,44.553],[-60.458,44.69],[-60.366,44.826],[-60.277,44.964],[-60.188,45.102],[-60.106,45.242],[-60.026,45.383],[-59.95,45.525],[-59.873,45.667],[-59.796,45.81],[-59.715,45.951],[-59.626,46.091],[-59.526,46.227],[-59.417,46.362],[-59.318,46.499],[-59.262,46.649],[-59.249,46.809],[-59.243,46.972],[-59.224,47.132],[-59.198,47.29],[-59.163,47.446],[-59.126,47.602],[-59.086,47.757],[-59.051,47.913],[-59.018,48.071],[-58.987,48.229],[-58.959,48.388],[-58.933,48.546],[-58.916,48.662],[-58.907,48.724]]}},{"type":"Feature","properties":{"kind":"occl","line":4,"px_len":234},"geometry":{"type":"LineString","coordinates":[[-58.907,48.724],[-58.893,48.891],[-58.88,49.051],[-58.87,49.217],[-58.866,49.383],[-58.864,49.55],[-58.852,49.715],[-58.827,49.877],[-58.788,50.036],[-58.742,50.192],[-58.701,50.351],[-58.712,50.523],[-58.765,50.705],[-58.829,50.891],[-58.872,51.071],[-58.904,51.249],[-58.958,51.43],[-59.061,51.611],[-59.212,51.778],[-59.39,51.932],[-59.563,52.084],[-59.716,52.249],[-59.855,52.431],[-59.945,52.583],[-59.981,52.677]]}},{"type":"Feature","properties":{"kind":"occl","line":5,"px_len":977},"geometry":{"type":"LineString","coordinates":[[71.438,58.381],[71.1,58.44],[70.85,58.534],[70.644,58.661],[70.431,58.788],[70.209,58.912],[70.007,59.042],[69.838,59.182],[69.678,59.325],[69.516,59.468],[69.347,59.609],[69.186,59.753],[69.053,59.905],[68.949,60.066],[68.861,60.232],[68.761,60.396],[68.652,60.556],[68.526,60.713],[68.384,60.865],[68.234,61.015],[68.085,61.165],[67.938,61.317],[67.797,61.471],[67.655,61.625],[67.518,61.781],[67.386,61.938],[67.264,62.099],[67.159,62.266],[67.08,62.44],[67.027,62.623],[67.002,62.814],[67.0,63.012],[66.963,63.2],[66.878,63.374],[66.768,63.542],[66.692,63.72],[66.647,63.908],[66.608,64.097],[66.525,64.274],[66.391,64.437],[66.234,64.594],[66.084,64.754],[65.952,64.919],[65.844,65.092],[65.767,65.273],[65.714,65.462],[65.673,65.654],[65.634,65.847],[65.595,66.04],[65.553,66.233],[65.508,66.426],[65.457,66.617],[65.406,66.808],[65.358,67.001],[65.325,67.198],[65.317,67.402],[65.353,67.617],[65.442,67.836],[65.527,68.048],[65.527,68.241],[65.434,68.42],[65.331,68.601],[65.262,68.791],[65.223,68.989],[65.168,69.183],[65.025,69.356],[64.797,69.509],[64.54,69.656],[64.294,69.806],[64.055,69.958],[63.828,70.114],[63.622,70.275],[63.427,70.441],[63.228,70.605],[63.011,70.766],[62.781,70.925],[62.545,71.082],[62.296,71.238],[62.033,71.391],[61.761,71.542],[61.491,71.694],[61.237,71.852],[60.99,72.011],[60.755,72.175],[60.534,72.343],[60.338,72.518],[60.172,72.701],[60.003,72.884],[59.664,73.026],[59.122,73.12],[58.454,73.183],[57.809,73.25],[57.145,73.311],[56.412,73.354],[55.616,73.377],[54.814,73.396],[54.05,73.423],[53.42,73.462],[52.967,73.504]]}},{"type":"Feature","properties":{"kind":"warm","line":6,"px_len":391},"geometry":{"type":"LineString","coordinates":[[45.856,71.518],[45.335,71.592],[44.861,71.673],[44.375,71.757],[43.879,71.836],[43.426,71.936],[43.059,72.078],[42.775,72.26],[42.522,72.459],[42.254,72.653],[41.955,72.836],[41.629,73.009],[41.286,73.176],[40.947,73.348],[40.618,73.528],[40.296,73.714],[39.956,73.894],[39.578,74.06],[39.166,74.213],[38.763,74.373],[38.433,74.563],[38.252,74.768],[38.25,74.966],[38.374,75.148],[38.538,75.324],[38.674,75.504],[38.758,75.693],[38.797,75.887],[38.813,76.086],[38.817,76.285],[38.805,76.488],[38.744,76.696],[38.635,76.91],[38.523,77.125],[38.495,77.328],[38.692,77.505],[39.063,77.661],[39.522,77.807],[39.965,77.951],[40.474,78.097]]}}]}