{"type":"FeatureCollection","properties":{"chart":"ana","src":"Z__C_EDZW_20261005013231_tka01,ana_bwkman_dwdna_O_000000_000000_202610050000_WV12.png","valid_time":"2026-10-05T00:00:00+00:00"},"features":[{"type":"Feature","properties":{"kind":"warm","line":0,"px_len":538},"geometry":{"type":"LineString","coordinates":[[10.735,61.186],[10.382,61.2],[10.045,61.19],[9.7,61.178],[9.355,61.174],[9.01,61.177],[8.665,61.191],[8.319,61.216],[7.971,61.256],[7.622,61.304],[7.273,61.332],[6.926,61.335],[6.58,61.324],[6.233,61.321],[5.885,61.325],[5.536,61.338],[5.185,61.359],[4.831,61.393],[4.474,61.439],[4.113,61.498],[3.748,61.566],[3.381,61.636],[3.011,61.708],[2.639,61.781],[2.263,61.861],[1.88,61.952],[1.49,62.06],[1.102,62.184],[0.713,62.309],[0.326,62.41],[-0.056,62.455],[-0.422,62.453],[-0.781,62.434],[-1.142,62.419],[-1.507,62.411],[-1.873,62.409],[-2.246,62.418],[-2.622,62.433],[-3.0,62.452],[-3.381,62.472],[-3.762,62.491],[-4.145,62.513],[-4.534,62.542],[-4.93,62.582],[-5.331,62.627],[-5.729,62.663],[-6.117,62.68],[-6.483,62.659],[-6.826,62.602],[-7.156,62.527],[-7.485,62.451],[-7.81,62.371],[-8.129,62.287],[-8.402,62.192],[-8.598,62.094]]}},{"type":"Feature","properties":{"kind":"cold","line":0,"px_len":2163},"geometry":{"type":"LineString","coordinates":[[-8.598,62.094],[-8.586,61.916],[-8.561,61.749],[-8.518,61.58],[-8.464,61.413],[-8.398,61.249],[-8.321,61.086],[-8.279,60.918],[-8.346,60.734],[-8.5,60.548],[-8.678,60.365],[-8.846,60.18],[-9.012,59.981],[-9.191,59.776],[-9.386,59.572],[-9.596,59.375],[-9.811,59.189],[-10.031,59.013],[-10.253,58.844],[-10.477,58.681],[-10.698,58.518],[-10.914,58.35],[-11.117,58.167],[-11.297,57.97],[-11.451,57.773],[-11.629,57.616],[-11.855,57.5],[-12.113,57.407],[-12.364,57.305],[-12.605,57.193],[-12.838,57.071],[-13.063,56.94],[-13.285,56.808],[-13.507,56.678],[-13.731,56.552],[-13.955,56.429],[-14.18,56.308],[-14.405,56.189],[-14.631,56.073],[-14.858,55.96],[-15.085,55.848],[-15.311,55.737],[-15.538,55.628],[-15.765,55.521],[-15.989,55.411],[-16.206,55.296],[-16.417,55.173],[-16.618,55.041],[-16.812,54.902],[-17.025,54.787],[-17.264,54.703],[-17.521,54.64],[-17.772,54.571],[-18.017,54.496],[-18.254,54.412],[-18.487,54.326],[-18.716,54.235],[-18.944,54.145],[-19.17,54.052],[-19.395,53.96],[-19.62,53.869],[-19.844,53.777],[-20.069,53.687],[-20.293,53.597],[-20.516,53.507],[-20.739,53.417],[-20.96,53.326],[-21.179,53.234],[-21.393,53.137],[-21.601,53.035],[-21.796,52.921],[-21.985,52.803],[-22.182,52.693],[-22.404,52.608],[-22.649,52.547],[-22.891,52.482],[-23.127,52.413],[-23.354,52.335],[-23.571,52.247],[-23.783,52.156],[-23.993,52.064],[-24.202,51.971],[-24.411,51.879],[-24.618,51.785],[-24.824,51.692],[-25.028,51.597],[-25.231,51.502],[-25.434,51.407],[-25.636,51.312],[-25.836,51.216],[-26.036,51.12],[-26.238,51.027],[-26.441,50.935],[-26.638,50.838],[-26.825,50.733],[-27.001,50.619],[-27.172,50.502],[-27.365,50.405],[-27.587,50.332],[-27.827,50.275],[-28.06,50.211],[-28.284,50.141],[-28.5,50.064],[-28.709,49.982],[-28.916,49.898],[-29.121,49.813],[-29.325,49.728],[-29.53,49.643],[-29.734,49.559],[-29.937,49.474],[-30.14,49.388],[-30.342,49.303],[-30.542,49.216],[-30.743,49.13],[-30.942,49.044],[-31.14,48.956],[-31.335,48.867],[-31.528,48.777],[-31.716,48.683],[-31.901,48.587],[-32.076,48.484],[-32.244,48.376],[-32.401,48.261],[-32.567,48.152],[-32.761,48.066],[-32.984,47.999],[-33.207,47.934],[-33.419,47.86],[-33.623,47.781],[-33.817,47.695],[-34.006,47.605],[-34.192,47.514],[-34.376,47.421],[-34.562,47.33],[-34.746,47.238],[-34.931,47.147],[-35.114,47.055],[-35.298,46.963],[-35.481,46.872],[-35.664,46.78],[-35.846,46.688],[-36.029,46.597],[-36.211,46.506],[-36.393,46.414],[-36.574,46.323],[-36.754,46.231],[-36.93,46.136],[-37.098,46.037],[-37.263,45.935],[-37.42,45.829],[-37.569,45.718],[-37.71,45.602],[-37.882,45.507],[-38.088,45.434],[-38.316,45.374],[-38.53,45.305],[-38.733,45.23],[-38.927,45.149],[-39.115,45.064],[-39.298,44.976],[-39.48,44.889],[-39.665,44.802],[-39.85,44.716],[-40.034,44.63],[-40.219,44.544],[-40.404,44.458],[-40.591,44.374],[-40.778,44.289],[-40.966,44.205],[-41.153,44.121],[-41.341,44.038],[-41.531,43.955],[-41.722,43.874],[-41.914,43.792],[-42.104,43.71],[-42.287,43.624],[-42.46,43.532],[-42.62,43.433],[-42.774,43.33],[-42.92,43.224],[-43.105,43.139],[-43.334,43.079],[-43.592,43.035],[-43.833,42.981],[-44.057,42.917],[-44.266,42.845],[-44.472,42.771],[-44.676,42.696],[-44.881,42.621],[-45.086,42.546],[-45.293,42.473],[-45.501,42.399],[-45.711,42.327],[-45.921,42.254],[-46.133,42.183],[-46.347,42.111],[-46.563,42.041],[-46.779,41.971],[-46.998,41.902],[-47.218,41.833],[-47.432,41.761],[-47.634,41.683],[-47.814,41.594],[-47.979,41.499],[-48.142,41.404],[-48.327,41.347],[-48.541,41.326],[-48.776,41.321],[-49.025,41.298],[-49.286,41.258],[-49.547,41.206],[-49.808,41.153],[-50.072,41.1],[-50.339,41.047],[-50.603,40.996],[-50.862,40.949],[-51.056,40.917],[-51.168,40.899]]}},{"type":"Feature","properties":{"kind":"warm","line":0,"px_len":219},"geometry":{"type":"LineString","coordinates":[[-51.168,40.899],[-51.425,40.859],[-51.667,40.824],[-51.912,40.791],[-52.154,40.76],[-52.394,40.732],[-52.63,40.708],[-52.858,40.694],[-53.076,40.693],[-53.282,40.71],[-53.481,40.737],[-53.678,40.766],[-53.885,40.781],[-54.109,40.767],[-54.341,40.718],[-54.577,40.649],[-54.817,40.577],[-55.062,40.521],[-55.299,40.483],[-55.527,40.456],[-55.753,40.434],[-55.95,40.437],[-56.111,40.47]]}},{"type":"Feature","properties":{"kind":"occl","line":1,"px_len":269},"geometry":{"type":"LineString","coordinates":[[-8.868,62.21],[-9.278,62.304],[-9.677,62.402],[-10.1,62.509],[-10.514,62.618],[-10.93,62.727],[-11.359,62.832],[-11.791,62.935],[-12.2,63.042],[-12.571,63.156],[-12.933,63.258],[-13.305,63.312],[-13.698,63.322],[-14.101,63.317],[-14.515,63.323],[-14.937,63.335],[-15.361,63.348],[-15.757,63.331],[-16.107,63.272],[-16.424,63.182],[-16.738,63.09],[-17.055,63.003],[-17.373,62.917],[-17.693,62.834],[-18.007,62.748],[-18.32,62.661],[-18.617,62.582],[-18.897,62.52]]}},{"type":"Feature","properties":{"kind":"warm","line":2,"px_len":398},"geometry":{"type":"LineString","coordinates":[[17.413,57.135],[17.572,57.278],[17.681,57.428],[17.783,57.585],[17.889,57.742],[17.999,57.899],[18.111,58.055],[18.231,58.211],[18.363,58.366],[18.507,58.521],[18.662,58.674],[18.826,58.827],[18.988,58.979],[19.095,59.137],[19.119,59.302],[19.071,59.473],[19.006,59.646],[18.946,59.819],[18.895,59.991],[18.858,60.161],[18.832,60.331],[18.811,60.501],[18.786,60.671],[18.757,60.842],[18.723,61.012],[18.705,61.182],[18.701,61.351],[18.714,61.519],[18.733,61.686],[18.769,61.852],[18.802,62.019],[18.765,62.191],[18.606,62.372],[18.363,62.559],[18.109,62.746],[17.891,62.931],[17.712,63.112],[17.57,63.291],[17.47,63.467],[17.414,63.627],[17.393,63.76]]}},{"type":"Feature","properties":{"kind":"occl","line":2,"px_len":714},"geometry":{"type":"LineString","coordinates":[[17.393,63.76],[17.464,63.929],[17.578,64.088],[17.718,64.249],[17.887,64.409],[18.077,64.567],[18.294,64.723],[18.486,64.881],[18.634,65.042],[18.724,65.208],[18.816,65.373],[18.921,65.537],[19.054,65.699],[19.168,65.863],[19.213,66.032],[19.191,66.206],[19.148,66.381],[19.125,66.555],[19.117,66.728],[19.127,66.9],[19.148,67.071],[19.175,67.242],[19.197,67.413],[19.206,67.586],[19.203,67.759],[19.194,67.933],[19.185,68.106],[19.19,68.28],[19.21,68.452],[19.238,68.624],[19.282,68.795],[19.311,68.967],[19.252,69.144],[19.084,69.328],[18.891,69.514],[18.728,69.697],[18.577,69.88],[18.377,70.064],[18.065,70.243],[17.65,70.395],[17.18,70.513],[16.698,70.613],[16.215,70.724],[15.732,70.851],[15.246,70.987],[14.753,71.122],[14.25,71.248],[13.739,71.365],[13.22,71.474],[12.695,71.582],[12.165,71.697],[11.63,71.821],[11.088,71.955],[10.537,72.072],[9.978,72.143],[9.413,72.169],[8.848,72.182],[8.282,72.196],[7.714,72.213],[7.146,72.23],[6.58,72.22],[6.021,72.178],[5.468,72.116],[4.92,72.053],[4.373,71.996],[3.828,71.944],[3.283,71.9],[2.736,71.863],[2.191,71.83],[1.646,71.798],[1.103,71.765],[0.675,71.731],[0.41,71.7]]}},{"type":"Feature","properties":{"kind":"occl","line":3,"px_len":536},"geometry":{"type":"LineString","coordinates":[[61.524,56.639],[61.664,56.812],[61.754,57.008],[61.822,57.225],[61.871,57.445],[61.89,57.659],[61.891,57.865],[61.915,58.069],[61.992,58.264],[62.136,58.435],[62.327,58.575],[62.545,58.697],[62.768,58.817],[62.987,58.941],[63.21,59.062],[63.466,59.161],[63.754,59.239],[64.062,59.302],[64.361,59.371],[64.656,59.445],[64.946,59.521],[65.237,59.598],[65.531,59.673],[65.83,59.744],[66.137,59.81],[66.449,59.873],[66.768,59.929],[67.094,59.981],[67.426,60.028],[67.761,60.072],[68.095,60.117],[68.419,60.17],[68.735,60.23],[69.049,60.291],[69.36,60.356],[69.674,60.419],[70.021,60.453],[70.41,60.449],[70.818,60.427],[71.218,60.411],[71.604,60.404],[71.976,60.408],[72.331,60.384],[72.67,60.32],[73.015,60.222],[73.392,60.13],[73.804,60.046],[74.233,59.965],[74.636,59.877],[74.993,59.777],[75.299,59.666],[75.6,59.584],[75.917,59.547],[76.216,59.551],[76.435,59.556]]}},{"type":"Feature","properties":{"kind":"occl","line":4,"px_len":1563},"geometry":{"type":"LineString","coordinates":[[23.305,53.327],[23.624,53.415],[23.923,53.482],[24.22,53.526],[24.51,53.553],[24.789,53.601],[25.071,53.683],[25.367,53.792],[25.683,53.889],[26.004,53.968],[26.326,54.048],[26.621,54.146],[26.865,54.268],[27.055,54.401],[27.232,54.537],[27.427,54.67],[27.648,54.798],[27.887,54.922],[28.136,55.044],[28.38,55.167],[28.615,55.291],[28.842,55.417],[29.065,55.544],[29.282,55.671],[29.502,55.799],[29.731,55.924],[29.981,56.045],[30.252,56.161],[30.547,56.272],[30.822,56.387],[31.036,56.515],[31.194,56.655],[31.351,56.796],[31.532,56.932],[31.736,57.062],[31.925,57.196],[32.068,57.341],[32.155,57.498],[32.234,57.658],[32.323,57.815],[32.428,57.969],[32.548,58.12],[32.68,58.269],[32.818,58.416],[32.955,58.564],[33.092,58.712],[33.223,58.862],[33.34,59.015],[33.446,59.171],[33.541,59.33],[33.628,59.491],[33.707,59.654],[33.787,59.817],[33.878,59.977],[33.976,60.137],[34.087,60.294],[34.211,60.448],[34.348,60.599],[34.444,60.76],[34.495,60.932],[34.517,61.11],[34.56,61.284],[34.626,61.453],[34.689,61.623],[34.708,61.803],[34.656,61.999],[34.552,62.206],[34.444,62.414],[34.367,62.615],[34.324,62.809],[34.308,62.997],[34.315,63.18],[34.335,63.361],[34.363,63.54],[34.397,63.718],[34.434,63.896],[34.484,64.072],[34.557,64.243],[34.658,64.408],[34.78,64.57],[34.925,64.727],[35.091,64.881],[35.283,65.029],[35.465,65.179],[35.624,65.335],[35.766,65.495],[35.921,65.652],[36.082,65.808],[36.247,65.964],[36.383,66.126],[36.481,66.296],[36.542,66.474],[36.612,66.651],[36.705,66.823],[36.826,66.99],[36.979,67.151],[37.148,67.309],[37.337,67.464],[37.537,67.616],[37.749,67.767],[37.964,67.917],[38.169,68.069],[38.376,68.222],[38.6,68.371],[38.853,68.515],[39.134,68.654],[39.437,68.788],[39.756,68.919],[40.096,69.046],[40.431,69.175],[40.738,69.309],[41.006,69.453],[41.267,69.598],[41.554,69.738],[41.858,69.875],[42.128,70.02],[42.346,70.176],[42.534,70.341],[42.746,70.5],[42.985,70.653],[43.242,70.804],[43.533,70.948],[43.836,71.089],[44.163,71.226],[44.487,71.363],[44.828,71.498],[45.162,71.635],[45.496,71.772],[45.824,71.912],[46.156,72.051],[46.494,72.189],[46.838,72.327],[47.204,72.46],[47.597,72.587],[48.02,72.708],[48.44,72.831],[48.796,72.969],[49.075,73.126],[49.345,73.287],[49.644,73.442],[49.962,73.593],[50.252,73.752],[50.462,73.931],[50.546,74.137],[50.51,74.36],[50.437,74.591],[50.403,74.821],[50.432,75.045],[50.485,75.264],[50.544,75.482],[50.596,75.703],[50.676,75.917],[50.814,76.12],[50.845,76.305],[50.667,76.474],[50.273,76.629],[49.933,76.742],[49.718,76.804]]}}]}