{"type":"FeatureCollection","properties":{"chart":"ana","src":"Z__C_EDZW_20261006133746_tka01,ana_bwkman_dwdna_O_000000_000000_202610061200_WV12.png","valid_time":"2026-10-06T12:00:00+00:00"},"features":[{"type":"Feature","properties":{"kind":"cold","line":0,"px_len":1183},"geometry":{"type":"LineString","coordinates":[[-24.673,42.769],[-24.486,42.838],[-24.289,42.884],[-24.081,42.923],[-23.87,42.96],[-23.659,42.996],[-23.446,43.03],[-23.232,43.063],[-23.019,43.096],[-22.807,43.13],[-22.598,43.168],[-22.393,43.211],[-22.193,43.259],[-21.996,43.311],[-21.802,43.367],[-21.608,43.422],[-21.411,43.475],[-21.21,43.523],[-21.005,43.564],[-20.801,43.609],[-20.618,43.679],[-20.454,43.773],[-20.295,43.875],[-20.131,43.971],[-19.962,44.061],[-19.79,44.148],[-19.616,44.232],[-19.442,44.318],[-19.268,44.404],[-19.095,44.493],[-18.922,44.582],[-18.751,44.674],[-18.581,44.768],[-18.411,44.863],[-18.241,44.959],[-18.072,45.057],[-17.904,45.157],[-17.736,45.259],[-17.57,45.363],[-17.404,45.469],[-17.239,45.576],[-17.074,45.685],[-16.909,45.795],[-16.744,45.907],[-16.581,46.021],[-16.417,46.136],[-16.254,46.253],[-16.091,46.372],[-15.929,46.492],[-15.764,46.611],[-15.595,46.724],[-15.417,46.826],[-15.233,46.918],[-15.046,47.007],[-14.866,47.102],[-14.723,47.229],[-14.608,47.39],[-14.495,47.567],[-14.361,47.74],[-14.215,47.9],[-14.061,48.05],[-13.904,48.197],[-13.746,48.344],[-13.587,48.493],[-13.427,48.64],[-13.265,48.785],[-13.099,48.928],[-12.932,49.069],[-12.763,49.209],[-12.591,49.348],[-12.418,49.486],[-12.242,49.621],[-12.065,49.755],[-11.885,49.888],[-11.706,50.023],[-11.524,50.155],[-11.341,50.288],[-11.157,50.421],[-10.971,50.554],[-10.784,50.684],[-10.594,50.814],[-10.402,50.941],[-10.207,51.066],[-10.01,51.188],[-9.81,51.308],[-9.608,51.425],[-9.403,51.541],[-9.198,51.657],[-8.991,51.773],[-8.782,51.886],[-8.567,51.989],[-8.344,52.081],[-8.115,52.162],[-7.882,52.235],[-7.65,52.315],[-7.44,52.439],[-7.247,52.599],[-7.055,52.766],[-6.851,52.911],[-6.636,53.037],[-6.414,53.15],[-6.186,53.255],[-5.956,53.355],[-5.722,53.451],[-5.486,53.544],[-5.248,53.636],[-5.008,53.725],[-4.766,53.812],[-4.522,53.896],[-4.276,53.978],[-4.028,54.058],[-3.778,54.136],[-3.527,54.211],[-3.273,54.283],[-3.018,54.353],[-2.761,54.421],[-2.502,54.486],[-2.242,54.546],[-2.042,54.588],[-1.923,54.609]]}},{"type":"Feature","properties":{"kind":"warm","line":0,"px_len":440},"geometry":{"type":"LineString","coordinates":[[-1.923,54.609],[-1.655,54.671],[-1.395,54.725],[-1.127,54.773],[-0.857,54.816],[-0.586,54.857],[-0.312,54.893],[-0.039,54.929],[0.236,54.961],[0.512,54.991],[0.79,55.016],[1.068,55.039],[1.348,55.057],[1.629,55.074],[1.909,55.088],[2.19,55.103],[2.472,55.113],[2.754,55.122],[3.036,55.132],[3.318,55.145],[3.598,55.165],[3.878,55.19],[4.156,55.222],[4.435,55.259],[4.713,55.302],[4.994,55.325],[5.281,55.31],[5.571,55.261],[5.861,55.209],[6.149,55.163],[6.435,55.124],[6.72,55.094],[7.004,55.072],[7.287,55.055],[7.57,55.035],[7.852,55.012],[8.134,54.986],[8.416,54.958],[8.698,54.929],[8.979,54.897],[9.259,54.864],[9.539,54.829],[9.818,54.792],[10.086,54.756],[10.347,54.724]]}},{"type":"Feature","properties":{"kind":"cold","line":0,"px_len":880},"geometry":{"type":"LineString","coordinates":[[10.347,54.724],[10.63,54.68],[10.9,54.64],[11.176,54.601],[11.452,54.561],[11.727,54.522],[12.001,54.484],[12.275,54.446],[12.548,54.409],[12.821,54.373],[13.093,54.338],[13.365,54.304],[13.637,54.272],[13.909,54.241],[14.18,54.21],[14.451,54.178],[14.72,54.14],[14.987,54.094],[15.253,54.043],[15.523,54.017],[15.799,54.026],[16.081,54.06],[16.362,54.091],[16.643,54.117],[16.924,54.138],[17.205,54.157],[17.486,54.177],[17.769,54.2],[18.053,54.227],[18.339,54.257],[18.626,54.29],[18.916,54.326],[19.207,54.366],[19.5,54.409],[19.795,54.455],[20.091,54.503],[20.39,54.555],[20.692,54.61],[20.995,54.667],[21.3,54.725],[21.608,54.786],[21.918,54.849],[22.23,54.914],[22.545,54.98],[22.862,55.049],[23.182,55.12],[23.504,55.192],[23.828,55.264],[24.151,55.33],[24.47,55.384],[24.783,55.421],[25.086,55.438],[25.382,55.443],[25.651,55.483],[25.896,55.57],[26.139,55.694],[26.412,55.814],[26.718,55.924],[27.053,56.024],[27.409,56.123],[27.772,56.221],[28.132,56.325],[28.481,56.431],[28.819,56.538],[29.149,56.646],[29.471,56.755],[29.785,56.865],[30.094,56.976],[30.395,57.088],[30.694,57.2],[30.988,57.313],[31.28,57.426],[31.568,57.54],[31.857,57.653],[32.14,57.767],[32.429,57.88],[32.724,57.991],[33.043,58.097],[33.382,58.192],[33.744,58.272],[34.116,58.343],[34.481,58.424],[34.833,58.515],[35.195,58.607],[35.586,58.682],[35.978,58.73],[36.353,58.751],[36.705,58.76],[37.047,58.767]]}},{"type":"Feature","properties":{"kind":"stat","line":0,"px_len":143},"geometry":{"type":"LineString","coordinates":[[37.047,58.767],[37.338,58.828],[37.483,58.948],[37.53,59.119],[37.578,59.293],[37.649,59.46],[37.741,59.622],[37.844,59.782],[37.949,59.942],[38.053,60.101],[38.152,60.263],[38.247,60.426],[38.343,60.59],[38.45,60.749],[38.539,60.869],[38.597,60.938]]}},{"type":"Feature","properties":{"kind":"occl","line":0,"px_len":553},"geometry":{"type":"LineString","coordinates":[[38.597,60.938],[38.746,61.092],[38.888,61.24],[39.035,61.392],[39.174,61.545],[39.315,61.699],[39.446,61.856],[39.571,62.014],[39.695,62.174],[39.814,62.335],[39.931,62.497],[40.051,62.658],[40.183,62.817],[40.33,62.972],[40.49,63.124],[40.663,63.273],[40.854,63.417],[41.045,63.562],[41.199,63.717],[41.311,63.884],[41.424,64.052],[41.563,64.212],[41.718,64.369],[41.85,64.532],[41.938,64.708],[41.968,64.9],[41.953,65.105],[41.918,65.315],[41.894,65.521],[41.888,65.724],[41.878,65.927],[41.845,66.136],[41.78,66.354],[41.698,66.576],[41.625,66.795],[41.587,67.005],[41.597,67.204],[41.617,67.392],[41.543,67.568],[41.358,67.741],[41.125,67.924],[40.918,68.124],[40.726,68.335],[40.509,68.533],[40.207,68.683],[39.83,68.788],[39.417,68.872],[39.012,68.962],[38.608,69.054],[38.209,69.151],[37.816,69.253],[37.431,69.362],[37.045,69.473],[36.662,69.588],[36.292,69.709],[36.041,69.812],[35.926,69.882]]}},{"type":"Feature","properties":{"kind":"warm","line":1,"px_len":322},"geometry":{"type":"LineString","coordinates":[[34.996,53.659],[35.11,53.809],[35.239,53.946],[35.373,54.086],[35.509,54.225],[35.647,54.365],[35.782,54.505],[35.923,54.644],[36.075,54.78],[36.239,54.913],[36.419,55.041],[36.612,55.166],[36.816,55.288],[37.011,55.412],[37.159,55.551],[37.25,55.706],[37.311,55.871],[37.379,56.034],[37.458,56.194],[37.548,56.352],[37.642,56.508],[37.743,56.663],[37.837,56.82],[37.915,56.982],[37.971,57.151],[38.006,57.327],[38.016,57.509],[38.015,57.696],[38.012,57.883],[37.989,58.076],[37.921,58.282],[37.807,58.493],[37.703,58.643],[37.639,58.716]]}},{"type":"Feature","properties":{"kind":"warm","line":2,"px_len":677},"geometry":{"type":"LineString","coordinates":[[-39.805,46.231],[-39.986,46.305],[-40.152,46.397],[-40.324,46.494],[-40.494,46.592],[-40.657,46.696],[-40.812,46.809],[-40.958,46.928],[-41.098,47.053],[-41.234,47.183],[-41.389,47.297],[-41.575,47.386],[-41.788,47.452],[-42.005,47.516],[-42.217,47.583],[-42.423,47.655],[-42.619,47.737],[-42.81,47.823],[-42.998,47.912],[-43.188,48.0],[-43.378,48.089],[-43.571,48.174],[-43.766,48.259],[-43.964,48.341],[-44.164,48.422],[-44.366,48.501],[-44.57,48.579],[-44.779,48.653],[-44.99,48.725],[-45.203,48.796],[-45.418,48.864],[-45.634,48.932],[-45.848,49.002],[-46.059,49.076],[-46.265,49.154],[-46.467,49.237],[-46.662,49.327],[-46.854,49.421],[-47.051,49.51],[-47.277,49.571],[-47.54,49.594],[-47.82,49.602],[-48.094,49.614],[-48.358,49.635],[-48.611,49.668],[-48.856,49.708],[-49.096,49.755],[-49.332,49.805],[-49.568,49.856],[-49.804,49.905],[-50.042,49.954],[-50.28,50.002],[-50.52,50.049],[-50.762,50.093],[-51.006,50.134],[-51.254,50.172],[-51.505,50.205],[-51.759,50.235],[-52.019,50.257],[-52.288,50.269],[-52.564,50.271],[-52.838,50.275],[-53.11,50.281],[-53.386,50.282],[-53.678,50.261],[-53.951,50.201],[-54.132,50.088],[-54.206,49.955],[-54.226,49.839]]}},{"type":"Feature","properties":{"kind":"cold","line":2,"px_len":599},"geometry":{"type":"LineString","coordinates":[[-54.226,49.839],[-54.248,49.668],[-54.269,49.504],[-54.276,49.332],[-54.258,49.153],[-54.209,48.968],[-54.132,48.778],[-54.034,48.588],[-53.965,48.405],[-53.948,48.235],[-53.975,48.072],[-53.991,47.905],[-53.99,47.732],[-53.97,47.553],[-53.947,47.373],[-53.926,47.194],[-53.918,47.02],[-53.923,46.85],[-53.943,46.685],[-53.972,46.524],[-54.009,46.366],[-54.051,46.21],[-54.099,46.056],[-54.153,45.905],[-54.208,45.754],[-54.266,45.604],[-54.326,45.456],[-54.39,45.309],[-54.457,45.163],[-54.528,45.019],[-54.602,44.877],[-54.676,44.734],[-54.751,44.592],[-54.826,44.451],[-54.902,44.31],[-54.98,44.17],[-55.056,44.029],[-55.137,43.891],[-55.214,43.751],[-55.296,43.613],[-55.375,43.475],[-55.455,43.337],[-55.536,43.2],[-55.622,43.065],[-55.708,42.93],[-55.793,42.794],[-55.878,42.659],[-55.959,42.523],[-56.032,42.384],[-56.093,42.242],[-56.147,42.098],[-56.197,41.952],[-56.272,41.815],[-56.38,41.69],[-56.512,41.572],[-56.637,41.453],[-56.752,41.33],[-56.857,41.204],[-56.954,41.076],[-57.046,40.955],[-57.136,40.847]]}},{"type":"Feature","properties":{"kind":"occl","line":3,"px_len":323},"geometry":{"type":"LineString","coordinates":[[-54.337,50.188],[-54.559,50.262],[-54.768,50.339],[-54.977,50.423],[-55.184,50.512],[-55.389,50.604],[-55.589,50.703],[-55.789,50.804],[-55.99,50.906],[-56.187,51.012],[-56.378,51.13],[-56.566,51.253],[-56.752,51.38],[-56.937,51.509],[-57.117,51.648],[-57.295,51.792],[-57.476,51.933],[-57.679,52.044],[-57.905,52.123],[-58.143,52.184],[-58.381,52.248],[-58.616,52.315],[-58.847,52.389],[-59.091,52.445],[-59.358,52.465],[-59.654,52.44],[-59.961,52.392],[-60.268,52.345],[-60.567,52.307],[-60.859,52.28],[-61.145,52.262],[-61.417,52.264],[-61.617,52.279],[-61.728,52.298]]}}]}