{"type":"FeatureCollection","properties":{"chart":"ana","src":"Z__C_EDZW_20261008143401_tka01,ana_bwkman_dwdna_O_000000_000000_202610081200_WV12.png","valid_time":"2026-10-08T12:00:00+00:00"},"features":[{"type":"Feature","properties":{"kind":"cold","line":0,"px_len":754},"geometry":{"type":"LineString","coordinates":[[8.255,46.401],[8.47,46.542],[8.677,46.671],[8.893,46.781],[9.116,46.867],[9.33,46.947],[9.494,47.052],[9.614,47.191],[9.725,47.344],[9.869,47.498],[10.038,47.651],[10.225,47.803],[10.413,47.956],[10.589,48.108],[10.749,48.261],[10.904,48.413],[11.074,48.565],[11.278,48.715],[11.501,48.855],[11.675,48.995],[11.782,49.139],[11.839,49.294],[11.903,49.448],[11.979,49.602],[12.076,49.755],[12.195,49.908],[12.325,50.061],[12.46,50.213],[12.596,50.365],[12.735,50.518],[12.89,50.669],[13.07,50.82],[13.283,50.969],[13.496,51.117],[13.64,51.269],[13.707,51.424],[13.757,51.58],[13.811,51.736],[13.875,51.892],[13.958,52.047],[14.054,52.201],[14.155,52.355],[14.249,52.51],[14.342,52.665],[14.437,52.819],[14.539,52.974],[14.643,53.128],[14.723,53.284],[14.746,53.443],[14.711,53.606],[14.66,53.769],[14.612,53.932],[14.57,54.096],[14.525,54.259],[14.473,54.423],[14.414,54.587],[14.346,54.752],[14.274,54.917],[14.199,55.083],[14.129,55.248],[14.076,55.412],[14.043,55.576],[14.027,55.739],[14.024,55.902],[14.042,56.064],[14.059,56.225],[14.033,56.389],[13.954,56.556],[13.856,56.723],[13.777,56.89],[13.722,57.055],[13.688,57.22],[13.67,57.385],[13.67,57.548],[13.684,57.712],[13.703,57.842],[13.714,57.924]]}},{"type":"Feature","properties":{"kind":"warm","line":1,"px_len":652},"geometry":{"type":"LineString","coordinates":[[30.533,55.771],[30.353,55.933],[30.157,56.082],[29.949,56.234],[29.739,56.387],[29.526,56.538],[29.311,56.688],[29.092,56.835],[28.871,56.983],[28.652,57.135],[28.44,57.302],[28.239,57.479],[28.042,57.658],[27.833,57.82],[27.584,57.94],[27.307,58.017],[27.015,58.072],[26.725,58.131],[26.436,58.193],[26.15,58.262],[25.866,58.335],[25.586,58.416],[25.306,58.502],[25.026,58.589],[24.744,58.674],[24.459,58.757],[24.173,58.839],[23.886,58.921],[23.599,59.008],[23.316,59.104],[23.038,59.214],[22.764,59.337],[22.494,59.475],[22.222,59.611],[21.932,59.712],[21.621,59.768],[21.298,59.799],[20.978,59.835],[20.658,59.876],[20.34,59.921],[20.022,59.967],[19.703,60.015],[19.383,60.061],[19.06,60.1],[18.733,60.128],[18.4,60.141],[18.065,60.143],[17.729,60.142],[17.393,60.142],[17.058,60.145],[16.725,60.151],[16.392,60.16],[16.054,60.149],[15.708,60.09],[15.378,59.973],[15.095,59.826],[14.846,59.673],[14.598,59.519],[14.358,59.364],[14.155,59.207],[14.009,59.048],[13.912,58.887],[13.85,58.724],[13.81,58.561],[13.782,58.4],[13.765,58.281],[13.756,58.218]]}},{"type":"Feature","properties":{"kind":"occl","line":2,"px_len":944},"geometry":{"type":"LineString","coordinates":[[68.469,57.604],[68.171,57.661],[67.946,57.759],[67.757,57.89],[67.576,58.023],[67.401,58.158],[67.229,58.295],[67.037,58.425],[66.817,58.547],[66.586,58.664],[66.363,58.785],[66.151,58.91],[65.951,59.039],[65.762,59.172],[65.582,59.309],[65.412,59.45],[65.252,59.594],[65.099,59.741],[64.945,59.888],[64.794,60.037],[64.643,60.186],[64.491,60.335],[64.339,60.485],[64.188,60.635],[64.038,60.787],[63.888,60.939],[63.739,61.091],[63.587,61.243],[63.435,61.396],[63.285,61.55],[63.141,61.706],[62.998,61.863],[62.862,62.023],[62.741,62.189],[62.645,62.364],[62.573,62.548],[62.527,62.741],[62.498,62.941],[62.431,63.128],[62.307,63.296],[62.152,63.454],[62.017,63.619],[61.91,63.795],[61.807,63.972],[61.659,64.135],[61.458,64.28],[61.233,64.418],[61.015,64.559],[60.807,64.703],[60.608,64.851],[60.43,65.008],[60.266,65.169],[60.112,65.335],[59.959,65.501],[59.803,65.668],[59.643,65.833],[59.477,65.998],[59.305,66.161],[59.13,66.323],[58.949,66.485],[58.761,66.644],[58.567,66.803],[58.368,66.96],[58.163,67.116],[57.95,67.27],[57.727,67.422],[57.501,67.574],[57.275,67.726],[57.059,67.882],[56.861,68.046],[56.681,68.216],[56.519,68.394],[56.364,68.575],[56.164,68.741],[55.903,68.888],[55.602,69.021],[55.306,69.157],[55.027,69.3],[54.758,69.448],[54.438,69.578],[54.058,69.689],[53.65,69.79],[53.254,69.896],[52.876,70.009],[52.506,70.126],[52.144,70.247],[51.794,70.372],[51.455,70.504],[51.113,70.635],[50.767,70.765],[50.418,70.896],[50.064,71.026],[49.707,71.156],[49.344,71.285],[49.038,71.382],[48.83,71.439]]}},{"type":"Feature","properties":{"kind":"warm","line":3,"px_len":706},"geometry":{"type":"LineString","coordinates":[[-48.121,37.124],[-48.052,37.261],[-47.978,37.389],[-47.904,37.52],[-47.837,37.656],[-47.779,37.796],[-47.728,37.94],[-47.686,38.089],[-47.644,38.239],[-47.574,38.374],[-47.468,38.492],[-47.336,38.596],[-47.207,38.702],[-47.082,38.81],[-46.962,38.921],[-46.851,39.037],[-46.744,39.155],[-46.639,39.275],[-46.54,39.398],[-46.441,39.521],[-46.337,39.642],[-46.231,39.762],[-46.13,39.885],[-46.028,40.008],[-45.924,40.131],[-45.816,40.25],[-45.702,40.368],[-45.586,40.484],[-45.471,40.601],[-45.358,40.72],[-45.241,40.837],[-45.12,40.952],[-44.999,41.067],[-44.873,41.18],[-44.747,41.292],[-44.617,41.404],[-44.485,41.514],[-44.349,41.622],[-44.213,41.73],[-44.074,41.837],[-43.935,41.945],[-43.801,42.055],[-43.673,42.169],[-43.548,42.284],[-43.428,42.404],[-43.316,42.527],[-43.21,42.654],[-43.079,42.768],[-42.909,42.86],[-42.701,42.93],[-42.486,42.996],[-42.28,43.068],[-42.086,43.146],[-41.904,43.231],[-41.73,43.32],[-41.56,43.413],[-41.389,43.505],[-41.219,43.597],[-41.047,43.689],[-40.875,43.781],[-40.702,43.872],[-40.53,43.964],[-40.356,44.055],[-40.183,44.147],[-40.008,44.237],[-39.833,44.328],[-39.659,44.42],[-39.485,44.511],[-39.31,44.602],[-39.136,44.695],[-38.985,44.774],[-38.874,44.832]]}},{"type":"Feature","properties":{"kind":"cold","line":3,"px_len":1245},"geometry":{"type":"LineString","coordinates":[[-38.874,44.832],[-38.699,44.929],[-38.53,45.02],[-38.357,45.114],[-38.184,45.207],[-38.01,45.3],[-37.835,45.393],[-37.658,45.486],[-37.481,45.577],[-37.303,45.669],[-37.125,45.761],[-36.946,45.852],[-36.767,45.943],[-36.587,46.035],[-36.407,46.126],[-36.227,46.217],[-36.046,46.308],[-35.865,46.4],[-35.682,46.49],[-35.494,46.577],[-35.299,46.659],[-35.095,46.736],[-34.881,46.805],[-34.665,46.872],[-34.477,46.96],[-34.32,47.07],[-34.178,47.191],[-34.027,47.307],[-33.866,47.415],[-33.695,47.517],[-33.522,47.618],[-33.347,47.717],[-33.172,47.817],[-32.997,47.918],[-32.821,48.018],[-32.648,48.12],[-32.479,48.226],[-32.312,48.334],[-32.138,48.437],[-31.963,48.54],[-31.787,48.642],[-31.613,48.747],[-31.441,48.853],[-31.268,48.959],[-31.093,49.064],[-30.918,49.169],[-30.745,49.277],[-30.568,49.382],[-30.395,49.49],[-30.217,49.596],[-30.042,49.703],[-29.866,49.811],[-29.691,49.92],[-29.515,50.029],[-29.338,50.138],[-29.162,50.248],[-28.985,50.358],[-28.809,50.468],[-28.632,50.579],[-28.456,50.692],[-28.279,50.804],[-28.103,50.917],[-27.927,51.032],[-27.751,51.147],[-27.571,51.259],[-27.388,51.37],[-27.198,51.475],[-27.002,51.575],[-26.797,51.67],[-26.586,51.758],[-26.387,51.858],[-26.219,51.986],[-26.082,52.14],[-25.94,52.291],[-25.787,52.434],[-25.622,52.568],[-25.451,52.696],[-25.274,52.821],[-25.095,52.945],[-24.916,53.07],[-24.735,53.194],[-24.554,53.319],[-24.372,53.444],[-24.19,53.569],[-24.007,53.695],[-23.823,53.82],[-23.637,53.946],[-23.45,54.071],[-23.264,54.198],[-23.076,54.324],[-22.888,54.451],[-22.699,54.579],[-22.511,54.708],[-22.323,54.839],[-22.134,54.97],[-21.946,55.103],[-21.759,55.237],[-21.568,55.37],[-21.366,55.492],[-21.152,55.606],[-20.932,55.714],[-20.709,55.82],[-20.514,55.949],[-20.366,56.117],[-20.25,56.32],[-20.121,56.52],[-19.972,56.706],[-19.812,56.883],[-19.65,57.058],[-19.491,57.239],[-19.335,57.425],[-19.179,57.612],[-19.026,57.804],[-18.878,58.002],[-18.735,58.208],[-18.595,58.418],[-18.455,58.63],[-18.304,58.834],[-18.137,59.024],[-17.948,59.194],[-17.74,59.348],[-17.517,59.488],[-17.29,59.626],[-17.06,59.763],[-16.866,59.876],[-16.731,59.951]]}},{"type":"Feature","properties":{"kind":"stat","line":3,"px_len":184},"geometry":{"type":"LineString","coordinates":[[-16.731,59.951],[-16.681,60.097],[-16.767,60.237],[-16.942,60.379],[-17.108,60.524],[-17.266,60.67],[-17.419,60.818],[-17.574,60.966],[-17.73,61.114],[-17.894,61.261],[-18.063,61.406],[-18.236,61.551],[-18.414,61.694],[-18.596,61.837],[-18.785,61.979],[-18.982,62.119],[-19.187,62.257],[-19.404,62.392],[-19.582,62.499],[-19.697,62.566]]}},{"type":"Feature","properties":{"kind":"occl","line":3,"px_len":1668},"geometry":{"type":"LineString","coordinates":[[-19.697,62.566],[-19.965,62.692],[-20.223,62.814],[-20.488,62.937],[-20.766,63.058],[-21.057,63.175],[-21.359,63.289],[-21.674,63.4],[-22.004,63.507],[-22.343,63.612],[-22.679,63.717],[-22.996,63.827],[-23.294,63.943],[-23.58,64.062],[-23.887,64.176],[-24.282,64.264],[-24.759,64.327],[-25.262,64.382],[-25.728,64.448],[-26.185,64.515],[-26.661,64.561],[-27.132,64.565],[-27.552,64.525],[-27.934,64.463],[-28.31,64.398],[-28.699,64.339],[-29.099,64.287],[-29.512,64.242],[-29.922,64.194],[-30.327,64.143],[-30.718,64.084],[-31.099,64.021],[-31.465,63.95],[-31.819,63.872],[-32.156,63.786],[-32.477,63.693],[-32.785,63.594],[-33.084,63.491],[-33.375,63.384],[-33.657,63.274],[-33.928,63.159],[-34.197,63.044],[-34.457,62.925],[-34.71,62.803],[-34.953,62.678],[-35.195,62.552],[-35.428,62.423],[-35.654,62.292],[-35.873,62.158],[-36.076,62.017],[-36.26,61.868],[-36.416,61.707],[-36.542,61.534],[-36.633,61.344],[-36.679,61.135],[-36.698,60.913],[-36.732,60.699],[-36.817,60.509],[-36.94,60.338],[-37.071,60.171],[-37.181,59.996],[-37.274,59.812],[-37.392,59.642],[-37.555,59.493],[-37.757,59.363],[-37.962,59.236],[-38.16,59.106],[-38.361,58.977],[-38.558,58.847],[-38.752,58.717],[-38.954,58.59],[-39.165,58.469],[-39.391,58.354],[-39.619,58.241],[-39.851,58.13],[-40.084,58.02],[-40.324,57.913],[-40.57,57.809],[-40.821,57.708],[-41.076,57.609],[-41.336,57.512],[-41.601,57.417],[-41.868,57.324],[-42.14,57.232],[-42.417,57.143],[-42.701,57.057],[-42.99,56.972],[-43.285,56.89],[-43.586,56.811],[-43.896,56.735],[-44.208,56.659],[-44.522,56.584],[-44.824,56.504],[-45.102,56.414],[-45.359,56.316],[-45.607,56.214],[-45.883,56.123],[-46.204,56.06],[-46.553,56.033],[-46.902,56.031],[-47.246,56.034],[-47.602,56.026],[-47.964,56.011],[-48.299,56.019],[-48.598,56.057],[-48.873,56.118],[-49.149,56.177],[-49.432,56.231],[-49.725,56.275],[-50.027,56.311],[-50.33,56.345],[-50.631,56.381],[-50.929,56.42],[-51.222,56.463],[-51.512,56.51],[-51.797,56.561],[-52.078,56.617],[-52.356,56.676],[-52.628,56.743],[-52.895,56.814],[-53.157,56.892],[-53.413,56.975],[-53.66,57.07],[-53.896,57.179],[-54.121,57.3],[-54.337,57.433],[-54.545,57.576],[-54.745,57.73],[-54.937,57.895],[-55.12,58.071],[-55.294,58.261],[-55.461,58.46],[-55.61,58.666],[-55.729,58.872],[-55.803,59.071],[-55.838,59.261],[-55.832,59.441],[-55.795,59.614],[-55.78,59.792],[-55.809,59.981],[-55.87,60.177],[-55.905,60.367],[-55.906,60.55],[-55.895,60.73],[-55.908,60.915],[-55.97,61.106],[-56.067,61.304],[-56.159,61.5],[-56.219,61.696],[-56.242,61.884],[-56.234,62.065],[-56.202,62.242],[-56.157,62.416],[-56.106,62.589],[-56.05,62.761],[-55.991,62.933],[-55.93,63.104],[-55.867,63.276],[-55.807,63.448],[-55.765,63.625],[-55.745,63.806],[-55.758,63.993],[-55.806,64.189],[-55.925,64.372],[-56.153,64.51],[-56.48,64.598],[-56.807,64.665],[-57.077,64.729]]}},{"type":"Feature","properties":{"kind":"warm","line":4,"px_len":592},"geometry":{"type":"LineString","coordinates":[[-11.145,50.982],[-11.207,51.14],[-11.231,51.299],[-11.245,51.465],[-11.261,51.63],[-11.274,51.796],[-11.286,51.962],[-11.293,52.13],[-11.299,52.298],[-11.301,52.467],[-11.29,52.64],[-11.255,52.818],[-11.197,53.002],[-11.114,53.191],[-11.033,53.379],[-10.999,53.557],[-11.037,53.72],[-11.125,53.871],[-11.216,54.022],[-11.294,54.176],[-11.364,54.333],[-11.422,54.492],[-11.467,54.654],[-11.502,54.818],[-11.534,54.984],[-11.568,55.149],[-11.608,55.313],[-11.652,55.477],[-11.695,55.641],[-11.732,55.806],[-11.759,55.974],[-11.777,56.144],[-11.781,56.317],[-11.777,56.492],[-11.791,56.664],[-11.875,56.82],[-12.029,56.962],[-12.213,57.098],[-12.39,57.235],[-12.556,57.375],[-12.709,57.518],[-12.85,57.663],[-12.989,57.81],[-13.127,57.957],[-13.268,58.103],[-13.416,58.248],[-13.567,58.392],[-13.725,58.536],[-13.884,58.679],[-14.05,58.821],[-14.221,58.962],[-14.404,59.1],[-14.593,59.237],[-14.792,59.372],[-14.999,59.505],[-15.216,59.637],[-15.444,59.765],[-15.685,59.891],[-15.954,59.999],[-16.171,60.059],[-16.3,60.075]]}},{"type":"Feature","properties":{"kind":"warm","line":5,"px_len":213},"geometry":{"type":"LineString","coordinates":[[40.348,73.941],[40.353,74.13],[40.447,74.31],[40.569,74.493],[40.69,74.677],[40.815,74.861],[40.925,75.048],[41.001,75.24],[41.036,75.44],[41.016,75.647],[40.98,75.858],[40.998,76.06],[41.19,76.237],[41.541,76.391],[41.965,76.535],[42.381,76.681],[42.786,76.829],[43.182,76.979],[43.555,77.134],[43.933,77.289],[44.333,77.44],[44.684,77.549],[44.927,77.608]]}}]}