{"type":"FeatureCollection","properties":{"chart":"ana","src":"Z__C_EDZW_20261009192428_tka01,ana_bwkman_dwdna_O_000000_000000_202610091800_WV12.png","valid_time":"2026-10-09T18:00:00+00:00"},"features":[{"type":"Feature","properties":{"kind":"cold","line":0,"px_len":511},"geometry":{"type":"LineString","coordinates":[[8.713,36.391],[8.862,36.519],[9.026,36.632],[9.202,36.742],[9.379,36.856],[9.556,36.971],[9.734,37.079],[9.913,37.178],[10.093,37.261],[10.251,37.349],[10.363,37.459],[10.427,37.595],[10.481,37.737],[10.545,37.879],[10.627,38.021],[10.723,38.162],[10.821,38.304],[10.916,38.446],[11.004,38.588],[11.09,38.73],[11.172,38.872],[11.249,39.015],[11.321,39.158],[11.387,39.301],[11.45,39.444],[11.509,39.587],[11.564,39.731],[11.615,39.875],[11.667,40.019],[11.72,40.163],[11.781,40.307],[11.849,40.451],[11.929,40.595],[12.006,40.739],[12.044,40.884],[12.038,41.031],[12.015,41.179],[11.999,41.327],[11.993,41.474],[11.992,41.622],[11.993,41.77],[11.987,41.918],[11.977,42.066],[11.961,42.215],[11.936,42.364],[11.896,42.514],[11.835,42.664],[11.752,42.816],[11.64,42.968],[11.494,43.121],[11.32,43.264],[11.118,43.399]]}},{"type":"Feature","properties":{"kind":"occl","line":0,"px_len":255},"geometry":{"type":"LineString","coordinates":[[11.118,43.399],[10.911,43.492],[10.711,43.566],[10.506,43.624],[10.3,43.659],[10.093,43.678],[9.886,43.682],[9.679,43.676],[9.472,43.659],[9.265,43.63],[9.058,43.587],[8.852,43.54],[8.647,43.493],[8.441,43.45],[8.237,43.405],[8.057,43.332],[7.915,43.218],[7.805,43.071],[7.689,42.92],[7.565,42.768],[7.433,42.616],[7.323,42.464],[7.271,42.314],[7.285,42.167],[7.337,42.02],[7.389,41.898],[7.429,41.815]]}},{"type":"Feature","properties":{"kind":"warm","line":1,"px_len":1236},"geometry":{"type":"LineString","coordinates":[[-47.922,41.209],[-47.73,41.28],[-47.563,41.368],[-47.406,41.467],[-47.257,41.57],[-47.12,41.679],[-46.989,41.791],[-46.866,41.908],[-46.749,42.027],[-46.628,42.145],[-46.473,42.246],[-46.272,42.325],[-46.045,42.389],[-45.818,42.454],[-45.605,42.526],[-45.407,42.605],[-45.22,42.689],[-45.041,42.778],[-44.862,42.868],[-44.683,42.957],[-44.502,43.045],[-44.32,43.133],[-44.136,43.219],[-43.949,43.304],[-43.76,43.388],[-43.569,43.471],[-43.375,43.552],[-43.18,43.633],[-42.983,43.712],[-42.784,43.79],[-42.583,43.867],[-42.38,43.944],[-42.175,44.019],[-41.969,44.093],[-41.761,44.166],[-41.552,44.238],[-41.341,44.309],[-41.128,44.379],[-40.915,44.449],[-40.704,44.519],[-40.497,44.593],[-40.302,44.673],[-40.118,44.76],[-39.945,44.854],[-39.775,44.95],[-39.607,45.047],[-39.412,45.128],[-39.18,45.183],[-38.908,45.208],[-38.621,45.223],[-38.343,45.248],[-38.085,45.287],[-37.843,45.337],[-37.613,45.394],[-37.387,45.453],[-37.159,45.511],[-36.928,45.567],[-36.697,45.623],[-36.465,45.677],[-36.229,45.729],[-35.993,45.78],[-35.753,45.829],[-35.512,45.876],[-35.268,45.922],[-35.021,45.965],[-34.773,46.006],[-34.523,46.046],[-34.272,46.085],[-34.02,46.122],[-33.765,46.157],[-33.511,46.193],[-33.256,46.226],[-33.0,46.259],[-32.744,46.292],[-32.491,46.326],[-32.246,46.366],[-32.015,46.416],[-31.797,46.477],[-31.588,46.545],[-31.384,46.616],[-31.165,46.677],[-30.914,46.709],[-30.635,46.703],[-30.353,46.67],[-30.068,46.634],[-29.777,46.613],[-29.487,46.608],[-29.211,46.616],[-28.941,46.629],[-28.672,46.642],[-28.401,46.653],[-28.131,46.662],[-27.859,46.67],[-27.585,46.677],[-27.312,46.681],[-27.038,46.685],[-26.763,46.687],[-26.488,46.688],[-26.212,46.688],[-25.935,46.685],[-25.658,46.681],[-25.379,46.674],[-25.101,46.667],[-24.822,46.659],[-24.542,46.648],[-24.262,46.636],[-23.981,46.622],[-23.706,46.613],[-23.44,46.613],[-23.189,46.627],[-22.949,46.654],[-22.718,46.69],[-22.48,46.717],[-22.222,46.718],[-21.954,46.681],[-21.698,46.615],[-21.454,46.537],[-21.192,46.467],[-20.91,46.412],[-20.623,46.373],[-20.345,46.345],[-20.072,46.324],[-19.802,46.304],[-19.57,46.287],[-19.401,46.276]]}},{"type":"Feature","properties":{"kind":"cold","line":1,"px_len":1350},"geometry":{"type":"LineString","coordinates":[[-19.401,46.276],[-19.128,46.256],[-18.87,46.24],[-18.609,46.227],[-18.35,46.214],[-18.092,46.203],[-17.836,46.192],[-17.576,46.175],[-17.306,46.144],[-17.027,46.094],[-16.755,46.043],[-16.509,46.028],[-16.288,46.057],[-16.075,46.101],[-15.859,46.141],[-15.636,46.171],[-15.406,46.19],[-15.171,46.202],[-14.935,46.211],[-14.7,46.222],[-14.467,46.235],[-14.235,46.25],[-14.004,46.264],[-13.772,46.278],[-13.54,46.292],[-13.31,46.308],[-13.08,46.324],[-12.851,46.341],[-12.622,46.358],[-12.394,46.375],[-12.166,46.394],[-11.939,46.413],[-11.713,46.434],[-11.488,46.457],[-11.265,46.482],[-11.041,46.508],[-10.82,46.536],[-10.599,46.566],[-10.379,46.598],[-10.16,46.633],[-9.943,46.669],[-9.726,46.708],[-9.508,46.745],[-9.292,46.786],[-9.073,46.82],[-8.851,46.849],[-8.625,46.869],[-8.395,46.883],[-8.171,46.907],[-7.959,46.956],[-7.757,47.031],[-7.555,47.104],[-7.348,47.17],[-7.137,47.227],[-6.924,47.28],[-6.709,47.328],[-6.494,47.379],[-6.278,47.428],[-6.064,47.481],[-5.849,47.533],[-5.634,47.586],[-5.419,47.642],[-5.205,47.698],[-4.989,47.755],[-4.775,47.813],[-4.56,47.873],[-4.346,47.935],[-4.131,47.997],[-3.916,48.06],[-3.702,48.127],[-3.488,48.195],[-3.273,48.264],[-3.059,48.336],[-2.845,48.41],[-2.63,48.486],[-2.416,48.564],[-2.202,48.645],[-1.988,48.729],[-1.774,48.814],[-1.559,48.9],[-1.344,48.989],[-1.129,49.08],[-0.913,49.173],[-0.697,49.267],[-0.478,49.356],[-0.256,49.435],[-0.03,49.501],[0.199,49.559],[0.43,49.611],[0.65,49.693],[0.854,49.824],[1.053,49.986],[1.263,50.14],[1.481,50.273],[1.703,50.392],[1.928,50.504],[2.155,50.615],[2.382,50.728],[2.61,50.844],[2.84,50.961],[3.07,51.081],[3.302,51.201],[3.534,51.325],[3.768,51.45],[4.003,51.578],[4.24,51.708],[4.478,51.839],[4.718,51.962],[4.962,52.071],[5.21,52.161],[5.461,52.236],[5.714,52.3],[5.968,52.356],[6.223,52.412],[6.48,52.463],[6.737,52.511],[6.996,52.55],[7.255,52.582],[7.506,52.63],[7.713,52.728],[7.872,52.874],[8.004,53.036],[8.142,53.197],[8.301,53.359],[8.479,53.521],[8.606,53.682],[8.651,53.842],[8.637,54.002],[8.619,54.163],[8.605,54.323],[8.596,54.484],[8.582,54.644],[8.558,54.805],[8.529,54.966],[8.505,55.121],[8.491,55.272]]}},{"type":"Feature","properties":{"kind":"occl","line":1,"px_len":630},"geometry":{"type":"LineString","coordinates":[[8.491,55.272],[8.487,55.437],[8.482,55.595],[8.489,55.757],[8.509,55.919],[8.538,56.082],[8.527,56.244],[8.469,56.406],[8.375,56.567],[8.289,56.729],[8.218,56.891],[8.138,57.053],[8.017,57.214],[7.822,57.372],[7.561,57.518],[7.256,57.658],[6.949,57.802],[6.668,57.957],[6.42,58.114],[6.191,58.271],[5.966,58.429],[5.743,58.586],[5.519,58.743],[5.281,58.899],[5.004,59.053],[4.687,59.199],[4.345,59.331],[3.998,59.451],[3.663,59.579],[3.374,59.722],[3.142,59.876],[2.928,60.03],[2.686,60.183],[2.398,60.332],[2.113,60.481],[1.887,60.634],[1.728,60.791],[1.563,60.947],[1.358,61.101],[1.101,61.251],[0.796,61.398],[0.454,61.541],[0.094,61.682],[-0.264,61.822],[-0.597,61.964],[-0.891,62.109],[-1.136,62.258],[-1.361,62.403],[-1.64,62.521],[-2.0,62.613],[-2.413,62.706],[-2.838,62.818],[-3.261,62.942],[-3.679,63.048],[-4.085,63.113],[-4.478,63.134],[-4.861,63.134],[-5.245,63.136],[-5.637,63.15],[-6.036,63.173],[-6.444,63.209],[-6.858,63.249],[-7.236,63.298],[-7.56,63.367]]}},{"type":"Feature","properties":{"kind":"warm","line":2,"px_len":234},"geometry":{"type":"LineString","coordinates":[[5.655,49.026],[5.874,49.195],[6.084,49.356],[6.304,49.513],[6.533,49.657],[6.765,49.782],[7.001,49.886],[7.238,49.987],[7.459,50.105],[7.633,50.249],[7.737,50.405],[7.784,50.563],[7.801,50.72],[7.814,50.878],[7.826,51.035],[7.85,51.194],[7.876,51.352],[7.901,51.51],[7.915,51.668],[7.915,51.827],[7.896,51.985],[7.865,52.143],[7.818,52.301],[7.77,52.426],[7.73,52.506]]}},{"type":"Feature","properties":{"kind":"cold","line":3,"px_len":1238},"geometry":{"type":"LineString","coordinates":[[28.89,46.66],[29.058,46.786],[29.258,46.896],[29.478,47.004],[29.705,47.111],[29.941,47.215],[30.19,47.316],[30.457,47.407],[30.733,47.482],[31.003,47.546],[31.222,47.63],[31.388,47.744],[31.522,47.874],[31.661,48.003],[31.813,48.128],[31.982,48.249],[32.163,48.366],[32.349,48.482],[32.536,48.598],[32.722,48.714],[32.905,48.831],[33.089,48.948],[33.272,49.065],[33.453,49.183],[33.633,49.301],[33.809,49.42],[33.984,49.54],[34.152,49.662],[34.318,49.784],[34.477,49.909],[34.634,50.034],[34.786,50.161],[34.933,50.29],[35.076,50.421],[35.216,50.552],[35.352,50.685],[35.487,50.818],[35.619,50.952],[35.749,51.088],[35.882,51.222],[36.019,51.356],[36.167,51.486],[36.329,51.612],[36.503,51.735],[36.68,51.856],[36.815,51.991],[36.911,52.139],[36.99,52.293],[37.077,52.444],[37.178,52.592],[37.288,52.736],[37.403,52.88],[37.518,53.023],[37.632,53.168],[37.742,53.313],[37.848,53.461],[37.948,53.61],[38.047,53.761],[38.143,53.912],[38.234,54.066],[38.322,54.221],[38.405,54.377],[38.484,54.535],[38.56,54.695],[38.63,54.857],[38.694,55.021],[38.753,55.187],[38.804,55.356],[38.849,55.527],[38.888,55.7],[38.921,55.875],[38.951,56.052],[38.981,56.229],[39.023,56.402],[39.086,56.57],[39.169,56.731],[39.263,56.889],[39.356,57.046],[39.373,57.214],[39.302,57.4],[39.174,57.604],[39.068,57.814],[38.988,58.026],[38.918,58.235],[38.837,58.447],[38.735,58.666],[38.616,58.887],[38.484,59.103],[38.338,59.308],[38.178,59.502],[38.007,59.688],[37.825,59.865],[37.632,60.034],[37.427,60.195],[37.212,60.348],[36.988,60.493],[36.755,60.632],[36.513,60.765],[36.263,60.891],[36.005,61.012],[35.737,61.125],[35.462,61.231],[35.178,61.331],[34.885,61.423],[34.586,61.511],[34.288,61.6],[33.994,61.695],[33.703,61.795],[33.414,61.899],[33.127,62.006],[32.846,62.122],[32.57,62.245],[32.306,62.383],[32.035,62.517],[31.734,62.62],[31.385,62.67],[31.006,62.685],[30.601,62.669],[30.185,62.611],[29.791,62.516],[29.403,62.403],[29.003,62.3],[28.579,62.216],[28.195,62.158],[27.875,62.12]]}},{"type":"Feature","properties":{"kind":"occl","line":3,"px_len":295},"geometry":{"type":"LineString","coordinates":[[27.875,62.12],[27.456,62.07],[27.059,62.025],[26.649,61.969],[26.229,61.893],[25.819,61.792],[25.445,61.672],[25.13,61.541],[24.83,61.408],[24.501,61.279],[24.134,61.154],[23.788,61.025],[23.496,60.89],[23.249,60.749],[22.972,60.612],[22.664,60.484],[22.339,60.358],[22.058,60.223],[21.814,60.08],[21.602,59.934],[21.42,59.784],[21.261,59.633],[21.119,59.479],[20.994,59.324],[20.887,59.167],[20.796,59.008],[20.72,58.848],[20.657,58.687],[20.599,58.526],[20.585,58.394],[20.609,58.307]]}},{"type":"Feature","properties":{"kind":"warm","line":4,"px_len":273},"geometry":{"type":"LineString","coordinates":[[32.193,62.691],[32.517,62.814],[32.808,62.935],[33.086,63.063],[33.352,63.193],[33.634,63.32],[33.955,63.439],[34.334,63.546],[34.764,63.641],[35.231,63.719],[35.712,63.781],[36.192,63.829],[36.666,63.869],[37.132,63.899],[37.6,63.928],[38.085,63.968],[38.584,64.026],[39.081,64.094],[39.566,64.149],[40.029,64.169],[40.434,64.137],[40.796,64.073],[41.141,63.998],[41.494,63.928],[41.85,63.862],[42.218,63.803],[42.594,63.751],[42.883,63.714],[43.05,63.69]]}},{"type":"Feature","properties":{"kind":"cold","line":5,"px_len":560},"geometry":{"type":"LineString","coordinates":[[-58.456,40.932],[-58.381,41.071],[-58.323,41.208],[-58.267,41.35],[-58.201,41.489],[-58.117,41.622],[-58.026,41.754],[-57.929,41.884],[-57.826,42.012],[-57.715,42.138],[-57.602,42.263],[-57.489,42.389],[-57.377,42.515],[-57.264,42.641],[-57.152,42.767],[-57.041,42.894],[-56.929,43.021],[-56.819,43.149],[-56.706,43.276],[-56.595,43.403],[-56.484,43.531],[-56.372,43.659],[-56.261,43.787],[-56.149,43.915],[-56.038,44.044],[-55.927,44.173],[-55.816,44.302],[-55.704,44.43],[-55.592,44.56],[-55.482,44.689],[-55.372,44.82],[-55.263,44.95],[-55.151,45.08],[-55.032,45.208],[-54.901,45.332],[-54.76,45.452],[-54.609,45.57],[-54.479,45.695],[-54.384,45.832],[-54.32,45.979],[-54.255,46.127],[-54.177,46.271],[-54.087,46.41],[-53.988,46.547],[-53.888,46.684],[-53.787,46.82],[-53.686,46.957],[-53.584,47.094],[-53.482,47.231],[-53.374,47.366],[-53.263,47.501],[-53.153,47.636],[-53.053,47.774],[-52.954,47.914],[-52.851,48.052],[-52.755,48.186],[-52.665,48.319]]}},{"type":"Feature","properties":{"kind":"occl","line":5,"px_len":538},"geometry":{"type":"LineString","coordinates":[[-52.665,48.319],[-52.568,48.464],[-52.478,48.604],[-52.386,48.747],[-52.297,48.892],[-52.209,49.037],[-52.124,49.184],[-52.039,49.332],[-51.956,49.48],[-51.87,49.627],[-51.78,49.773],[-51.682,49.917],[-51.583,50.06],[-51.474,50.201],[-51.353,50.337],[-51.227,50.472],[-51.128,50.617],[-51.058,50.772],[-50.998,50.932],[-50.925,51.086],[-50.841,51.238],[-50.767,51.393],[-50.724,51.56],[-50.73,51.744],[-50.769,51.933],[-50.818,52.126],[-50.851,52.316],[-50.865,52.504],[-50.86,52.685],[-50.843,52.863],[-50.829,53.041],[-50.817,53.221],[-50.808,53.402],[-50.797,53.582],[-50.787,53.763],[-50.78,53.945],[-50.776,54.129],[-50.777,54.314],[-50.787,54.502],[-50.807,54.694],[-50.831,54.887],[-50.849,55.079],[-50.851,55.265],[-50.832,55.445],[-50.802,55.619],[-50.831,55.788],[-50.933,55.958],[-51.084,56.136],[-51.222,56.33],[-51.341,56.537],[-51.461,56.74],[-51.622,56.905],[-51.845,57.022],[-52.087,57.094],[-52.305,57.142]]}}]}