{"type":"FeatureCollection","properties":{"chart":"ana","src":"Z__C_EDZW_20261002133554_tka01,ana_bwkman_dwdna_O_000000_000000_202610021200_WV12.png","valid_time":"2026-10-02T12:00:00+00:00"},"features":[{"type":"Feature","properties":{"kind":"warm","line":0,"px_len":225},"geometry":{"type":"LineString","coordinates":[[40.116,42.645],[40.253,42.762],[40.39,42.872],[40.545,42.977],[40.716,43.076],[40.896,43.171],[41.076,43.265],[41.26,43.358],[41.475,43.431],[41.712,43.464],[41.936,43.443],[42.128,43.383],[42.305,43.307],[42.485,43.235],[42.669,43.167],[42.854,43.102],[43.047,43.044],[43.245,42.993],[43.445,42.944],[43.645,42.893],[43.842,42.841],[44.035,42.784],[44.197,42.739],[44.311,42.711]]}},{"type":"Feature","properties":{"kind":"warm","line":1,"px_len":741},"geometry":{"type":"LineString","coordinates":[[-0.412,42.705],[-0.231,42.826],[-0.057,42.946],[0.122,43.07],[0.3,43.198],[0.476,43.34],[0.637,43.497],[0.776,43.663],[0.904,43.827],[1.047,43.982],[1.219,44.111],[1.411,44.202],[1.612,44.261],[1.814,44.312],[2.016,44.367],[2.217,44.431],[2.418,44.502],[2.618,44.58],[2.818,44.656],[3.021,44.723],[3.226,44.782],[3.433,44.831],[3.641,44.874],[3.85,44.911],[4.06,44.942],[4.271,44.97],[4.483,44.995],[4.695,45.017],[4.907,45.039],[5.12,45.057],[5.332,45.082],[5.544,45.111],[5.756,45.151],[5.967,45.2],[6.177,45.26],[6.387,45.333],[6.598,45.405],[6.811,45.457],[7.026,45.486],[7.241,45.506],[7.457,45.533],[7.672,45.566],[7.888,45.611],[8.103,45.671],[8.318,45.75],[8.534,45.846],[8.751,45.954],[8.968,46.07],[9.187,46.191],[9.408,46.318],[9.629,46.452],[9.853,46.595],[10.073,46.744],[10.285,46.895],[10.48,47.047],[10.662,47.198],[10.83,47.349],[10.976,47.5],[11.098,47.652],[11.19,47.804],[11.26,47.957],[11.32,48.111],[11.375,48.264],[11.455,48.417],[11.582,48.568],[11.76,48.707],[11.962,48.846],[12.155,48.988],[12.33,49.139],[12.478,49.289],[12.612,49.441],[12.735,49.593],[12.851,49.745],[12.961,49.893],[13.063,50.05]]}},{"type":"Feature","properties":{"kind":"cold","line":1,"px_len":924},"geometry":{"type":"LineString","coordinates":[[13.063,50.05],[13.176,50.205],[13.273,50.355],[13.367,50.508],[13.459,50.661],[13.545,50.815],[13.634,50.969],[13.731,51.122],[13.843,51.275],[13.972,51.427],[14.116,51.578],[14.224,51.731],[14.279,51.887],[14.289,52.046],[14.307,52.204],[14.34,52.362],[14.386,52.519],[14.442,52.675],[14.511,52.831],[14.588,52.987],[14.669,53.143],[14.75,53.299],[14.833,53.454],[14.916,53.61],[14.999,53.766],[15.079,53.923],[15.161,54.079],[15.249,54.235],[15.344,54.391],[15.45,54.546],[15.573,54.7],[15.706,54.854],[15.79,55.01],[15.812,55.171],[15.786,55.335],[15.769,55.499],[15.768,55.662],[15.781,55.824],[15.796,55.986],[15.8,56.149],[15.794,56.312],[15.783,56.476],[15.768,56.641],[15.749,56.806],[15.726,56.971],[15.697,57.137],[15.664,57.303],[15.624,57.469],[15.585,57.636],[15.555,57.802],[15.539,57.967],[15.531,58.133],[15.523,58.298],[15.498,58.461],[15.374,58.618],[15.141,58.77],[14.851,58.926],[14.559,59.089],[14.265,59.257],[13.967,59.418],[13.664,59.571],[13.357,59.714],[13.046,59.855],[12.733,59.996],[12.42,60.144],[12.123,60.303],[11.868,60.471],[11.667,60.641],[11.527,60.809],[11.428,60.977],[11.309,61.141],[11.103,61.304],[10.832,61.468],[10.585,61.637],[10.391,61.806],[10.232,61.974],[10.109,62.141],[10.01,62.309],[9.928,62.476],[9.854,62.644],[9.793,62.811],[9.748,62.979],[9.725,63.147],[9.716,63.314],[9.729,63.482],[9.767,63.65],[9.816,63.818],[9.818,63.986],[9.771,64.155],[9.695,64.323],[9.645,64.492],[9.621,64.66],[9.631,64.795],[9.66,64.88]]}},{"type":"Feature","properties":{"kind":"warm","line":2,"px_len":619},"geometry":{"type":"LineString","coordinates":[[33.023,69.126],[32.887,69.293],[32.855,69.47],[32.878,69.653],[32.939,69.831],[33.04,70.003],[33.159,70.173],[33.301,70.34],[33.457,70.505],[33.568,70.677],[33.558,70.868],[33.393,71.071],[33.159,71.279],[32.916,71.489],[32.723,71.701],[32.593,71.907],[32.513,72.105],[32.465,72.3],[32.425,72.493],[32.384,72.686],[32.343,72.879],[32.3,73.073],[32.265,73.265],[32.241,73.456],[32.249,73.644],[32.305,73.825],[32.404,74.002],[32.529,74.177],[32.665,74.35],[32.756,74.529],[32.703,74.725],[32.445,74.929],[32.051,75.125],[31.616,75.313],[31.186,75.509],[30.8,75.72],[30.435,75.937],[30.055,76.158],[29.627,76.377],[29.157,76.586],[28.661,76.788],[28.149,76.988],[27.646,77.194],[27.2,77.404],[26.822,77.614],[26.41,77.814],[25.881,77.996],[25.22,78.148],[24.495,78.27],[23.743,78.381],[22.977,78.491],[22.206,78.607],[21.434,78.734],[20.659,78.874],[19.835,78.981],[18.95,79.036],[18.031,79.056],[17.104,79.066],[16.262,79.03],[15.629,78.927],[15.228,78.768],[14.96,78.606],[14.755,78.459]]}},{"type":"Feature","properties":{"kind":"cold","line":2,"px_len":540},"geometry":{"type":"LineString","coordinates":[[14.755,78.459],[14.632,78.282],[14.525,78.112],[14.464,77.937],[14.434,77.761],[14.456,77.585],[14.504,77.408],[14.584,77.231],[14.692,77.053],[14.837,76.874],[15.052,76.694],[15.318,76.512],[15.607,76.329],[15.884,76.146],[16.137,75.963],[16.362,75.781],[16.561,75.599],[16.732,75.418],[16.874,75.238],[16.988,75.058],[17.089,74.879],[17.19,74.699],[17.317,74.519],[17.477,74.338],[17.675,74.154],[17.798,73.974],[17.78,73.799],[17.657,73.628],[17.545,73.457],[17.46,73.286],[17.397,73.113],[17.336,72.94],[17.273,72.768],[17.194,72.597],[17.117,72.425],[17.025,72.254],[16.903,72.085],[16.757,71.916],[16.593,71.748],[16.417,71.581],[16.248,71.414],[16.103,71.246],[15.973,71.077],[15.853,70.908],[15.756,70.738],[15.575,70.576],[15.259,70.421],[14.832,70.268],[14.425,70.108],[14.076,69.945],[13.776,69.781],[13.507,69.616],[13.247,69.45],[13.006,69.29],[12.788,69.133]]}},{"type":"Feature","properties":{"kind":"warm","line":3,"px_len":554},"geometry":{"type":"LineString","coordinates":[[-31.482,55.788],[-31.571,55.964],[-31.667,56.128],[-31.766,56.295],[-31.865,56.463],[-31.959,56.634],[-32.042,56.811],[-32.105,56.998],[-32.147,57.196],[-32.177,57.399],[-32.217,57.599],[-32.317,57.77],[-32.485,57.91],[-32.702,58.026],[-32.919,58.144],[-33.126,58.266],[-33.324,58.393],[-33.515,58.524],[-33.702,58.658],[-33.887,58.794],[-34.071,58.93],[-34.259,59.065],[-34.451,59.199],[-34.642,59.333],[-34.83,59.47],[-35.009,59.612],[-35.178,59.76],[-35.339,59.912],[-35.5,60.066],[-35.702,60.199],[-35.961,60.304],[-36.269,60.386],[-36.579,60.466],[-36.883,60.549],[-37.175,60.639],[-37.463,60.731],[-37.741,60.829],[-38.018,60.928],[-38.291,61.029],[-38.564,61.131],[-38.829,61.237],[-39.086,61.349],[-39.332,61.467],[-39.573,61.588],[-39.819,61.708],[-40.115,61.8],[-40.473,61.859],[-40.869,61.896],[-41.261,61.934],[-41.639,61.98],[-42.004,62.033],[-42.35,62.097],[-42.68,62.171],[-43.001,62.251],[-43.318,62.333],[-43.565,62.402],[-43.712,62.452]]}},{"type":"Feature","properties":{"kind":"occl","line":3,"px_len":434},"geometry":{"type":"LineString","coordinates":[[-43.712,62.452],[-43.924,62.606],[-44.114,62.764],[-44.3,62.93],[-44.513,63.082],[-44.758,63.215],[-45.022,63.337],[-45.28,63.465],[-45.53,63.598],[-45.777,63.735],[-46.048,63.858],[-46.363,63.952],[-46.725,64.018],[-47.095,64.079],[-47.459,64.143],[-47.814,64.214],[-48.161,64.291],[-48.5,64.374],[-48.835,64.461],[-49.174,64.545],[-49.52,64.626],[-49.872,64.702],[-50.22,64.783],[-50.567,64.865],[-50.91,64.951],[-51.25,65.039],[-51.621,65.106],[-52.043,65.134],[-52.508,65.127],[-52.976,65.116],[-53.441,65.105],[-53.919,65.078],[-54.398,65.018],[-54.867,64.931],[-55.316,64.834],[-55.758,64.736],[-56.104,64.618],[-56.315,64.474],[-56.351,64.296],[-56.297,64.101],[-56.24,63.905],[-56.232,63.719],[-56.268,63.542],[-56.317,63.405],[-56.357,63.321]]}},{"type":"Feature","properties":{"kind":"warm","line":4,"px_len":530},"geometry":{"type":"LineString","coordinates":[[-34.237,45.136],[-34.165,45.306],[-34.092,45.468],[-34.017,45.633],[-33.939,45.797],[-33.86,45.96],[-33.774,46.119],[-33.681,46.273],[-33.578,46.421],[-33.464,46.561],[-33.335,46.691],[-33.201,46.817],[-33.064,46.941],[-32.93,47.069],[-32.796,47.197],[-32.667,47.329],[-32.515,47.445],[-32.317,47.526],[-32.068,47.569],[-31.801,47.597],[-31.533,47.625],[-31.272,47.657],[-31.017,47.693],[-30.766,47.733],[-30.517,47.773],[-30.265,47.811],[-30.01,47.846],[-29.75,47.876],[-29.486,47.904],[-29.219,47.927],[-28.949,47.948],[-28.677,47.966],[-28.403,47.982],[-28.128,47.997],[-27.853,48.011],[-27.582,48.027],[-27.317,48.048],[-27.066,48.082],[-26.827,48.125],[-26.599,48.18],[-26.375,48.237],[-26.142,48.287],[-25.88,48.309],[-25.587,48.294],[-25.276,48.257],[-24.967,48.221],[-24.666,48.201],[-24.385,48.201],[-24.117,48.212],[-23.859,48.231],[-23.604,48.254],[-23.351,48.279],[-23.108,48.303],[-22.876,48.33]]}},{"type":"Feature","properties":{"kind":"cold","line":4,"px_len":736},"geometry":{"type":"LineString","coordinates":[[-22.876,48.33],[-22.617,48.354],[-22.372,48.379],[-22.123,48.406],[-21.874,48.433],[-21.627,48.461],[-21.381,48.491],[-21.134,48.519],[-20.883,48.542],[-20.624,48.556],[-20.356,48.558],[-20.085,48.557],[-19.84,48.584],[-19.624,48.647],[-19.423,48.727],[-19.215,48.801],[-19.003,48.869],[-18.787,48.933],[-18.568,48.993],[-18.348,49.053],[-18.128,49.113],[-17.91,49.176],[-17.69,49.238],[-17.473,49.303],[-17.257,49.37],[-17.043,49.44],[-16.83,49.512],[-16.618,49.586],[-16.407,49.662],[-16.197,49.74],[-15.989,49.821],[-15.78,49.902],[-15.572,49.985],[-15.363,50.067],[-15.153,50.149],[-14.943,50.232],[-14.733,50.316],[-14.521,50.398],[-14.306,50.476],[-14.088,50.55],[-13.863,50.616],[-13.635,50.678],[-13.412,50.748],[-13.215,50.858],[-13.041,51.003],[-12.871,51.157],[-12.691,51.299],[-12.507,51.436],[-12.322,51.573],[-12.14,51.717],[-11.961,51.868],[-11.785,52.025],[-11.613,52.191],[-11.444,52.365],[-11.278,52.547],[-11.117,52.738],[-10.961,52.936],[-10.817,53.138],[-10.678,53.338],[-10.529,53.538],[-10.36,53.726],[-10.178,53.9],[-10.054,54.065],[-10.023,54.227],[-10.067,54.387],[-10.118,54.547],[-10.157,54.71],[-10.181,54.876],[-10.182,55.047],[-10.165,55.222],[-10.133,55.4],[-10.086,55.581],[-10.012,55.765],[-9.919,55.926],[-9.828,56.044]]}},{"type":"Feature","properties":{"kind":"warm","line":4,"px_len":597},"geometry":{"type":"LineString","coordinates":[[-9.828,56.044],[-9.639,56.246],[-9.448,56.426],[-9.24,56.593],[-9.023,56.748],[-8.804,56.903],[-8.589,57.069],[-8.394,57.249],[-8.22,57.428],[-8.044,57.596],[-7.836,57.74],[-7.583,57.85],[-7.308,57.932],[-7.025,58.003],[-6.745,58.078],[-6.466,58.16],[-6.194,58.256],[-5.929,58.366],[-5.669,58.492],[-5.412,58.626],[-5.157,58.769],[-4.911,58.924],[-4.688,59.091],[-4.508,59.271],[-4.373,59.454],[-4.284,59.635],[-4.196,59.815],[-4.072,59.995],[-3.876,60.169],[-3.631,60.324],[-3.358,60.472],[-3.081,60.622],[-2.805,60.782],[-2.527,60.941],[-2.229,61.063],[-1.911,61.141],[-1.577,61.182],[-1.242,61.224],[-0.908,61.27],[-0.575,61.319],[-0.239,61.365],[0.097,61.41],[0.388,61.485],[0.597,61.611],[0.735,61.781],[0.835,61.957],[0.836,62.125],[0.73,62.287],[0.573,62.445],[0.417,62.603],[0.27,62.761],[0.132,62.921],[-0.002,63.08],[-0.126,63.241],[-0.243,63.402],[-0.357,63.564],[-0.473,63.726],[-0.586,63.887],[-0.688,64.05],[-0.782,64.196],[-0.854,64.311]]}},{"type":"Feature","properties":{"kind":"occl","line":4,"px_len":1111},"geometry":{"type":"LineString","coordinates":[[-0.854,64.311],[-0.866,64.485],[-0.859,64.653],[-0.826,64.828],[-0.776,65.003],[-0.706,65.18],[-0.612,65.359],[-0.496,65.539],[-0.386,65.719],[-0.339,65.894],[-0.361,66.064],[-0.415,66.233],[-0.453,66.403],[-0.484,66.573],[-0.519,66.743],[-0.615,66.909],[-0.782,67.07],[-0.977,67.229],[-1.158,67.39],[-1.318,67.552],[-1.459,67.715],[-1.588,67.879],[-1.71,68.044],[-1.832,68.21],[-1.968,68.374],[-2.115,68.537],[-2.275,68.7],[-2.445,68.862],[-2.629,69.023],[-2.831,69.183],[-3.05,69.342],[-3.28,69.499],[-3.518,69.656],[-3.753,69.814],[-3.971,69.973],[-4.168,70.133],[-4.355,70.295],[-4.527,70.458],[-4.68,70.623],[-4.893,70.782],[-5.218,70.933],[-5.644,71.074],[-6.058,71.217],[-6.449,71.361],[-6.846,71.504],[-7.321,71.635],[-7.896,71.733],[-8.502,71.776],[-9.09,71.782],[-9.662,71.772],[-10.24,71.765],[-10.824,71.762],[-11.414,71.763],[-12.005,71.761],[-12.591,71.756],[-13.175,71.746],[-13.757,71.734],[-14.342,71.722],[-14.94,71.719],[-15.547,71.719],[-16.162,71.723],[-16.772,71.722],[-17.376,71.714],[-17.976,71.703],[-18.54,71.718],[-18.972,71.796],[-19.264,71.934],[-19.479,72.095],[-19.688,72.258],[-19.894,72.421],[-20.105,72.584],[-20.318,72.747],[-20.529,72.911],[-20.736,73.076],[-20.923,73.245],[-21.003,73.433],[-20.906,73.636],[-20.659,73.838],[-20.345,74.033],[-20.031,74.234],[-19.732,74.445],[-19.366,74.628],[-18.904,74.768],[-18.359,74.871],[-17.804,74.971],[-17.247,75.072],[-16.699,75.18],[-16.159,75.296],[-15.629,75.42],[-15.102,75.551],[-14.586,75.691],[-14.081,75.841],[-13.58,76.0],[-13.073,76.161],[-12.558,76.323],[-12.034,76.485],[-11.499,76.648],[-10.958,76.815],[-10.414,76.986],[-9.854,77.157],[-9.271,77.32],[-8.657,77.472],[-8.021,77.615],[-7.539,77.766],[-7.348,77.931],[-7.417,78.106],[-7.515,78.284],[-7.584,78.463],[-7.615,78.644],[-7.617,78.828],[-7.617,79.007],[-7.626,79.195]]}},{"type":"Feature","properties":{"kind":"warm","line":5,"px_len":466},"geometry":{"type":"LineString","coordinates":[[2.331,53.81],[2.332,53.975],[2.34,54.133],[2.35,54.296],[2.368,54.459],[2.395,54.623],[2.437,54.788],[2.498,54.955],[2.578,55.122],[2.67,55.291],[2.751,55.459],[2.766,55.623],[2.713,55.783],[2.629,55.94],[2.557,56.099],[2.498,56.258],[2.456,56.419],[2.428,56.58],[2.413,56.743],[2.401,56.906],[2.394,57.07],[2.384,57.234],[2.375,57.398],[2.364,57.562],[2.354,57.726],[2.353,57.89],[2.366,58.056],[2.396,58.223],[2.441,58.391],[2.495,58.56],[2.524,58.728],[2.486,58.891],[2.372,59.049],[2.233,59.206],[2.1,59.364],[1.983,59.522],[1.879,59.682],[1.79,59.843],[1.712,60.004],[1.633,60.166],[1.552,60.327],[1.454,60.488],[1.339,60.647],[1.208,60.806],[1.072,60.964],[0.921,61.121],[0.77,61.256],[0.644,61.353]]}},{"type":"Feature","properties":{"kind":"occl","line":6,"px_len":388},"geometry":{"type":"LineString","coordinates":[[-31.897,66.573],[-31.648,66.724],[-31.39,66.861],[-31.119,66.998],[-30.833,67.13],[-30.529,67.254],[-30.209,67.372],[-29.876,67.485],[-29.521,67.589],[-29.142,67.681],[-28.729,67.759],[-28.287,67.822],[-27.827,67.876],[-27.369,67.931],[-26.922,67.992],[-26.492,68.061],[-26.073,68.136],[-25.664,68.217],[-25.263,68.303],[-24.876,68.397],[-24.5,68.498],[-24.128,68.603],[-23.759,68.71],[-23.399,68.823],[-23.054,68.947],[-22.725,69.081],[-22.386,69.212],[-22.032,69.335],[-21.671,69.456],[-21.322,69.586],[-20.996,69.732],[-20.696,69.895],[-20.44,70.087],[-20.219,70.303],[-20.047,70.531],[-19.893,70.757],[-19.737,70.983],[-19.542,71.209],[-19.32,71.408],[-19.112,71.567]]}},{"type":"Feature","properties":{"kind":"cold","line":7,"px_len":806},"geometry":{"type":"LineString","coordinates":[[-50.81,57.685],[-51.09,57.592],[-51.316,57.482],[-51.526,57.358],[-51.728,57.231],[-51.919,57.102],[-52.099,56.97],[-52.27,56.836],[-52.431,56.698],[-52.582,56.558],[-52.719,56.414],[-52.844,56.267],[-52.997,56.129],[-53.203,56.006],[-53.458,55.897],[-53.703,55.785],[-53.929,55.668],[-54.139,55.547],[-54.343,55.423],[-54.541,55.299],[-54.74,55.174],[-54.936,55.05],[-55.135,54.926],[-55.335,54.802],[-55.534,54.678],[-55.735,54.554],[-55.934,54.431],[-56.129,54.306],[-56.31,54.178],[-56.472,54.045],[-56.623,53.909],[-56.767,53.771],[-56.905,53.632],[-57.096,53.507],[-57.35,53.398],[-57.638,53.298],[-57.902,53.191],[-58.141,53.078],[-58.361,52.96],[-58.571,52.84],[-58.782,52.719],[-58.993,52.599],[-59.205,52.479],[-59.418,52.359],[-59.633,52.239],[-59.847,52.12],[-60.063,52.0],[-60.279,51.881],[-60.495,51.761],[-60.709,51.641],[-60.911,51.518],[-61.093,51.391],[-61.254,51.259],[-61.398,51.124],[-61.529,50.986],[-61.688,50.862],[-61.912,50.763],[-62.193,50.674],[-62.476,50.573],[-62.733,50.461],[-62.965,50.343],[-63.18,50.222],[-63.389,50.1],[-63.599,49.977],[-63.81,49.855],[-64.021,49.733],[-64.233,49.611],[-64.447,49.488],[-64.662,49.366],[-64.877,49.244],[-65.091,49.121],[-65.308,48.999],[-65.533,48.878],[-65.774,48.76],[-66.032,48.644],[-66.292,48.528],[-66.534,48.409],[-66.702,48.277],[-66.756,48.127],[-66.688,47.966],[-66.559,47.824],[-66.446,47.725]]}},{"type":"Feature","properties":{"kind":"warm","line":8,"px_len":539},"geometry":{"type":"LineString","coordinates":[[65.346,56.363],[65.543,56.499],[65.756,56.609],[65.999,56.702],[66.256,56.783],[66.512,56.867],[66.762,56.955],[67.008,57.048],[67.248,57.147],[67.483,57.251],[67.713,57.36],[67.943,57.471],[68.174,57.581],[68.407,57.691],[68.643,57.799],[68.88,57.907],[69.085,58.027],[69.222,58.183],[69.314,58.377],[69.433,58.579],[69.59,58.766],[69.772,58.933],[69.971,59.086],[70.185,59.226],[70.409,59.36],[70.633,59.495],[70.849,59.639],[71.057,59.792],[71.27,59.941],[71.507,60.071],[71.791,60.157],[72.113,60.208],[72.452,60.243],[72.785,60.283],[73.111,60.33],[73.431,60.384],[73.745,60.443],[74.054,60.509],[74.365,60.573],[74.682,60.632],[75.0,60.69],[75.32,60.747],[75.641,60.803],[75.963,60.858],[76.286,60.913],[76.612,60.965],[76.938,61.017],[77.266,61.068],[77.596,61.117],[77.927,61.164],[78.264,61.206],[78.606,61.24],[78.946,61.242],[79.236,61.189],[79.458,61.089]]}}]}