{"type":"FeatureCollection","properties":{"chart":"ana","src":"Z__C_EDZW_20261003095438_tka01,ana_bwkman_dwdna_O_000000_000000_202610030600_WV12.png","valid_time":"2026-10-03T06:00:00+00:00"},"features":[{"type":"Feature","properties":{"kind":"warm","line":0,"px_len":502},"geometry":{"type":"LineString","coordinates":[[-0.549,43.02],[-0.355,43.092],[-0.168,43.161],[0.021,43.239],[0.21,43.327],[0.397,43.421],[0.586,43.513],[0.782,43.572],[0.986,43.594],[1.196,43.591],[1.405,43.59],[1.613,43.594],[1.819,43.606],[2.025,43.623],[2.229,43.645],[2.433,43.672],[2.637,43.701],[2.841,43.73],[3.046,43.759],[3.25,43.788],[3.455,43.818],[3.659,43.848],[3.864,43.878],[4.069,43.909],[4.274,43.942],[4.48,43.974],[4.685,44.005],[4.892,44.036],[5.098,44.067],[5.304,44.097],[5.511,44.128],[5.718,44.165],[5.924,44.21],[6.129,44.269],[6.334,44.34],[6.539,44.427],[6.744,44.526],[6.95,44.618],[7.158,44.684],[7.369,44.723],[7.58,44.753],[7.791,44.789],[8.002,44.834],[8.214,44.892],[8.425,44.97],[8.637,45.071],[8.849,45.194],[9.053,45.333],[9.246,45.481],[9.423,45.631],[9.544,45.741],[9.604,45.8]]}},{"type":"Feature","properties":{"kind":"cold","line":0,"px_len":267},"geometry":{"type":"LineString","coordinates":[[9.604,45.8],[9.775,45.955],[9.931,46.103],[10.082,46.255],[10.231,46.406],[10.374,46.558],[10.514,46.709],[10.647,46.86],[10.779,47.012],[10.917,47.163],[11.075,47.314],[11.267,47.463],[11.465,47.606],[11.614,47.751],[11.7,47.901],[11.763,48.053],[11.837,48.206],[11.932,48.358],[12.046,48.51],[12.17,48.661],[12.294,48.813],[12.414,48.964],[12.531,49.116],[12.645,49.268],[12.757,49.42],[12.866,49.572],[12.963,49.708],[13.04,49.815]]}},{"type":"Feature","properties":{"kind":"occl","line":0,"px_len":1098},"geometry":{"type":"LineString","coordinates":[[13.04,49.815],[13.144,49.971],[13.249,50.12],[13.358,50.273],[13.466,50.425],[13.578,50.577],[13.7,50.729],[13.841,50.88],[14.007,51.03],[14.2,51.178],[14.425,51.324],[14.626,51.472],[14.773,51.622],[14.879,51.775],[14.998,51.927],[15.142,52.077],[15.306,52.226],[15.451,52.377],[15.554,52.53],[15.62,52.685],[15.69,52.841],[15.771,52.996],[15.862,53.15],[15.977,53.303],[16.122,53.453],[16.29,53.603],[16.469,53.751],[16.658,53.898],[16.855,54.045],[17.059,54.191],[17.267,54.337],[17.476,54.482],[17.687,54.627],[17.906,54.771],[18.147,54.913],[18.425,55.05],[18.735,55.174],[19.028,55.292],[19.254,55.419],[19.419,55.562],[19.577,55.711],[19.764,55.856],[19.977,55.999],[20.192,56.142],[20.355,56.289],[20.454,56.444],[20.519,56.603],[20.595,56.76],[20.685,56.916],[20.782,57.072],[20.892,57.226],[21.012,57.38],[21.134,57.533],[21.25,57.687],[21.353,57.843],[21.448,57.999],[21.529,58.157],[21.602,58.317],[21.668,58.477],[21.732,58.638],[21.788,58.8],[21.837,58.963],[21.887,59.126],[21.933,59.289],[21.992,59.451],[22.056,59.613],[22.137,59.773],[22.228,59.932],[22.309,60.093],[22.339,60.259],[22.325,60.43],[22.315,60.602],[22.328,60.77],[22.342,60.939],[22.32,61.112],[22.233,61.292],[22.074,61.474],[21.873,61.66],[21.68,61.845],[21.518,62.032],[21.392,62.215],[21.294,62.396],[21.217,62.574],[21.145,62.752],[21.078,62.929],[21.014,63.106],[20.965,63.282],[20.943,63.455],[20.951,63.626],[20.979,63.795],[21.025,63.962],[21.098,64.127],[21.199,64.29],[21.282,64.455],[21.344,64.622],[21.385,64.79],[21.44,64.958],[21.501,65.125],[21.568,65.292],[21.613,65.461],[21.612,65.634],[21.583,65.81],[21.566,65.985],[21.577,66.158],[21.606,66.329],[21.663,66.497],[21.753,66.664],[21.867,66.828],[22.006,66.99],[22.143,67.139],[22.263,67.264]]}},{"type":"Feature","properties":{"kind":"warm","line":1,"px_len":382},"geometry":{"type":"LineString","coordinates":[[-25.436,64.947],[-25.942,64.975],[-26.445,64.994],[-26.948,64.999],[-27.394,64.969],[-27.768,64.899],[-28.097,64.804],[-28.422,64.707],[-28.753,64.614],[-29.09,64.526],[-29.432,64.44],[-29.781,64.358],[-30.135,64.279],[-30.487,64.2],[-30.834,64.118],[-31.176,64.034],[-31.514,63.948],[-31.844,63.859],[-32.168,63.767],[-32.486,63.672],[-32.804,63.578],[-33.132,63.489],[-33.47,63.405],[-33.816,63.326],[-34.168,63.249],[-34.514,63.169],[-34.808,63.066],[-35.039,62.933],[-35.226,62.781],[-35.411,62.629],[-35.603,62.481],[-35.799,62.335],[-35.998,62.192],[-36.195,62.048],[-36.379,61.9],[-36.548,61.745],[-36.699,61.583],[-36.819,61.415],[-36.874,61.291],[-36.876,61.226]]}},{"type":"Feature","properties":{"kind":"cold","line":1,"px_len":1105},"geometry":{"type":"LineString","coordinates":[[-36.876,61.226],[-36.602,61.118],[-36.356,61.008],[-36.102,60.896],[-35.845,60.786],[-35.591,60.676],[-35.34,60.565],[-35.091,60.453],[-34.839,60.343],[-34.588,60.233],[-34.406,60.095],[-34.33,59.917],[-34.34,59.7],[-34.348,59.477],[-34.336,59.255],[-34.327,59.032],[-34.338,58.812],[-34.379,58.599],[-34.446,58.398],[-34.533,58.209],[-34.637,58.031],[-34.757,57.861],[-34.891,57.7],[-35.037,57.546],[-35.193,57.399],[-35.364,57.26],[-35.549,57.13],[-35.744,57.005],[-35.944,56.884],[-36.145,56.764],[-36.354,56.649],[-36.568,56.536],[-36.787,56.427],[-37.009,56.32],[-37.235,56.215],[-37.462,56.111],[-37.693,56.01],[-37.927,55.911],[-38.162,55.812],[-38.401,55.715],[-38.643,55.62],[-38.889,55.528],[-39.136,55.436],[-39.383,55.344],[-39.617,55.246],[-39.838,55.142],[-40.051,55.034],[-40.259,54.924],[-40.462,54.812],[-40.713,54.723],[-41.016,54.659],[-41.351,54.61],[-41.665,54.551],[-41.96,54.482],[-42.243,54.408],[-42.522,54.331],[-42.8,54.254],[-43.077,54.176],[-43.356,54.099],[-43.638,54.023],[-43.92,53.947],[-44.204,53.871],[-44.486,53.795],[-44.769,53.718],[-45.051,53.641],[-45.333,53.564],[-45.613,53.485],[-45.892,53.406],[-46.169,53.326],[-46.444,53.245],[-46.716,53.162],[-46.985,53.079],[-47.253,52.994],[-47.51,52.905],[-47.747,52.808],[-47.963,52.703],[-48.161,52.59],[-48.346,52.473],[-48.555,52.375],[-48.821,52.31],[-49.14,52.263],[-49.463,52.204],[-49.762,52.129],[-50.036,52.045],[-50.294,51.954],[-50.548,51.862],[-50.803,51.77],[-51.057,51.678],[-51.31,51.585],[-51.561,51.491],[-51.81,51.396],[-52.054,51.3],[-52.297,51.202],[-52.538,51.104],[-52.777,51.006],[-53.013,50.906],[-53.248,50.806],[-53.482,50.705],[-53.712,50.603],[-53.941,50.5],[-54.163,50.396],[-54.374,50.287],[-54.562,50.171],[-54.731,50.05],[-54.884,49.924],[-55.03,49.796],[-55.215,49.682],[-55.458,49.59],[-55.741,49.51],[-56.007,49.419],[-56.211,49.337],[-56.337,49.277]]}},{"type":"Feature","properties":{"kind":"cold","line":2,"px_len":477},"geometry":{"type":"LineString","coordinates":[[-57.863,48.325],[-57.997,48.191],[-58.101,48.056],[-58.214,47.92],[-58.383,47.8],[-58.603,47.694],[-58.825,47.588],[-59.027,47.476],[-59.209,47.359],[-59.376,47.238],[-59.534,47.115],[-59.69,46.991],[-59.847,46.868],[-60.006,46.745],[-60.165,46.623],[-60.328,46.501],[-60.494,46.38],[-60.663,46.26],[-60.834,46.141],[-61.005,46.021],[-61.177,45.902],[-61.349,45.783],[-61.525,45.664],[-61.703,45.546],[-61.883,45.429],[-62.059,45.311],[-62.238,45.193],[-62.417,45.075],[-62.597,44.957],[-62.776,44.839],[-62.957,44.722],[-63.139,44.604],[-63.322,44.487],[-63.505,44.37],[-63.687,44.252],[-63.869,44.135],[-64.053,44.017],[-64.235,43.899],[-64.403,43.778],[-64.552,43.653],[-64.68,43.524],[-64.793,43.392],[-64.908,43.26],[-65.061,43.136],[-65.227,43.015],[-65.354,42.886],[-65.424,42.746],[-65.471,42.617],[-65.508,42.516]]}},{"type":"Feature","properties":{"kind":"warm","line":3,"px_len":693},"geometry":{"type":"LineString","coordinates":[[-27.864,50.876],[-27.62,50.917],[-27.401,50.986],[-27.183,51.065],[-26.966,51.146],[-26.749,51.227],[-26.53,51.307],[-26.308,51.385],[-26.091,51.467],[-25.877,51.552],[-25.669,51.644],[-25.461,51.735],[-25.253,51.827],[-25.017,51.895],[-24.738,51.92],[-24.426,51.896],[-24.101,51.85],[-23.769,51.802],[-23.428,51.761],[-23.09,51.721],[-22.767,51.668],[-22.463,51.6],[-22.179,51.523],[-21.907,51.442],[-21.646,51.356],[-21.391,51.267],[-21.142,51.177],[-20.896,51.085],[-20.65,50.992],[-20.396,50.903],[-20.122,50.82],[-19.82,50.75],[-19.505,50.698],[-19.192,50.663],[-18.882,50.625],[-18.584,50.565],[-18.316,50.479],[-18.067,50.385],[-17.802,50.296],[-17.508,50.222],[-17.2,50.168],[-16.901,50.134],[-16.614,50.114],[-16.334,50.103],[-16.058,50.096],[-15.784,50.091],[-15.513,50.089],[-15.244,50.089],[-14.978,50.092],[-14.714,50.097],[-14.456,50.111],[-14.204,50.133],[-13.96,50.166],[-13.719,50.204],[-13.484,50.25],[-13.25,50.298],[-13.006,50.333],[-12.742,50.335],[-12.457,50.304],[-12.169,50.265],[-11.888,50.236],[-11.615,50.22],[-11.352,50.218],[-11.095,50.227],[-10.844,50.244],[-10.594,50.263],[-10.345,50.285],[-10.097,50.308],[-9.852,50.333],[-9.664,50.352],[-9.553,50.36]]}},{"type":"Feature","properties":{"kind":"cold","line":3,"px_len":652},"geometry":{"type":"LineString","coordinates":[[-9.553,50.36],[-9.306,50.394],[-9.068,50.426],[-8.827,50.46],[-8.586,50.496],[-8.347,50.536],[-8.11,50.581],[-7.873,50.628],[-7.635,50.671],[-7.394,50.71],[-7.15,50.74],[-6.902,50.765],[-6.65,50.78],[-6.401,50.802],[-6.165,50.853],[-5.941,50.933],[-5.719,51.019],[-5.494,51.098],[-5.264,51.169],[-5.031,51.234],[-4.797,51.298],[-4.562,51.361],[-4.328,51.428],[-4.094,51.498],[-3.862,51.573],[-3.63,51.653],[-3.399,51.735],[-3.169,51.823],[-2.939,51.915],[-2.71,52.01],[-2.481,52.111],[-2.253,52.217],[-2.025,52.326],[-1.795,52.434],[-1.562,52.536],[-1.325,52.627],[-1.082,52.706],[-0.837,52.777],[-0.606,52.855],[-0.425,52.97],[-0.285,53.127],[-0.137,53.304],[0.048,53.484],[0.261,53.667],[0.486,53.85],[0.713,54.033],[0.933,54.215],[1.145,54.395],[1.349,54.575],[1.553,54.754],[1.767,54.928],[1.998,55.09],[2.224,55.24],[2.376,55.392],[2.444,55.553],[2.474,55.718],[2.513,55.883],[2.574,56.051],[2.665,56.22],[2.768,56.39],[2.869,56.56],[2.957,56.73],[3.035,56.898],[3.105,57.066],[3.168,57.232],[3.209,57.353],[3.228,57.418]]}},{"type":"Feature","properties":{"kind":"occl","line":3,"px_len":1504},"geometry":{"type":"LineString","coordinates":[[3.228,57.418],[3.27,57.589],[3.299,57.751],[3.319,57.917],[3.342,58.083],[3.368,58.249],[3.404,58.416],[3.454,58.584],[3.52,58.753],[3.601,58.922],[3.67,59.091],[3.697,59.258],[3.68,59.423],[3.659,59.588],[3.638,59.753],[3.626,59.918],[3.597,60.083],[3.528,60.246],[3.414,60.406],[3.287,60.566],[3.175,60.727],[3.072,60.888],[2.987,61.051],[2.911,61.214],[2.851,61.378],[2.787,61.542],[2.731,61.707],[2.683,61.872],[2.647,62.038],[2.631,62.205],[2.634,62.374],[2.659,62.543],[2.675,62.713],[2.656,62.88],[2.596,63.046],[2.534,63.211],[2.477,63.377],[2.428,63.544],[2.356,63.709],[2.24,63.872],[2.087,64.033],[1.942,64.194],[1.824,64.357],[1.722,64.522],[1.636,64.687],[1.59,64.854],[1.578,65.024],[1.582,65.195],[1.576,65.365],[1.543,65.534],[1.5,65.703],[1.468,65.872],[1.464,66.043],[1.478,66.215],[1.486,66.387],[1.484,66.558],[1.47,66.729],[1.443,66.899],[1.395,67.069],[1.327,67.237],[1.318,67.408],[1.411,67.586],[1.591,67.767],[1.764,67.949],[1.905,68.128],[2.012,68.306],[2.144,68.478],[2.383,68.642],[2.726,68.801],[3.085,68.966],[3.412,69.142],[3.703,69.324],[3.953,69.505],[4.191,69.685],[4.432,69.865],[4.678,70.045],[4.929,70.224],[5.193,70.404],[5.465,70.583],[5.745,70.762],[6.029,70.94],[6.317,71.118],[6.612,71.296],[6.935,71.473],[7.309,71.651],[7.732,71.821],[8.217,71.98],[8.683,72.131],[9.034,72.29],[9.253,72.459],[9.454,72.632],[9.712,72.805],[10.017,72.978],[10.329,73.15],[10.52,73.322],[10.572,73.496],[10.548,73.67],[10.537,73.843],[10.547,74.017],[10.58,74.191],[10.631,74.364],[10.703,74.538],[10.788,74.712],[10.871,74.885],[10.935,75.059],[10.978,75.233],[10.999,75.407],[11.018,75.582],[11.033,75.756],[11.026,75.931],[10.984,76.106],[10.922,76.281],[10.842,76.456],[10.738,76.631],[10.602,76.807],[10.433,76.983],[10.228,77.158],[9.976,77.334],[9.657,77.51],[9.265,77.685],[8.756,77.859],[8.132,78.032],[7.376,78.203],[6.575,78.372],[5.769,78.538],[4.991,78.702],[4.147,78.853],[3.22,78.992],[2.22,79.13],[1.23,79.241],[0.272,79.289],[-0.662,79.274],[-1.588,79.242],[-2.509,79.207],[-3.424,79.169],[-4.331,79.128],[-5.182,79.049],[-5.959,78.924],[-6.672,78.767],[-7.377,78.615],[-8.076,78.47],[-8.767,78.33],[-9.453,78.194],[-10.13,78.062],[-10.783,77.922],[-11.397,77.767],[-11.962,77.593],[-12.48,77.401],[-12.966,77.199],[-13.41,76.997],[-13.687,76.838],[-13.794,76.741]]}},{"type":"Feature","properties":{"kind":"occl","line":4,"px_len":692},"geometry":{"type":"LineString","coordinates":[[22.468,67.456],[22.626,67.621],[22.821,67.775],[23.058,67.929],[23.304,68.082],[23.528,68.237],[23.73,68.395],[23.913,68.554],[24.085,68.715],[24.246,68.876],[24.404,69.039],[24.649,69.193],[24.992,69.337],[25.382,69.477],[25.737,69.619],[26.058,69.766],[26.351,69.913],[26.729,70.044],[27.215,70.155],[27.776,70.257],[28.304,70.37],[28.809,70.492],[29.281,70.619],[29.729,70.749],[30.169,70.878],[30.617,71.007],[31.073,71.134],[31.538,71.26],[32.01,71.384],[32.5,71.506],[33.013,71.624],[33.58,71.734],[34.218,71.831],[34.906,71.911],[35.533,71.995],[36.063,72.097],[36.533,72.217],[37.039,72.332],[37.6,72.438],[38.198,72.537],[38.749,72.644],[39.198,72.767],[39.572,72.903],[39.952,73.039],[40.355,73.171],[40.779,73.3],[41.245,73.422],[41.747,73.537],[42.268,73.649],[42.788,73.761],[43.31,73.873],[43.832,73.985],[44.355,74.097],[44.874,74.21],[45.406,74.32],[45.964,74.426],[46.556,74.525],[47.178,74.617],[47.828,74.703],[48.461,74.793],[49.009,74.901],[49.472,75.028],[49.909,75.161],[50.366,75.29],[50.849,75.415],[51.356,75.535],[51.84,75.662],[52.237,75.804],[52.411,75.977],[52.413,76.122],[52.363,76.209]]}},{"type":"Feature","properties":{"kind":"warm","line":5,"px_len":719},"geometry":{"type":"LineString","coordinates":[[64.307,55.945],[64.129,56.077],[63.982,56.213],[63.841,56.357],[63.7,56.501],[63.559,56.646],[63.417,56.79],[63.278,56.936],[63.144,57.085],[63.004,57.231],[62.859,57.376],[62.708,57.519],[62.549,57.659],[62.381,57.797],[62.207,57.932],[62.073,58.084],[62.02,58.265],[62.065,58.463],[62.162,58.661],[62.271,58.858],[62.361,59.069],[62.443,59.287],[62.54,59.496],[62.665,59.687],[62.824,59.856],[63.011,60.007],[63.227,60.14],[63.473,60.253],[63.737,60.355],[64.012,60.449],[64.298,60.537],[64.598,60.616],[64.911,60.686],[65.236,60.747],[65.571,60.801],[65.915,60.849],[66.269,60.889],[66.631,60.923],[67.002,60.949],[67.384,60.967],[67.773,60.978],[68.159,60.99],[68.529,61.014],[68.881,61.052],[69.222,61.1],[69.573,61.139],[69.952,61.154],[70.366,61.129],[70.794,61.073],[71.228,61.008],[71.661,60.957],[72.077,60.928],[72.474,60.915],[72.856,60.916],[73.228,60.925],[73.592,60.942],[73.95,60.963],[74.305,60.988],[74.659,61.013],[75.011,61.039],[75.362,61.067],[75.711,61.096],[76.059,61.127],[76.405,61.159],[76.75,61.192],[77.093,61.227],[77.433,61.267],[77.768,61.313],[78.095,61.369],[78.416,61.432],[78.679,61.527],[78.832,61.654],[78.871,61.802]]}}]}