{"type":"FeatureCollection","properties":{"chart":"ana","src":"Z__C_EDZW_20261003014453_tka01,ana_bwkman_dwdna_O_000000_000000_202610030000_WV12.png","valid_time":"2026-10-03T00:00:00+00:00"},"features":[{"type":"Feature","properties":{"kind":"warm","line":0,"px_len":395},"geometry":{"type":"LineString","coordinates":[[-0.382,44.242],[-0.179,44.305],[0.012,44.381],[0.205,44.468],[0.398,44.563],[0.589,44.671],[0.777,44.794],[0.965,44.921],[1.158,45.036],[1.359,45.109],[1.569,45.146],[1.783,45.159],[1.996,45.177],[2.209,45.199],[2.42,45.23],[2.631,45.264],[2.841,45.306],[3.05,45.355],[3.259,45.408],[3.468,45.462],[3.678,45.518],[3.888,45.575],[4.098,45.634],[4.308,45.694],[4.52,45.752],[4.732,45.809],[4.944,45.865],[5.158,45.921],[5.371,45.983],[5.584,46.052],[5.796,46.135],[6.008,46.23],[6.221,46.335],[6.435,46.435],[6.652,46.497],[6.873,46.524],[7.095,46.53],[7.317,46.54],[7.539,46.555],[7.724,46.563],[7.85,46.563]]}},{"type":"Feature","properties":{"kind":"warm","line":1,"px_len":131},"geometry":{"type":"LineString","coordinates":[[40.56,41.982],[40.758,41.934],[40.974,41.92],[41.207,41.919],[41.437,41.913],[41.641,41.878],[41.818,41.811],[41.98,41.725],[42.144,41.642],[42.309,41.562],[42.48,41.489],[42.654,41.419],[42.829,41.357],[43.024,41.305]]}},{"type":"Feature","properties":{"kind":"warm","line":2,"px_len":273},"geometry":{"type":"LineString","coordinates":[[10.383,47.355],[10.615,47.473],[10.816,47.611],[10.994,47.762],[11.17,47.913],[11.375,48.052],[11.609,48.163],[11.846,48.242],[12.083,48.308],[12.322,48.387],[12.564,48.488],[12.804,48.613],[13.031,48.754],[13.232,48.901],[13.405,49.05],[13.543,49.199],[13.65,49.35],[13.739,49.502],[13.84,49.654],[13.989,49.803],[14.195,49.943],[14.438,50.069],[14.69,50.189],[14.932,50.32],[15.149,50.46],[15.34,50.605],[15.511,50.751],[15.635,50.863],[15.709,50.928]]}},{"type":"Feature","properties":{"kind":"cold","line":2,"px_len":1039},"geometry":{"type":"LineString","coordinates":[[15.709,50.928],[15.866,51.079],[16.02,51.223],[16.175,51.371],[16.337,51.518],[16.514,51.664],[16.721,51.807],[16.957,51.943],[17.172,52.08],[17.319,52.221],[17.402,52.375],[17.476,52.529],[17.559,52.682],[17.654,52.835],[17.768,52.986],[17.895,53.135],[18.022,53.285],[18.148,53.436],[18.281,53.585],[18.428,53.733],[18.594,53.88],[18.778,54.025],[18.943,54.171],[19.049,54.323],[19.091,54.482],[19.127,54.642],[19.179,54.8],[19.246,54.957],[19.317,55.113],[19.397,55.269],[19.484,55.425],[19.57,55.58],[19.655,55.736],[19.738,55.892],[19.819,56.048],[19.896,56.205],[19.97,56.363],[20.046,56.52],[20.112,56.679],[20.183,56.837],[20.25,56.996],[20.314,57.155],[20.365,57.316],[20.412,57.477],[20.459,57.639],[20.512,57.8],[20.578,57.96],[20.658,58.118],[20.753,58.276],[20.846,58.433],[20.874,58.598],[20.827,58.77],[20.75,58.946],[20.685,59.12],[20.636,59.293],[20.592,59.466],[20.541,59.639],[20.475,59.814],[20.397,59.99],[20.312,60.166],[20.22,60.344],[20.121,60.522],[20.017,60.7],[19.906,60.879],[19.788,61.058],[19.665,61.238],[19.538,61.418],[19.41,61.598],[19.278,61.778],[19.15,61.957],[19.03,62.136],[18.931,62.313],[18.869,62.487],[18.836,62.66],[18.825,62.83],[18.816,63.0],[18.741,63.176],[18.589,63.357],[18.398,63.541],[18.251,63.721],[18.146,63.898],[18.074,64.073],[18.044,64.245],[18.043,64.416],[18.073,64.584],[18.123,64.752],[18.201,64.917],[18.299,65.082],[18.417,65.245],[18.561,65.407],[18.725,65.567],[18.904,65.727],[19.104,65.885],[19.339,66.04],[19.617,66.193],[19.935,66.342],[20.304,66.487],[20.625,66.635],[20.848,66.791],[20.986,66.953],[21.125,67.116],[21.281,67.277],[21.458,67.437],[21.614,67.589],[21.713,67.73]]}},{"type":"Feature","properties":{"kind":"occl","line":3,"px_len":508},"geometry":{"type":"LineString","coordinates":[[-28.754,67.137],[-28.56,67.301],[-28.321,67.449],[-28.067,67.602],[-27.823,67.762],[-27.581,67.924],[-27.334,68.085],[-27.069,68.239],[-26.758,68.371],[-26.389,68.475],[-25.991,68.565],[-25.596,68.658],[-25.202,68.752],[-24.8,68.843],[-24.367,68.918],[-23.902,68.976],[-23.412,69.02],[-22.933,69.07],[-22.469,69.129],[-22.018,69.195],[-21.585,69.273],[-21.169,69.361],[-20.77,69.461],[-20.386,69.572],[-20.011,69.69],[-19.646,69.815],[-19.284,69.945],[-18.91,70.07],[-18.518,70.185],[-18.109,70.292],[-17.693,70.396],[-17.291,70.511],[-16.939,70.662],[-16.623,70.841],[-16.303,71.02],[-15.957,71.185],[-15.6,71.347],[-15.284,71.526],[-15.069,71.723],[-14.997,71.92],[-15.013,72.108],[-15.051,72.292],[-15.057,72.482],[-15.037,72.675],[-14.999,72.87],[-14.953,73.067],[-14.897,73.264],[-14.835,73.463],[-14.787,73.659],[-14.754,73.854],[-14.713,74.035],[-14.651,74.19]]}},{"type":"Feature","properties":{"kind":"warm","line":4,"px_len":838},"geometry":{"type":"LineString","coordinates":[[-30.829,48.452],[-30.647,48.555],[-30.478,48.658],[-30.311,48.768],[-30.151,48.884],[-29.995,49.004],[-29.82,49.11],[-29.603,49.182],[-29.345,49.221],[-29.071,49.247],[-28.802,49.276],[-28.54,49.31],[-28.287,49.352],[-28.037,49.396],[-27.783,49.437],[-27.524,49.473],[-27.258,49.502],[-26.984,49.524],[-26.701,49.537],[-26.412,49.545],[-26.126,49.554],[-25.853,49.575],[-25.595,49.608],[-25.345,49.649],[-25.085,49.68],[-24.801,49.683],[-24.512,49.647],[-24.243,49.582],[-23.99,49.504],[-23.724,49.431],[-23.425,49.371],[-23.111,49.327],[-22.797,49.295],[-22.491,49.27],[-22.189,49.247],[-21.889,49.226],[-21.593,49.207],[-21.3,49.19],[-21.008,49.174],[-20.72,49.16],[-20.439,49.153],[-20.171,49.159],[-19.916,49.181],[-19.672,49.215],[-19.434,49.256],[-19.2,49.301],[-18.952,49.331],[-18.678,49.327],[-18.374,49.286],[-18.063,49.234],[-17.76,49.19],[-17.473,49.166],[-17.2,49.157],[-16.937,49.162],[-16.681,49.174],[-16.428,49.19],[-16.177,49.208],[-15.927,49.227],[-15.678,49.248],[-15.431,49.27],[-15.185,49.294],[-14.939,49.318],[-14.696,49.345],[-14.457,49.379],[-14.223,49.421],[-13.993,49.468],[-13.767,49.521],[-13.545,49.581],[-13.328,49.65],[-13.115,49.725],[-12.891,49.784],[-12.648,49.812],[-12.388,49.815],[-12.129,49.818],[-11.878,49.832],[-11.632,49.855],[-11.393,49.892],[-11.159,49.934],[-10.928,49.984],[-10.697,50.033],[-10.468,50.087],[-10.239,50.142],[-10.012,50.2],[-9.801,50.253],[-9.622,50.295]]}},{"type":"Feature","properties":{"kind":"cold","line":4,"px_len":786},"geometry":{"type":"LineString","coordinates":[[-9.622,50.295],[-9.392,50.361],[-9.171,50.423],[-8.944,50.486],[-8.718,50.551],[-8.492,50.619],[-8.267,50.688],[-8.043,50.76],[-7.818,50.832],[-7.59,50.899],[-7.359,50.962],[-7.126,51.022],[-6.89,51.075],[-6.654,51.13],[-6.435,51.223],[-6.234,51.359],[-6.041,51.515],[-5.841,51.659],[-5.635,51.792],[-5.424,51.918],[-5.212,52.044],[-5.0,52.173],[-4.787,52.305],[-4.576,52.443],[-4.366,52.587],[-4.156,52.736],[-3.945,52.888],[-3.736,53.048],[-3.528,53.215],[-3.321,53.39],[-3.11,53.563],[-2.895,53.726],[-2.671,53.871],[-2.438,53.996],[-2.245,54.121],[-2.133,54.262],[-2.096,54.424],[-2.065,54.592],[-2.012,54.763],[-1.934,54.936],[-1.839,55.111],[-1.744,55.287],[-1.652,55.462],[-1.572,55.635],[-1.499,55.808],[-1.436,55.98],[-1.381,56.151],[-1.334,56.321],[-1.29,56.491],[-1.241,56.661],[-1.178,56.833],[-1.098,57.007],[-0.994,57.183],[-0.909,57.358],[-0.888,57.526],[-0.942,57.687],[-1.005,57.847],[-1.059,58.008],[-1.099,58.171],[-1.132,58.334],[-1.16,58.498],[-1.185,58.663],[-1.212,58.828],[-1.248,58.992],[-1.284,59.156],[-1.312,59.321],[-1.322,59.487],[-1.315,59.656],[-1.298,59.826],[-1.268,59.997],[-1.229,60.169],[-1.211,60.339],[-1.217,60.507],[-1.231,60.674],[-1.216,60.845],[-1.163,61.018],[-1.086,61.194],[-1.003,61.371],[-0.932,61.524],[-0.871,61.636]]}},{"type":"Feature","properties":{"kind":"occl","line":4,"px_len":1079},"geometry":{"type":"LineString","coordinates":[[-0.871,61.636],[-0.977,61.8],[-1.171,61.949],[-1.394,62.099],[-1.585,62.252],[-1.749,62.407],[-1.891,62.565],[-2.011,62.724],[-2.111,62.886],[-2.207,63.048],[-2.295,63.211],[-2.382,63.374],[-2.459,63.538],[-2.538,63.703],[-2.614,63.868],[-2.626,64.038],[-2.536,64.219],[-2.363,64.407],[-2.189,64.595],[-2.049,64.779],[-1.942,64.96],[-1.81,65.132],[-1.586,65.291],[-1.276,65.444],[-0.957,65.608],[-0.668,65.787],[-0.423,65.974],[-0.219,66.16],[-0.035,66.345],[0.144,66.529],[0.324,66.713],[0.503,66.896],[0.681,67.079],[0.862,67.262],[1.043,67.445],[1.223,67.627],[1.397,67.809],[1.575,67.991],[1.75,68.172],[1.923,68.353],[2.088,68.533],[2.251,68.713],[2.408,68.893],[2.565,69.072],[2.713,69.251],[2.852,69.43],[2.984,69.608],[3.111,69.786],[3.231,69.963],[3.348,70.14],[3.463,70.317],[3.578,70.494],[3.7,70.671],[3.844,70.849],[4.027,71.028],[4.249,71.208],[4.514,71.389],[4.791,71.569],[4.974,71.747],[5.046,71.922],[5.068,72.096],[5.11,72.271],[5.19,72.446],[5.275,72.621],[5.28,72.795],[5.17,72.967],[4.997,73.137],[4.832,73.307],[4.686,73.478],[4.569,73.649],[4.47,73.821],[4.357,73.993],[4.193,74.163],[3.975,74.332],[3.711,74.5],[3.403,74.667],[3.056,74.832],[2.657,74.995],[2.214,75.157],[1.72,75.316],[1.196,75.473],[0.683,75.631],[0.21,75.789],[-0.194,75.949],[-0.605,76.101],[-1.155,76.213],[-1.867,76.284],[-2.667,76.338],[-3.486,76.4],[-4.321,76.469],[-5.162,76.532],[-5.971,76.559],[-6.709,76.524],[-7.385,76.443],[-8.043,76.351],[-8.698,76.263],[-9.351,76.177],[-10.002,76.094],[-10.637,76.004],[-11.242,75.898],[-11.811,75.773],[-12.344,75.631],[-12.84,75.472],[-13.297,75.295],[-13.711,75.098],[-14.077,74.883],[-14.35,74.664],[-14.518,74.464],[-14.606,74.291]]}},{"type":"Feature","properties":{"kind":"warm","line":5,"px_len":309},"geometry":{"type":"LineString","coordinates":[[5.471,57.968],[5.481,58.137],[5.484,58.297],[5.503,58.462],[5.535,58.628],[5.579,58.794],[5.632,58.961],[5.639,59.126],[5.559,59.289],[5.401,59.448],[5.216,59.607],[5.037,59.766],[4.872,59.925],[4.722,60.085],[4.577,60.245],[4.43,60.405],[4.268,60.564],[4.089,60.722],[3.882,60.88],[3.634,61.034],[3.335,61.186],[2.988,61.335],[2.62,61.479],[2.246,61.614],[1.874,61.721],[1.498,61.794],[1.131,61.829],[0.769,61.842],[0.414,61.835],[0.063,61.815],[-0.264,61.785],[-0.556,61.748]]}},{"type":"Feature","properties":{"kind":"cold","line":6,"px_len":486},"geometry":{"type":"LineString","coordinates":[[23.911,70.095],[24.107,70.26],[24.295,70.417],[24.515,70.576],[24.779,70.73],[25.088,70.881],[25.446,71.027],[25.773,71.176],[26.026,71.332],[26.218,71.494],[26.427,71.654],[26.667,71.812],[26.949,71.965],[27.283,72.114],[27.685,72.256],[28.136,72.392],[28.616,72.526],[29.112,72.657],[29.628,72.786],[30.155,72.913],[30.688,73.038],[31.232,73.163],[31.782,73.285],[32.333,73.407],[32.883,73.529],[33.419,73.652],[33.952,73.776],[34.459,73.902],[34.955,74.029],[35.455,74.156],[35.974,74.28],[36.522,74.401],[37.092,74.517],[37.58,74.646],[37.928,74.794],[38.152,74.96],[38.377,75.127],[38.633,75.29],[38.913,75.451],[39.204,75.61],[39.493,75.77],[39.774,75.932],[40.046,76.096],[40.308,76.262],[40.562,76.43],[40.806,76.6],[41.035,76.772],[41.265,76.946],[41.499,77.092],[41.715,77.192]]}},{"type":"Feature","properties":{"kind":"cold","line":7,"px_len":280},"geometry":{"type":"LineString","coordinates":[[-63.488,45.759],[-63.675,45.637],[-63.882,45.525],[-64.103,45.413],[-64.325,45.301],[-64.547,45.188],[-64.759,45.073],[-64.951,44.954],[-65.114,44.83],[-65.254,44.7],[-65.393,44.579],[-65.566,44.497],[-65.78,44.449],[-66.013,44.407],[-66.254,44.341],[-66.498,44.254],[-66.741,44.151],[-66.979,44.038],[-67.215,43.924],[-67.453,43.811],[-67.693,43.706],[-67.933,43.616],[-68.165,43.548],[-68.377,43.485],[-68.536,43.393],[-68.637,43.265],[-68.707,43.124],[-68.764,42.986],[-68.81,42.85]]}},{"type":"Feature","properties":{"kind":"cold","line":8,"px_len":953},"geometry":{"type":"LineString","coordinates":[[-59.605,48.09],[-59.361,48.17],[-59.138,48.268],[-58.911,48.375],[-58.672,48.478],[-58.412,48.575],[-58.131,48.656],[-57.845,48.716],[-57.581,48.77],[-57.371,48.851],[-57.205,48.967],[-57.052,49.093],[-56.88,49.213],[-56.677,49.325],[-56.447,49.429],[-56.199,49.528],[-55.945,49.624],[-55.688,49.719],[-55.429,49.814],[-55.166,49.906],[-54.903,49.999],[-54.637,50.09],[-54.37,50.181],[-54.101,50.271],[-53.833,50.36],[-53.564,50.449],[-53.292,50.537],[-53.021,50.625],[-52.75,50.712],[-52.481,50.8],[-52.216,50.889],[-51.953,50.978],[-51.694,51.068],[-51.436,51.159],[-51.173,51.247],[-50.894,51.329],[-50.585,51.401],[-50.261,51.456],[-49.964,51.517],[-49.73,51.603],[-49.549,51.718],[-49.373,51.838],[-49.182,51.951],[-48.975,52.059],[-48.751,52.16],[-48.516,52.257],[-48.279,52.354],[-48.043,52.45],[-47.81,52.548],[-47.579,52.647],[-47.349,52.746],[-47.123,52.847],[-46.9,52.949],[-46.682,53.053],[-46.464,53.157],[-46.247,53.261],[-46.032,53.367],[-45.819,53.473],[-45.608,53.581],[-45.397,53.688],[-45.19,53.798],[-44.984,53.908],[-44.778,54.018],[-44.575,54.13],[-44.374,54.243],[-44.176,54.357],[-43.977,54.471],[-43.777,54.585],[-43.583,54.702],[-43.392,54.821],[-43.206,54.942],[-43.028,55.067],[-42.862,55.197],[-42.697,55.329],[-42.53,55.459],[-42.355,55.587],[-42.177,55.714],[-41.991,55.838],[-41.863,55.988],[-41.814,56.167],[-41.835,56.377],[-41.858,56.589],[-41.891,56.806],[-41.946,57.019],[-42.026,57.225],[-42.117,57.426],[-42.215,57.622],[-42.312,57.821],[-42.389,58.034],[-42.437,58.253],[-42.453,58.468],[-42.506,58.653],[-42.668,58.783],[-42.942,58.864],[-43.244,58.93],[-43.474,58.981],[-43.607,59.011]]}},{"type":"Feature","properties":{"kind":"occl","line":8,"px_len":533},"geometry":{"type":"LineString","coordinates":[[-43.607,59.011],[-43.907,59.085],[-44.195,59.157],[-44.495,59.225],[-44.811,59.284],[-45.143,59.33],[-45.486,59.368],[-45.831,59.404],[-46.171,59.444],[-46.504,59.488],[-46.831,59.537],[-47.159,59.586],[-47.49,59.631],[-47.828,59.67],[-48.171,59.707],[-48.509,59.746],[-48.812,59.814],[-49.082,59.908],[-49.331,60.022],[-49.585,60.132],[-49.846,60.237],[-50.114,60.338],[-50.369,60.45],[-50.577,60.604],[-50.742,60.797],[-50.899,60.998],[-51.071,61.188],[-51.258,61.368],[-51.448,61.546],[-51.633,61.731],[-51.81,61.925],[-51.975,62.131],[-52.13,62.348],[-52.269,62.572],[-52.385,62.79],[-52.461,62.999],[-52.494,63.197],[-52.483,63.384],[-52.478,63.568],[-52.548,63.75],[-52.701,63.941],[-52.867,64.145],[-53.006,64.361],[-53.125,64.574],[-53.284,64.77],[-53.529,64.921],[-53.848,65.029],[-54.199,65.11],[-54.558,65.187],[-54.916,65.265],[-55.275,65.344],[-55.637,65.42],[-56.005,65.492],[-56.281,65.551],[-56.437,65.59]]}},{"type":"Feature","properties":{"kind":"warm","line":9,"px_len":366},"geometry":{"type":"LineString","coordinates":[[-31.947,56.922],[-32.163,57.04],[-32.379,57.149],[-32.602,57.26],[-32.824,57.371],[-33.043,57.485],[-33.261,57.599],[-33.473,57.717],[-33.673,57.841],[-33.861,57.972],[-34.044,58.106],[-34.218,58.245],[-34.416,58.372],[-34.67,58.472],[-34.993,58.537],[-35.343,58.587],[-35.694,58.637],[-36.035,58.691],[-36.366,58.75],[-36.689,58.814],[-37.013,58.876],[-37.346,58.934],[-37.686,58.987],[-38.034,59.036],[-38.39,59.079],[-38.749,59.121],[-39.099,59.167],[-39.428,59.224],[-39.74,59.292],[-40.056,59.357],[-40.414,59.393],[-40.793,59.379],[-41.143,59.317],[-41.423,59.221],[-41.67,59.112],[-41.907,58.998],[-42.115,58.901],[-42.267,58.831]]}},{"type":"Feature","properties":{"kind":"warm","line":10,"px_len":618},"geometry":{"type":"LineString","coordinates":[[63.202,56.522],[63.186,56.722],[63.176,56.915],[63.165,57.113],[63.138,57.305],[63.082,57.485],[63.003,57.657],[62.926,57.83],[62.89,58.018],[62.929,58.217],[63.042,58.403],[63.209,58.562],[63.399,58.705],[63.582,58.854],[63.756,59.012],[63.923,59.174],[64.091,59.338],[64.272,59.493],[64.467,59.64],[64.674,59.779],[64.894,59.909],[65.127,60.031],[65.377,60.142],[65.643,60.242],[65.919,60.335],[66.205,60.422],[66.494,60.507],[66.792,60.586],[67.093,60.663],[67.4,60.736],[67.71,60.806],[68.019,60.878],[68.323,60.955],[68.62,61.037],[68.913,61.125],[69.195,61.221],[69.479,61.317],[69.79,61.392],[70.146,61.429],[70.539,61.433],[70.934,61.435],[71.318,61.445],[71.692,61.463],[72.054,61.492],[72.408,61.527],[72.758,61.566],[73.11,61.604],[73.461,61.642],[73.814,61.679],[74.167,61.714],[74.523,61.747],[74.879,61.78],[75.235,61.812],[75.592,61.845],[75.949,61.876],[76.306,61.907],[76.663,61.937],[77.021,61.967],[77.375,62.001],[77.724,62.041],[78.064,62.091],[78.326,62.169],[78.492,62.27]]}},{"type":"Feature","properties":{"kind":"cold","line":11,"px_len":631},"geometry":{"type":"LineString","coordinates":[[-53.1,54.774],[-53.277,54.642],[-53.486,54.528],[-53.713,54.414],[-53.935,54.3],[-54.155,54.185],[-54.373,54.069],[-54.587,53.952],[-54.799,53.834],[-55.01,53.716],[-55.217,53.598],[-55.416,53.477],[-55.6,53.352],[-55.764,53.221],[-55.917,53.088],[-56.059,52.952],[-56.202,52.816],[-56.404,52.696],[-56.662,52.592],[-56.945,52.494],[-57.202,52.389],[-57.438,52.278],[-57.657,52.163],[-57.867,52.045],[-58.077,51.927],[-58.287,51.809],[-58.502,51.693],[-58.717,51.576],[-58.934,51.46],[-59.155,51.345],[-59.38,51.23],[-59.612,51.117],[-59.848,51.005],[-60.086,50.893],[-60.327,50.782],[-60.573,50.672],[-60.822,50.562],[-61.073,50.452],[-61.326,50.342],[-61.581,50.233],[-61.84,50.124],[-62.099,50.015],[-62.363,49.906],[-62.624,49.797],[-62.869,49.683],[-63.086,49.564],[-63.271,49.438],[-63.432,49.308],[-63.605,49.198],[-63.815,49.13],[-64.067,49.095],[-64.334,49.052],[-64.609,48.988],[-64.893,48.9],[-65.18,48.799],[-65.469,48.69],[-65.757,48.58],[-66.039,48.478],[-66.312,48.395],[-66.574,48.337],[-66.819,48.286],[-67.017,48.203],[-67.166,48.085],[-67.29,47.942]]}}]}