{"type":"FeatureCollection","properties":{"chart":"ana","src":"Z__C_EDZW_20261001191239_tka01,ana_bwkman_dwdna_O_000000_000000_202610011800_WV12.png","valid_time":"2026-10-01T18:00:00+00:00"},"features":[{"type":"Feature","properties":{"kind":"cold","line":0,"px_len":461},"geometry":{"type":"LineString","coordinates":[[-11.916,55.975],[-11.981,55.782],[-12.097,55.587],[-12.243,55.38],[-12.401,55.174],[-12.565,54.975],[-12.735,54.787],[-12.906,54.604],[-13.069,54.413],[-13.215,54.213],[-13.357,54.027],[-13.531,53.888],[-13.75,53.791],[-13.982,53.704],[-14.211,53.615],[-14.433,53.518],[-14.649,53.413],[-14.859,53.303],[-15.067,53.191],[-15.276,53.081],[-15.485,52.973],[-15.694,52.868],[-15.905,52.764],[-16.116,52.662],[-16.327,52.562],[-16.539,52.464],[-16.751,52.367],[-16.963,52.27],[-17.174,52.175],[-17.385,52.079],[-17.594,51.982],[-17.797,51.88],[-17.994,51.77],[-18.184,51.654],[-18.38,51.546],[-18.599,51.466],[-18.842,51.414],[-19.088,51.366],[-19.327,51.31],[-19.559,51.247],[-19.784,51.175],[-20.003,51.099],[-20.226,51.026],[-20.448,50.954],[-20.672,50.883],[-20.889,50.814],[-21.121,50.746]]}},{"type":"Feature","properties":{"kind":"warm","line":0,"px_len":767},"geometry":{"type":"LineString","coordinates":[[-21.121,50.746],[-21.345,50.67],[-21.562,50.6],[-21.784,50.53],[-22.007,50.461],[-22.235,50.398],[-22.47,50.342],[-22.714,50.295],[-22.966,50.256],[-23.228,50.228],[-23.498,50.207],[-23.759,50.177],[-23.991,50.117],[-24.193,50.029],[-24.39,49.937],[-24.595,49.854],[-24.807,49.777],[-25.022,49.703],[-25.243,49.635],[-25.471,49.575],[-25.706,49.52],[-25.944,49.469],[-26.183,49.418],[-26.422,49.368],[-26.661,49.317],[-26.9,49.266],[-27.139,49.215],[-27.378,49.164],[-27.616,49.112],[-27.853,49.06],[-28.092,49.008],[-28.331,48.957],[-28.572,48.907],[-28.813,48.858],[-29.055,48.809],[-29.302,48.764],[-29.556,48.724],[-29.823,48.694],[-30.104,48.676],[-30.402,48.67],[-30.704,48.666],[-30.982,48.644],[-31.215,48.585],[-31.416,48.502],[-31.61,48.414],[-31.806,48.328],[-32.007,48.245],[-32.216,48.169],[-32.434,48.1],[-32.659,48.036],[-32.888,47.975],[-33.118,47.915],[-33.347,47.853],[-33.574,47.791],[-33.801,47.728],[-34.027,47.665],[-34.252,47.601],[-34.476,47.535],[-34.698,47.469],[-34.919,47.402],[-35.14,47.335],[-35.358,47.266],[-35.576,47.197],[-35.797,47.13],[-36.028,47.069],[-36.27,47.016],[-36.525,46.971],[-36.785,46.929],[-37.025,46.874],[-37.219,46.789],[-37.377,46.68],[-37.521,46.563],[-37.672,46.451],[-37.827,46.341],[-37.988,46.237],[-38.156,46.136],[-38.314,46.051],[-38.443,45.987]]}},{"type":"Feature","properties":{"kind":"cold","line":0,"px_len":417},"geometry":{"type":"LineString","coordinates":[[-38.443,45.987],[-38.625,45.892],[-38.804,45.804],[-38.982,45.711],[-39.153,45.614],[-39.316,45.512],[-39.474,45.407],[-39.625,45.299],[-39.774,45.189],[-39.952,45.097],[-40.169,45.029],[-40.411,44.976],[-40.643,44.916],[-40.864,44.85],[-41.075,44.778],[-41.283,44.703],[-41.491,44.63],[-41.703,44.558],[-41.917,44.487],[-42.135,44.418],[-42.357,44.352],[-42.584,44.288],[-42.815,44.226],[-43.05,44.166],[-43.29,44.108],[-43.535,44.053],[-43.785,44.0],[-44.042,43.95],[-44.308,43.905],[-44.588,43.867],[-44.875,43.831],[-45.161,43.795],[-45.434,43.75],[-45.684,43.694],[-45.91,43.625],[-46.122,43.556],[-46.331,43.527],[-46.541,43.543],[-46.757,43.579],[-46.986,43.6],[-47.232,43.602],[-47.461,43.593],[-47.645,43.582]]}},{"type":"Feature","properties":{"kind":"warm","line":1,"px_len":846},"geometry":{"type":"LineString","coordinates":[[-6.963,38.056],[-6.848,38.187],[-6.715,38.31],[-6.575,38.447],[-6.444,38.602],[-6.332,38.766],[-6.227,38.93],[-6.109,39.082],[-5.966,39.21],[-5.805,39.302],[-5.636,39.373],[-5.466,39.444],[-5.298,39.52],[-5.133,39.608],[-4.972,39.708],[-4.814,39.82],[-4.657,39.937],[-4.5,40.053],[-4.341,40.17],[-4.181,40.286],[-4.021,40.401],[-3.859,40.515],[-3.696,40.628],[-3.532,40.74],[-3.368,40.852],[-3.202,40.962],[-3.034,41.07],[-2.866,41.177],[-2.696,41.283],[-2.526,41.388],[-2.354,41.489],[-2.18,41.589],[-2.005,41.686],[-1.83,41.785],[-1.653,41.88],[-1.475,41.975],[-1.297,42.071],[-1.12,42.171],[-0.944,42.284],[-0.771,42.409],[-0.601,42.552],[-0.431,42.696],[-0.254,42.819],[-0.066,42.897],[0.129,42.945],[0.327,42.982],[0.525,43.023],[0.721,43.07],[0.917,43.124],[1.11,43.188],[1.303,43.261],[1.495,43.341],[1.687,43.421],[1.88,43.503],[2.073,43.585],[2.267,43.669],[2.461,43.754],[2.656,43.84],[2.851,43.929],[3.047,44.02],[3.243,44.114],[3.439,44.211],[3.636,44.309],[3.834,44.41],[4.032,44.513],[4.231,44.618],[4.43,44.727],[4.63,44.838],[4.831,44.953],[5.032,45.075],[5.23,45.214],[5.412,45.366],[5.567,45.526],[5.699,45.684],[5.847,45.843],[6.03,45.991],[6.239,46.109],[6.453,46.198],[6.668,46.28],[6.882,46.379],[7.097,46.501],[7.303,46.645],[7.498,46.8],[7.678,46.958],[7.829,47.094],[7.937,47.193]]}},{"type":"Feature","properties":{"kind":"cold","line":1,"px_len":1192},"geometry":{"type":"LineString","coordinates":[[7.937,47.193],[8.094,47.353],[8.242,47.506],[8.388,47.662],[8.523,47.817],[8.653,47.973],[8.782,48.129],[8.923,48.284],[9.084,48.44],[9.272,48.596],[9.43,48.751],[9.522,48.906],[9.555,49.062],[9.582,49.217],[9.618,49.373],[9.664,49.529],[9.722,49.685],[9.789,49.841],[9.856,49.997],[9.92,50.153],[9.981,50.309],[10.04,50.466],[10.094,50.623],[10.146,50.779],[10.192,50.936],[10.237,51.094],[10.278,51.251],[10.318,51.408],[10.353,51.566],[10.383,51.724],[10.41,51.882],[10.435,52.04],[10.453,52.198],[10.468,52.357],[10.482,52.516],[10.493,52.674],[10.495,52.834],[10.49,52.993],[10.482,53.152],[10.469,53.312],[10.457,53.472],[10.444,53.632],[10.445,53.792],[10.451,53.952],[10.47,54.113],[10.495,54.273],[10.471,54.434],[10.376,54.595],[10.229,54.758],[10.09,54.92],[9.965,55.082],[9.852,55.243],[9.743,55.405],[9.622,55.567],[9.487,55.729],[9.341,55.891],[9.186,56.053],[9.022,56.214],[8.854,56.376],[8.679,56.537],[8.503,56.699],[8.325,56.86],[8.142,57.02],[7.948,57.181],[7.743,57.341],[7.531,57.501],[7.317,57.66],[7.101,57.819],[6.884,57.978],[6.675,58.137],[6.473,58.296],[6.281,58.455],[6.105,58.614],[5.955,58.774],[5.838,58.935],[5.743,59.097],[5.661,59.259],[5.539,59.42],[5.333,59.578],[5.054,59.733],[4.791,59.889],[4.566,60.045],[4.375,60.203],[4.206,60.362],[4.048,60.521],[3.898,60.68],[3.748,60.84],[3.603,61.0],[3.459,61.159],[3.321,61.32],[3.182,61.48],[3.047,61.64],[2.91,61.801],[2.779,61.961],[2.649,62.122],[2.521,62.283],[2.396,62.444],[2.27,62.606],[2.152,62.767],[2.048,62.93],[1.96,63.094],[1.885,63.259],[1.835,63.425],[1.804,63.592],[1.769,63.76],[1.665,63.923],[1.495,64.083],[1.304,64.241],[1.136,64.401],[0.995,64.562],[0.875,64.725],[0.778,64.89],[0.682,65.054],[0.6,65.22],[0.513,65.386],[0.434,65.552],[0.358,65.718],[0.277,65.884],[0.196,66.049],[0.141,66.169],[0.115,66.235]]}},{"type":"Feature","properties":{"kind":"warm","line":1,"px_len":256},"geometry":{"type":"LineString","coordinates":[[0.115,66.235],[0.044,66.406],[-0.011,66.57],[-0.066,66.739],[-0.124,66.908],[-0.182,67.077],[-0.236,67.246],[-0.282,67.415],[-0.341,67.585],[-0.409,67.753],[-0.497,67.921],[-0.601,68.087],[-0.732,68.252],[-0.882,68.416],[-1.032,68.58],[-1.092,68.75],[-1.032,68.928],[-0.897,69.111],[-0.767,69.294],[-0.657,69.475],[-0.574,69.654],[-0.517,69.832],[-0.48,70.009],[-0.443,70.185],[-0.406,70.362],[-0.369,70.516],[-0.34,70.628]]}},{"type":"Feature","properties":{"kind":"cold","line":1,"px_len":358},"geometry":{"type":"LineString","coordinates":[[-0.34,70.628],[-0.28,70.81],[-0.215,70.985],[-0.146,71.163],[-0.075,71.342],[0.011,71.522],[0.131,71.703],[0.302,71.887],[0.521,72.072],[0.796,72.261],[1.023,72.446],[1.119,72.625],[1.073,72.798],[1.021,72.971],[0.995,73.145],[0.995,73.321],[1.028,73.497],[1.089,73.675],[1.168,73.854],[1.239,74.033],[1.305,74.211],[1.358,74.389],[1.396,74.566],[1.405,74.742],[1.38,74.917],[1.313,75.09],[1.196,75.262],[1.053,75.433],[0.912,75.604],[0.781,75.776],[0.678,75.948],[0.591,76.122],[0.531,76.296],[0.495,76.472],[0.488,76.648],[0.476,76.811],[0.459,76.948]]}},{"type":"Feature","properties":{"kind":"occl","line":1,"px_len":800},"geometry":{"type":"LineString","coordinates":[[0.459,76.948],[0.135,77.118],[-0.442,77.238],[-1.185,77.298],[-1.981,77.301],[-2.783,77.289],[-3.583,77.275],[-4.383,77.26],[-5.183,77.244],[-5.984,77.228],[-6.786,77.212],[-7.591,77.197],[-8.386,77.175],[-9.17,77.144],[-9.936,77.103],[-10.677,77.047],[-11.394,76.978],[-12.092,76.901],[-12.779,76.82],[-13.447,76.732],[-14.109,76.644],[-14.705,76.531],[-15.204,76.381],[-15.624,76.196],[-16.053,76.01],[-16.504,75.835],[-16.943,75.66],[-17.315,75.464],[-17.538,75.255],[-17.604,75.051],[-17.602,74.855],[-17.631,74.656],[-17.738,74.446],[-17.899,74.228],[-18.088,74.005],[-18.271,73.783],[-18.446,73.56],[-18.652,73.336],[-18.901,73.12],[-19.2,72.917],[-19.517,72.731],[-19.742,72.544],[-19.862,72.347],[-19.93,72.137],[-20.057,71.922],[-20.251,71.707],[-20.449,71.495],[-20.58,71.283],[-20.633,71.076],[-20.668,70.871],[-20.76,70.665],[-20.92,70.457],[-21.141,70.257],[-21.398,70.066],[-21.671,69.888],[-21.95,69.716],[-22.238,69.551],[-22.528,69.389],[-22.827,69.235],[-23.132,69.086],[-23.449,68.946],[-23.78,68.815],[-24.127,68.695],[-24.486,68.582],[-24.856,68.478],[-25.231,68.376],[-25.622,68.285],[-26.013,68.193],[-26.393,68.097],[-26.757,67.994],[-27.125,67.894],[-27.498,67.797],[-27.877,67.704],[-28.226,67.597],[-28.528,67.467],[-28.784,67.316],[-29.027,67.161],[-29.268,67.006],[-29.512,66.853],[-29.755,66.711],[-30.014,66.585]]}},{"type":"Feature","properties":{"kind":"warm","line":2,"px_len":388},"geometry":{"type":"LineString","coordinates":[[21.296,72.242],[21.079,72.436],[20.889,72.621],[20.696,72.809],[20.502,72.997],[20.297,73.185],[20.085,73.373],[19.861,73.561],[19.652,73.748],[19.477,73.934],[19.365,74.116],[19.291,74.296],[19.222,74.475],[19.062,74.659],[18.744,74.843],[18.254,75.011],[17.665,75.152],[17.046,75.282],[16.423,75.425],[15.797,75.586],[15.16,75.755],[14.507,75.92],[13.836,76.073],[13.146,76.212],[12.44,76.341],[11.72,76.462],[10.986,76.573],[10.239,76.675],[9.48,76.769],[8.712,76.855],[7.934,76.929],[7.15,76.984],[6.364,77.021],[5.577,77.042],[4.791,77.052],[4.006,77.054],[3.222,77.053],[2.438,77.048],[1.716,77.042],[1.104,77.041]]}},{"type":"Feature","properties":{"kind":"cold","line":3,"px_len":1287},"geometry":{"type":"LineString","coordinates":[[48.839,49.293],[49.06,49.364],[49.257,49.452],[49.453,49.549],[49.65,49.646],[49.847,49.743],[50.044,49.839],[50.243,49.936],[50.445,50.03],[50.654,50.121],[50.871,50.207],[51.098,50.288],[51.338,50.361],[51.59,50.427],[51.857,50.485],[52.142,50.532],[52.44,50.564],[52.71,50.61],[52.935,50.685],[53.123,50.789],[53.305,50.896],[53.491,51.002],[53.676,51.109],[53.862,51.215],[54.051,51.32],[54.238,51.427],[54.429,51.531],[54.616,51.638],[54.807,51.743],[54.996,51.85],[55.187,51.957],[55.378,52.063],[55.57,52.169],[55.759,52.277],[55.954,52.383],[56.149,52.488],[56.345,52.593],[56.537,52.701],[56.73,52.81],[56.924,52.917],[57.119,53.025],[57.316,53.132],[57.514,53.239],[57.713,53.345],[57.913,53.451],[58.11,53.56],[58.306,53.67],[58.502,53.781],[58.701,53.89],[58.898,54.001],[59.095,54.113],[59.291,54.225],[59.479,54.343],[59.611,54.492],[59.692,54.678],[59.755,54.881],[59.848,55.069],[59.963,55.243],[60.094,55.407],[60.239,55.561],[60.398,55.707],[60.569,55.846],[60.747,55.981],[60.927,56.114],[61.108,56.248],[61.29,56.383],[61.472,56.517],[61.656,56.652],[61.84,56.787],[62.025,56.923],[62.212,57.058],[62.399,57.194],[62.587,57.33],[62.777,57.466],[62.968,57.602],[63.16,57.738],[63.353,57.875],[63.546,58.012],[63.741,58.15],[63.936,58.288],[64.132,58.426],[64.329,58.565],[64.527,58.704],[64.729,58.841],[64.943,58.971],[65.172,59.09],[65.41,59.204],[65.656,59.312],[65.908,59.417],[66.123,59.551],[66.298,59.717],[66.448,59.904],[66.617,60.077],[66.804,60.238],[67.006,60.39],[67.218,60.534],[67.435,60.676],[67.653,60.819],[67.873,60.962],[68.096,61.104],[68.32,61.246],[68.547,61.389],[68.777,61.529],[69.011,61.668],[69.251,61.804],[69.495,61.938],[69.747,62.067],[70.003,62.194],[70.265,62.319],[70.531,62.441],[70.802,62.561],[71.076,62.679],[71.357,62.793],[71.641,62.906],[71.93,63.016],[72.224,63.124],[72.523,63.228],[72.826,63.33],[73.139,63.425],[73.461,63.513],[73.795,63.591],[74.14,63.661],[74.496,63.72],[74.863,63.769],[75.222,63.827],[75.564,63.901],[75.893,63.991],[76.209,64.089],[76.453,64.208],[76.606,64.334]]}},{"type":"Feature","properties":{"kind":"warm","line":4,"px_len":326},"geometry":{"type":"LineString","coordinates":[[-47.902,55.076],[-47.944,55.287],[-47.976,55.486],[-48.015,55.687],[-48.093,55.877],[-48.244,56.037],[-48.448,56.161],[-48.678,56.262],[-48.91,56.363],[-49.138,56.467],[-49.363,56.577],[-49.581,56.692],[-49.794,56.814],[-50.007,56.937],[-50.225,57.057],[-50.448,57.173],[-50.676,57.285],[-50.91,57.393],[-51.145,57.501],[-51.384,57.607],[-51.625,57.711],[-51.871,57.812],[-52.123,57.908],[-52.386,57.994],[-52.66,58.07],[-52.944,58.137],[-53.238,58.193],[-53.54,58.243],[-53.848,58.285],[-54.16,58.324],[-54.479,58.356],[-54.776,58.346],[-54.978,58.287],[-55.07,58.203]]}},{"type":"Feature","properties":{"kind":"cold","line":4,"px_len":685},"geometry":{"type":"LineString","coordinates":[[-55.07,58.203],[-55.172,58.043],[-55.262,57.888],[-55.365,57.733],[-55.485,57.583],[-55.613,57.435],[-55.73,57.284],[-55.837,57.131],[-55.937,56.977],[-56.03,56.821],[-56.119,56.664],[-56.2,56.506],[-56.281,56.348],[-56.361,56.19],[-56.449,56.034],[-56.55,55.882],[-56.66,55.733],[-56.778,55.585],[-56.903,55.439],[-57.03,55.295],[-57.157,55.15],[-57.288,55.007],[-57.419,54.864],[-57.556,54.723],[-57.696,54.582],[-57.841,54.443],[-57.992,54.306],[-58.148,54.17],[-58.309,54.035],[-58.476,53.902],[-58.648,53.771],[-58.822,53.639],[-58.989,53.507],[-59.147,53.372],[-59.288,53.234],[-59.422,53.094],[-59.553,52.953],[-59.748,52.828],[-60.013,52.718],[-60.318,52.617],[-60.597,52.51],[-60.843,52.395],[-61.072,52.276],[-61.293,52.156],[-61.516,52.036],[-61.742,51.916],[-61.973,51.797],[-62.215,51.68],[-62.462,51.564],[-62.711,51.449],[-62.957,51.332],[-63.2,51.214],[-63.438,51.096],[-63.673,50.976],[-63.906,50.856],[-64.14,50.736],[-64.373,50.615],[-64.591,50.492],[-64.783,50.363],[-64.954,50.231],[-65.114,50.098],[-65.302,49.998],[-65.525,49.946],[-65.775,49.938],[-66.026,49.929],[-66.249,49.876],[-66.432,49.771],[-66.575,49.633],[-66.681,49.516],[-66.745,49.436]]}},{"type":"Feature","properties":{"kind":"occl","line":5,"px_len":203},"geometry":{"type":"LineString","coordinates":[[-55.067,58.511],[-55.267,58.683],[-55.491,58.814],[-55.748,58.918],[-56.011,59.017],[-56.275,59.117],[-56.541,59.214],[-56.81,59.311],[-57.076,59.413],[-57.335,59.524],[-57.585,59.647],[-57.829,59.781],[-58.08,59.908],[-58.349,60.016],[-58.629,60.111],[-58.906,60.211],[-59.178,60.321],[-59.446,60.438],[-59.717,60.552],[-60.007,60.643],[-60.237,60.701],[-60.372,60.735]]}}]}