{"type":"FeatureCollection","properties":{"chart":"fc","src":"Z__C_EDZW_20261007051804_nwv01,ico_tkb_na_N_000060_000000_202610070000_WV12.png","valid_time":"2026-10-09T12:00:00+00:00"},"features":[{"type":"Feature","properties":{"kind":"cold","line":0,"px_len":256},"geometry":{"type":"LineString","coordinates":[[4.781,36.41],[4.976,36.414],[5.158,36.417],[5.346,36.419],[5.534,36.421],[5.723,36.423],[5.911,36.424],[6.1,36.424],[6.288,36.424],[6.476,36.424],[6.665,36.423],[6.853,36.421],[7.041,36.419],[7.23,36.417],[7.418,36.403],[7.606,36.382],[7.793,36.362],[7.98,36.34],[8.168,36.319],[8.355,36.308],[8.545,36.335],[8.736,36.385],[8.928,36.445],[9.119,36.488],[9.311,36.531],[9.502,36.561],[9.694,36.592],[9.885,36.616],[10.077,36.64],[10.269,36.668],[10.462,36.697],[10.655,36.73],[10.848,36.763],[11.042,36.789],[11.235,36.81],[11.426,36.819],[11.618,36.827],[11.81,36.835],[12.001,36.837],[12.192,36.832],[12.371,36.851],[12.551,36.92],[12.738,37.04],[12.943,37.169],[13.153,37.285],[13.362,37.384],[13.57,37.472],[13.779,37.559],[13.991,37.656],[14.207,37.77],[14.425,37.895],[14.647,38.024],[14.867,38.142],[15.085,38.243],[15.3,38.326],[15.51,38.415],[15.667,38.528],[15.764,38.666],[15.818,38.815],[15.873,38.965],[15.936,39.114],[15.999,39.263],[16.056,39.413],[16.105,39.565],[16.162,39.715],[16.219,39.866],[16.277,40.016],[16.313,40.17],[16.342,40.326],[16.356,40.483],[16.369,40.64],[16.376,40.799],[16.39,40.957],[16.396,41.116],[16.403,41.276],[16.417,41.434],[16.416,41.595],[16.358,41.752],[16.226,41.901],[16.041,42.038],[15.857,42.181],[15.674,42.335],[15.491,42.495],[15.306,42.649],[15.141,42.794],[15.004,42.953]]}},{"type":"Feature","properties":{"kind":"cold","line":1,"px_len":74},"geometry":{"type":"LineString","coordinates":[[-53.085,41.028],[-52.94,41.153],[-52.796,41.265],[-52.635,41.376],[-52.465,41.484],[-52.288,41.589],[-52.104,41.69],[-51.918,41.79],[-51.719,41.884],[-51.518,41.978],[-51.35,42.087],[-51.228,42.218],[-51.132,42.361],[-51.029,42.502],[-50.912,42.636],[-50.794,42.77],[-50.675,42.904],[-50.555,43.037],[-50.421,43.165],[-50.28,43.289],[-50.137,43.412],[-49.987,43.533],[-49.843,43.656],[-49.677,43.769],[-49.559,43.863],[-49.469,43.927]]}},{"type":"Feature","properties":{"kind":"warm","line":1,"px_len":250},"geometry":{"type":"LineString","coordinates":[[-49.469,43.927],[-49.324,44.058],[-49.174,44.172],[-49.004,44.285],[-48.834,44.397],[-48.663,44.508],[-48.49,44.62],[-48.31,44.728],[-48.143,44.842],[-47.989,44.963],[-47.847,45.091],[-47.704,45.219],[-47.554,45.343],[-47.424,45.478],[-47.285,45.609],[-47.119,45.726],[-46.895,45.813],[-46.615,45.871],[-46.328,45.923],[-46.025,45.968],[-45.743,46.023],[-45.46,46.076],[-45.197,46.14],[-44.947,46.211],[-44.702,46.285],[-44.464,46.362],[-44.217,46.435],[-43.977,46.51],[-43.749,46.593],[-43.527,46.68],[-43.324,46.777],[-43.127,46.878],[-42.943,46.987],[-42.744,47.087],[-42.524,47.175],[-42.262,47.238],[-41.971,47.267],[-41.665,47.261],[-41.382,47.227],[-41.106,47.187],[-40.83,47.147],[-40.537,47.119],[-40.225,47.103],[-39.915,47.112],[-39.592,47.129],[-39.288,47.157],[-38.989,47.188],[-38.716,47.236],[-38.455,47.292],[-38.212,47.359],[-37.98,47.435],[-37.742,47.506],[-37.477,47.559],[-37.181,47.58],[-36.88,47.569],[-36.58,47.531],[-36.288,47.489],[-35.996,47.445],[-35.691,47.417],[-35.385,47.405],[-35.07,47.413],[-34.767,47.43],[-34.47,47.45],[-34.179,47.473],[-33.898,47.505],[-33.623,47.541],[-33.365,47.59],[-33.107,47.638],[-32.865,47.7],[-32.627,47.766],[-32.412,47.851],[-32.19,47.93],[-31.956,47.999],[-31.693,48.043],[-31.396,48.057],[-31.092,48.034],[-30.767,47.991],[-30.442,47.947],[-30.107,47.922],[-29.783,47.905],[-29.481,47.908],[-29.195,47.924],[-28.932,47.951],[-28.658,47.99]]}},{"type":"Feature","properties":{"kind":"cold","line":1,"px_len":440},"geometry":{"type":"LineString","coordinates":[[-28.658,47.99],[-28.363,48.007],[-28.099,48.031],[-27.821,48.053],[-27.549,48.079],[-27.266,48.094],[-26.977,48.103],[-26.674,48.096],[-26.355,48.072],[-26.028,48.036],[-25.73,48.031],[-25.475,48.071],[-25.254,48.147],[-25.027,48.218],[-24.794,48.283],[-24.556,48.342],[-24.322,48.405],[-24.073,48.452],[-23.819,48.493],[-23.555,48.522],[-23.295,48.556],[-23.034,48.59],[-22.774,48.622],[-22.512,48.654],[-22.251,48.685],[-21.98,48.704],[-21.704,48.717],[-21.416,48.713],[-21.123,48.702],[-20.817,48.674],[-20.525,48.661],[-20.257,48.68],[-20.019,48.738],[-19.792,48.811],[-19.564,48.884],[-19.335,48.956],[-19.093,49.011],[-18.85,49.065],[-18.603,49.113],[-18.359,49.166],[-18.103,49.201],[-17.843,49.23],[-17.585,49.264],[-17.332,49.303],[-17.081,49.346],[-16.826,49.384],[-16.571,49.42],[-16.311,49.45],[-16.055,49.485],[-15.787,49.503],[-15.516,49.513],[-15.23,49.5],[-14.959,49.508],[-14.708,49.551],[-14.48,49.634],[-14.258,49.728],[-14.031,49.815],[-13.8,49.896],[-13.564,49.971],[-13.321,50.033],[-13.074,50.089],[-12.827,50.144],[-12.578,50.199],[-12.329,50.252],[-12.079,50.305],[-11.829,50.358],[-11.578,50.41],[-11.329,50.467],[-11.085,50.535],[-10.84,50.603],[-10.591,50.664],[-10.336,50.712],[-10.075,50.748],[-9.81,50.777],[-9.545,50.805],[-9.28,50.832],[-9.017,50.865],[-8.763,50.921],[-8.522,51.006],[-8.291,51.122],[-8.06,51.237],[-7.822,51.339],[-7.577,51.428],[-7.33,51.511],[-7.081,51.593],[-6.828,51.668],[-6.575,51.743],[-6.32,51.817],[-6.065,51.89],[-5.808,51.963],[-5.553,52.041],[-5.294,52.113],[-5.034,52.183],[-4.771,52.247],[-4.509,52.316],[-4.241,52.366],[-3.97,52.409],[-3.695,52.439],[-3.419,52.468],[-3.148,52.514],[-2.887,52.604],[-2.635,52.731],[-2.386,52.875],[-2.131,53.007],[-1.874,53.132],[-1.611,53.243],[-1.344,53.342],[-1.074,53.433],[-0.801,53.518],[-0.528,53.607],[-0.253,53.69],[0.023,53.779],[0.3,53.867],[0.579,53.947],[0.862,54.014],[1.149,54.062],[1.436,54.114],[1.725,54.16],[2.013,54.211],[2.304,54.249],[2.558,54.329],[2.787,54.452],[3.001,54.626],[3.251,54.8],[3.527,54.962],[3.819,55.104],[4.113,55.239],[4.409,55.38],[4.707,55.539],[5.008,55.71],[5.277,55.887],[5.549,56.063],[5.824,56.219],[6.137,56.349],[6.453,56.464],[6.771,56.599],[7.08,56.758],[7.287,56.931],[7.341,57.106],[7.239,57.282],[7.088,57.458],[6.924,57.635],[6.757,57.812],[6.576,57.988],[6.417,58.164],[6.27,58.34],[6.183,58.477],[6.132,58.575]]}},{"type":"Feature","properties":{"kind":"occl","line":1,"px_len":195},"geometry":{"type":"LineString","coordinates":[[6.132,58.575],[5.981,58.758],[5.891,58.928],[5.8,59.104],[5.643,59.28],[5.434,59.456],[5.208,59.631],[5.006,59.807],[4.841,59.982],[4.727,60.159],[4.638,60.335],[4.561,60.512],[4.443,60.688],[4.283,60.864],[4.066,61.039],[3.819,61.212],[3.569,61.386],[3.33,61.559],[3.129,61.733],[2.954,61.908],[2.805,62.083],[2.697,62.26],[2.616,62.437],[2.548,62.615],[2.479,62.793],[2.425,62.972],[2.398,63.151],[2.312,63.329],[2.121,63.504],[1.836,63.675],[1.533,63.846],[1.286,64.018],[1.082,64.191],[0.922,64.366],[0.743,64.541],[0.531,64.714],[0.206,64.882],[-0.202,65.039],[-0.67,65.165],[-1.135,65.262],[-1.598,65.338],[-2.068,65.426],[-2.551,65.539],[-3.049,65.677],[-3.543,65.827],[-3.994,65.98],[-4.402,66.134],[-4.795,66.283],[-5.224,66.386],[-5.684,66.445],[-6.17,66.479],[-6.664,66.525],[-7.172,66.589],[-7.687,66.657],[-8.214,66.737],[-8.749,66.822],[-9.278,66.891],[-9.778,66.913],[-10.244,66.888],[-10.704,66.855],[-11.163,66.821],[-11.62,66.785],[-12.076,66.748],[-12.536,66.716],[-12.974,66.72],[-13.375,66.743]]}},{"type":"Feature","properties":{"kind":"warm","line":2,"px_len":207},"geometry":{"type":"LineString","coordinates":[[-2.383,47.975],[-2.144,48.067],[-1.921,48.157],[-1.69,48.253],[-1.459,48.355],[-1.225,48.45],[-0.987,48.526],[-0.748,48.601],[-0.505,48.664],[-0.26,48.714],[-0.012,48.751],[0.236,48.787],[0.485,48.822],[0.734,48.863],[0.98,48.921],[1.223,49.016],[1.462,49.141],[1.681,49.296],[1.889,49.468],[2.099,49.646],[2.333,49.806],[2.579,49.953],[2.829,50.075],[3.081,50.19],[3.336,50.292],[3.593,50.388],[3.852,50.47],[4.113,50.539],[4.376,50.594],[4.64,50.643],[4.905,50.672],[5.17,50.707],[5.436,50.741],[5.701,50.805],[5.968,50.9],[6.226,51.038],[6.426,51.201],[6.568,51.369],[6.681,51.538],[6.815,51.707],[6.981,51.876],[7.159,52.044],[7.349,52.212],[7.53,52.38],[7.713,52.548],[7.898,52.716],[8.095,52.883],[8.305,53.05],[8.517,53.216],[8.762,53.382],[9.0,53.547],[9.228,53.712],[9.363,53.879],[9.411,54.05],[9.373,54.224],[9.302,54.399],[9.219,54.574],[9.146,54.749],[9.095,54.924],[9.054,55.098],[9.002,55.273],[8.926,55.449],[8.827,55.625],[8.716,55.802],[8.603,55.979],[8.488,56.155],[8.361,56.332],[8.174,56.511],[7.961,56.67],[7.732,56.809]]}},{"type":"Feature","properties":{"kind":"cold","line":3,"px_len":272},"geometry":{"type":"LineString","coordinates":[[25.961,47.208],[26.19,47.333],[26.407,47.449],[26.636,47.568],[26.884,47.682],[27.15,47.791],[27.384,47.908],[27.551,48.042],[27.65,48.194],[27.741,48.349],[27.851,48.499],[27.97,48.647],[28.107,48.79],[28.254,48.931],[28.42,49.067],[28.587,49.202],[28.755,49.338],[28.924,49.473],[29.095,49.608],[29.267,49.743],[29.44,49.878],[29.632,50.008],[29.825,50.137],[30.038,50.261],[30.216,50.394],[30.342,50.543],[30.397,50.712],[30.443,50.884],[30.499,51.054],[30.583,51.216],[30.677,51.375],[30.79,51.529],[30.904,51.683],[31.019,51.837],[31.135,51.992],[31.252,52.146],[31.351,52.305],[31.442,52.468],[31.533,52.63],[31.645,52.787],[31.767,52.941],[31.89,53.096],[32.042,53.242],[32.196,53.387],[32.371,53.528],[32.528,53.673],[32.676,53.821],[32.768,53.987],[32.812,54.166],[32.837,54.352],[32.871,54.534],[32.936,54.709],[33.012,54.88],[33.118,55.043],[33.226,55.206],[33.334,55.37],[33.444,55.533],[33.564,55.693],[33.707,55.847],[33.82,56.01],[33.954,56.167],[34.101,56.321],[34.28,56.466],[34.46,56.611],[34.642,56.755],[34.794,56.909],[34.875,57.084],[34.894,57.278],[34.902,57.475],[34.921,57.67],[34.962,57.858],[35.014,58.043],[35.077,58.226],[35.13,58.411],[35.184,58.597],[35.239,58.783],[35.295,58.969],[35.351,59.155],[35.43,59.335],[35.533,59.509],[35.659,59.676],[35.799,59.84],[35.962,59.997],[36.14,60.151],[36.307,60.309],[36.407,60.485],[36.427,60.686],[36.389,60.903],[36.362,61.117],[36.358,61.324],[36.385,61.477],[36.429,61.58]]}},{"type":"Feature","properties":{"kind":"warm","line":3,"px_len":133},"geometry":{"type":"LineString","coordinates":[[36.429,61.58],[36.603,61.747],[36.824,61.885],[37.067,62.025],[37.301,62.169],[37.512,62.319],[37.763,62.458],[38.054,62.586],[38.408,62.696],[38.827,62.787],[39.298,62.838],[39.779,62.845],[40.212,62.817],[40.627,62.776],[41.041,62.734],[41.462,62.697],[41.898,62.668],[42.342,62.644],[42.803,62.628],[43.254,62.606],[43.713,62.587],[44.171,62.566],[44.629,62.544],[45.086,62.52],[45.561,62.505],[46.071,62.508],[46.573,62.505],[47.046,62.484],[47.452,62.426],[47.78,62.327],[48.029,62.188],[48.257,62.039],[48.502,61.899],[48.763,61.768],[49.04,61.647],[49.296,61.516],[49.559,61.388],[49.8,61.251],[50.096,61.142],[50.39,61.032],[50.681,60.922],[50.942,60.797],[51.229,60.685],[51.504,60.577],[51.795,60.46]]}},{"type":"Feature","properties":{"kind":"cold","line":4,"px_len":247},"geometry":{"type":"LineString","coordinates":[[-67.051,42.27],[-66.949,42.42],[-66.85,42.558],[-66.74,42.7],[-66.615,42.839],[-66.488,42.977],[-66.369,43.118],[-66.248,43.258],[-66.111,43.395],[-65.966,43.53],[-65.804,43.66],[-65.633,43.789],[-65.445,43.914],[-65.28,44.044],[-65.177,44.19],[-65.113,44.345],[-65.064,44.504],[-65.015,44.663],[-64.965,44.822],[-64.915,44.981],[-64.832,45.133],[-64.733,45.281],[-64.633,45.429],[-64.54,45.579],[-64.455,45.731],[-64.352,45.879],[-64.249,46.027],[-64.154,46.177],[-64.074,46.331],[-63.968,46.479],[-63.862,46.627],[-63.747,46.773],[-63.639,46.922],[-63.505,47.063],[-63.354,47.201],[-63.218,47.343],[-63.14,47.499],[-63.122,47.671],[-63.12,47.848],[-63.101,48.02],[-63.048,48.184],[-63.003,48.35],[-62.94,48.512],[-62.902,48.681],[-62.847,48.845],[-62.809,49.014],[-62.761,49.181],[-62.722,49.351],[-62.683,49.52],[-62.643,49.69],[-62.594,49.858],[-62.545,50.025],[-62.486,50.191],[-62.445,50.361],[-62.385,50.527],[-62.315,50.691],[-62.217,50.848],[-62.118,51.005],[-62.046,51.169],[-62.058,51.354],[-62.126,51.554],[-62.223,51.76],[-62.302,51.962],[-62.363,52.16],[-62.424,52.357],[-62.448,52.546],[-62.481,52.737],[-62.496,52.924],[-62.51,53.111],[-62.495,53.291],[-62.46,53.467],[-62.425,53.643],[-62.399,53.822],[-62.373,54.001],[-62.326,54.175],[-62.248,54.342],[-62.18,54.512],[-62.101,54.679],[-62.021,54.847],[-61.899,55.005],[-61.717,55.108],[-61.503,55.121],[-61.236,55.037]]}},{"type":"Feature","properties":{"kind":"warm","line":4,"px_len":130},"geometry":{"type":"LineString","coordinates":[[-61.236,55.037],[-60.969,54.938],[-60.728,54.838],[-60.475,54.74],[-60.231,54.63],[-59.985,54.526],[-59.745,54.415],[-59.498,54.315],[-59.243,54.227],[-58.989,54.137],[-58.736,54.047],[-58.495,53.945],[-58.264,53.831],[-58.062,53.682],[-57.91,53.504],[-57.82,53.309],[-57.798,53.119],[-57.828,52.937],[-57.886,52.764],[-57.943,52.591],[-58.0,52.419],[-58.065,52.249],[-58.139,52.082],[-58.213,51.915],[-58.285,51.748],[-58.366,51.584],[-58.388,51.409],[-58.32,51.236],[-58.167,51.059],[-58.003,50.884],[-57.849,50.698],[-57.718,50.497],[-57.633,50.297],[-57.635,50.11],[-57.716,49.948],[-57.839,49.8],[-57.96,49.652],[-58.073,49.501],[-58.184,49.35],[-58.295,49.2],[-58.379,49.041],[-58.462,48.882],[-58.516,48.721],[-58.577,48.549]]}}]}