{"type":"FeatureCollection","properties":{"chart":"fc","src":"Z__C_EDZW_20261005051314_nwv01,ico_tkb_na_N_000060_000000_202610050000_WV12.png","valid_time":"2026-10-07T12:00:00+00:00"},"features":[{"type":"Feature","properties":{"kind":"cold","line":0,"px_len":341},"geometry":{"type":"LineString","coordinates":[[-18.501,42.97],[-18.325,43.088],[-18.159,43.195],[-17.986,43.304],[-17.808,43.408],[-17.632,43.516],[-17.455,43.624],[-17.278,43.732],[-17.093,43.829],[-16.904,43.92],[-16.708,43.999],[-16.511,44.078],[-16.313,44.157],[-16.114,44.235],[-15.912,44.307],[-15.705,44.373],[-15.517,44.472],[-15.346,44.604],[-15.19,44.764],[-15.026,44.913],[-14.858,45.055],[-14.679,45.181],[-14.497,45.301],[-14.304,45.403],[-14.111,45.505],[-13.916,45.607],[-13.723,45.714],[-13.527,45.815],[-13.329,45.915],[-13.13,46.015],[-12.934,46.12],[-12.73,46.214],[-12.523,46.301],[-12.309,46.377],[-12.094,46.451],[-11.879,46.526],[-11.66,46.594],[-11.438,46.655],[-11.217,46.722],[-11.012,46.824],[-10.826,46.971],[-10.645,47.13],[-10.461,47.289],[-10.266,47.424],[-10.065,47.546],[-9.852,47.645],[-9.638,47.744],[-9.424,47.842],[-9.21,47.945],[-8.993,48.042],[-8.774,48.139],[-8.555,48.235],[-8.335,48.331],[-8.113,48.426],[-7.886,48.508],[-7.658,48.59],[-7.426,48.666],[-7.19,48.729],[-6.95,48.785],[-6.706,48.829],[-6.463,48.877],[-6.23,48.93],[-6.03,49.022],[-5.844,49.163],[-5.653,49.322],[-5.44,49.477],[-5.222,49.62],[-4.999,49.756],[-4.774,49.886],[-4.543,50.003],[-4.311,50.12],[-4.075,50.23],[-3.84,50.346],[-3.602,50.454],[-3.365,50.575],[-3.127,50.695],[-2.889,50.821],[-2.647,50.934],[-2.401,51.04],[-2.151,51.133],[-1.898,51.219],[-1.64,51.286],[-1.381,51.352],[-1.118,51.405],[-0.883,51.5],[-0.685,51.629],[-0.524,51.805],[-0.354,51.989],[-0.149,52.168],[0.09,52.336],[0.344,52.492],[0.602,52.641],[0.862,52.79],[1.123,52.944],[1.386,53.098],[1.652,53.251],[1.92,53.403],[2.191,53.555],[2.465,53.693],[2.744,53.806],[3.027,53.898],[3.312,53.977],[3.565,54.074],[3.752,54.2],[3.872,54.363],[3.97,54.537],[4.091,54.713],[4.247,54.889],[4.46,55.066],[4.721,55.231],[5.02,55.389],[5.321,55.546],[5.625,55.703],[5.863,55.819],[6.035,55.891]]}},{"type":"Feature","properties":{"kind":"warm","line":1,"px_len":278},"geometry":{"type":"LineString","coordinates":[[6.973,56.236],[7.303,56.375],[7.612,56.507],[7.936,56.657],[8.229,56.807],[8.525,56.969],[8.823,57.131],[9.159,57.265],[9.494,57.366],[9.824,57.4],[10.15,57.402],[10.472,57.376],[10.796,57.363],[11.12,57.348],[11.443,57.333],[11.766,57.316],[12.092,57.312],[12.418,57.312],[12.747,57.325],[13.075,57.33],[13.401,57.328],[13.725,57.312],[14.048,57.295],[14.374,57.29],[14.699,57.284],[15.029,57.29],[15.355,57.282],[15.686,57.292],[16.018,57.301],[16.356,57.328],[16.69,57.341],[17.023,57.347],[17.341,57.314],[17.65,57.254],[17.945,57.161],[18.238,57.068],[18.529,56.974],[18.822,56.886],[19.118,56.81],[19.412,56.732],[19.711,56.667],[20.011,56.607],[20.315,56.558],[20.613,56.497],[20.91,56.434],[21.202,56.364],[21.497,56.3],[21.787,56.229],[22.075,56.157],[22.376,56.109],[22.668,56.047],[22.973,56.01],[23.264,55.947],[23.571,55.914],[23.873,55.874],[24.186,55.851],[24.484,55.803],[24.766,55.73],[25.017,55.607],[25.252,55.46],[25.481,55.306],[25.715,55.164],[25.951,55.027],[26.189,54.896],[26.436,54.782],[26.694,54.686],[26.958,54.601],[27.216,54.51],[27.477,54.424],[27.733,54.331],[27.995,54.25],[28.248,54.156],[28.52,54.091],[28.791,54.025],[29.073,53.976],[29.342,53.909],[29.619,53.853],[29.907,53.813],[30.2,53.779],[30.487,53.738],[30.751,53.667],[30.992,53.566],[31.208,53.436],[31.41,53.289],[31.614,53.147],[31.821,53.01],[32.04,52.89],[32.263,52.775],[32.493,52.672],[32.721,52.567],[32.958,52.474],[33.198,52.386],[33.391,52.325],[33.529,52.282]]}},{"type":"Feature","properties":{"kind":"cold","line":1,"px_len":257},"geometry":{"type":"LineString","coordinates":[[33.529,52.282],[33.761,52.173],[33.983,52.08],[34.223,51.995],[34.466,51.914],[34.708,51.834],[34.949,51.752],[35.189,51.67],[35.418,51.577],[35.641,51.477],[35.852,51.366],[36.068,51.261],[36.287,51.16],[36.525,51.08],[36.792,51.032],[37.074,50.999],[37.37,50.982],[37.651,50.948],[37.932,50.913],[38.201,50.866],[38.47,50.818],[38.732,50.765],[38.994,50.711],[39.26,50.661],[39.526,50.61],[39.791,50.559],[40.055,50.507],[40.329,50.465],[40.603,50.421],[40.882,50.382],[41.149,50.332],[41.409,50.276],[41.669,50.22],[41.916,50.152],[42.152,50.074],[42.38,49.99],[42.613,49.911],[42.892,49.871],[43.181,49.871],[43.517,49.91],[43.854,49.947],[44.196,49.957],[44.521,49.951],[44.834,49.934],[45.146,49.916],[45.458,49.897],[45.775,49.882],[46.093,49.866],[46.416,49.853],[46.745,49.844],[47.081,49.838],[47.404,49.821],[47.701,49.785],[47.978,49.734],[48.248,49.677],[48.517,49.62],[48.783,49.597],[49.039,49.621],[49.286,49.693],[49.533,49.772],[49.789,49.847],[50.074,49.904],[50.38,49.947],[50.701,49.98],[51.015,50.017],[51.323,50.056],[51.632,50.095],[51.928,50.141],[52.232,50.182],[52.522,50.232],[52.834,50.266],[53.153,50.295],[53.505,50.3],[53.871,50.294],[54.223,50.296],[54.524,50.334],[54.767,50.413],[54.985,50.51],[55.198,50.612],[55.431,50.698],[55.653,50.794],[55.895,50.875],[56.138,50.955],[56.401,51.021],[56.672,51.08],[56.891,51.12],[57.057,51.141]]}},{"type":"Feature","properties":{"kind":"occl","line":1,"px_len":398},"geometry":{"type":"LineString","coordinates":[[57.057,51.141],[57.331,51.208],[57.603,51.256],[57.909,51.287],[58.227,51.308],[58.57,51.308],[58.883,51.331],[59.154,51.389],[59.377,51.485],[59.596,51.587],[59.816,51.688],[60.037,51.788],[60.259,51.888],[60.483,51.988],[60.707,52.087],[60.933,52.185],[61.155,52.288],[61.33,52.433],[61.454,52.623],[61.543,52.846],[61.657,53.047],[61.797,53.227],[61.95,53.397],[62.104,53.567],[62.267,53.732],[62.436,53.891],[62.614,54.045],[62.804,54.188],[63.015,54.314],[63.227,54.441],[63.429,54.577],[63.572,54.744],[63.643,54.93],[63.685,55.143],[63.74,55.368],[63.84,55.602],[63.96,55.82],[64.095,56.027],[64.224,56.24],[64.318,56.462],[64.35,56.679],[64.322,56.875],[64.243,57.054],[64.143,57.227],[64.052,57.402],[63.97,57.582],[63.908,57.769],[63.866,57.962],[63.844,58.163],[63.843,58.371],[63.842,58.579],[63.873,58.798],[63.904,59.017],[63.982,59.236],[64.079,59.453],[64.22,59.66],[64.271,59.854],[64.249,60.033],[64.139,60.208],[64.038,60.387],[63.948,60.569],[63.901,60.765],[63.889,60.972],[63.888,61.183],[63.876,61.39],[63.804,61.58],[63.673,61.753],[63.48,61.907],[63.273,62.057],[63.064,62.208],[62.853,62.358],[62.639,62.507],[62.435,62.66],[62.253,62.821],[62.093,62.988],[61.93,63.156],[61.778,63.327],[61.624,63.498],[61.48,63.673],[61.321,63.844],[61.186,64.023],[61.061,64.205],[60.972,64.399],[60.895,64.597],[60.829,64.8],[60.775,65.006],[60.694,65.204],[60.559,65.387],[60.356,65.55],[60.137,65.709],[59.928,65.872],[59.73,66.038],[59.542,66.209],[59.406,66.395],[59.267,66.581],[59.098,66.76],[58.831,66.909],[58.533,67.05],[58.19,67.177],[57.898,67.321],[57.602,67.464],[57.33,67.616],[57.026,67.758],[56.719,67.9],[56.449,68.054],[56.175,68.208],[55.94,68.374],[55.686,68.536],[55.486,68.715],[55.296,68.899],[55.132,69.091],[54.979,69.288],[54.852,69.494],[54.737,69.705],[54.546,69.892],[54.261,70.053],[53.912,70.194],[53.588,70.344],[53.288,70.503],[52.999,70.666],[52.72,70.833],[52.451,71.005],[52.177,71.177],[51.852,71.333],[51.444,71.465],[50.985,71.582],[50.52,71.697],[50.079,71.821],[49.647,71.949],[49.209,72.077],[48.765,72.203],[48.33,72.333],[48.02,72.445],[47.84,72.539]]}},{"type":"Feature","properties":{"kind":"cold","line":2,"px_len":336},"geometry":{"type":"LineString","coordinates":[[-53.14,42.095],[-53.026,42.236],[-52.92,42.368],[-52.809,42.505],[-52.697,42.641],[-52.585,42.778],[-52.472,42.914],[-52.344,43.045],[-52.209,43.172],[-52.059,43.293],[-51.901,43.41],[-51.742,43.527],[-51.617,43.66],[-51.54,43.816],[-51.484,43.98],[-51.427,44.145],[-51.341,44.298],[-51.255,44.45],[-51.154,44.596],[-51.052,44.742],[-50.943,44.885],[-50.839,45.031],[-50.735,45.177],[-50.623,45.32],[-50.496,45.456],[-50.368,45.592],[-50.254,45.735],[-50.146,45.881],[-50.037,46.027],[-49.913,46.166],[-49.781,46.302],[-49.648,46.438],[-49.514,46.574],[-49.379,46.709],[-49.243,46.845],[-49.091,46.973],[-48.931,47.098],[-48.748,47.212],[-48.579,47.333],[-48.453,47.475],[-48.37,47.638],[-48.309,47.812],[-48.232,47.979],[-48.14,48.139],[-48.025,48.288],[-47.908,48.437],[-47.783,48.583],[-47.68,48.739],[-47.553,48.885],[-47.433,49.034],[-47.305,49.179],[-47.175,49.324],[-47.044,49.47],[-46.912,49.615],[-46.78,49.76],[-46.638,49.901],[-46.503,50.046],[-46.367,50.191],[-46.23,50.336],[-46.069,50.47],[-45.899,50.599],[-45.712,50.72],[-45.523,50.841],[-45.334,50.962],[-45.143,51.083],[-44.974,51.215],[-44.843,51.366],[-44.758,51.541],[-44.68,51.72],[-44.593,51.896],[-44.49,52.063],[-44.369,52.223],[-44.24,52.379],[-44.109,52.534],[-43.986,52.694],[-43.861,52.853],[-43.743,53.017],[-43.624,53.18],[-43.512,53.348],[-43.406,53.52],[-43.3,53.692],[-43.209,53.872],[-43.118,54.052],[-43.017,54.229],[-42.906,54.401],[-42.77,54.56],[-42.615,54.711],[-42.451,54.858],[-42.277,55.001],[-42.151,55.168],[-42.09,55.352],[-42.112,55.57],[-42.161,55.801],[-42.177,56.033],[-42.16,56.257],[-42.125,56.473],[-42.089,56.689],[-42.053,56.906],[-42.034,57.131],[-42.033,57.366],[-42.076,57.603],[-42.135,57.832],[-42.219,58.046],[-42.313,58.255],[-42.409,58.465],[-42.48,58.689],[-42.528,58.928],[-42.541,59.169],[-42.544,59.405],[-42.547,59.642],[-42.578,59.883],[-42.634,60.091],[-42.704,60.261]]}},{"type":"Feature","properties":{"kind":"warm","line":2,"px_len":243},"geometry":{"type":"LineString","coordinates":[[-42.704,60.261],[-42.589,60.456],[-42.379,60.594],[-42.088,60.705],[-41.764,60.802],[-41.418,60.89],[-41.038,60.935],[-40.615,60.943],[-40.2,60.906],[-39.795,60.854],[-39.41,60.792],[-39.008,60.737],[-38.598,60.686],[-38.209,60.624],[-37.85,60.547],[-37.513,60.46],[-37.178,60.372],[-36.845,60.283],[-36.524,60.188],[-36.195,60.098],[-35.858,60.01],[-35.504,59.931],[-35.142,59.855],[-34.782,59.777],[-34.434,59.695],[-34.137,59.59],[-33.882,59.467],[-33.688,59.319],[-33.526,59.158],[-33.395,58.984],[-33.246,58.819],[-33.089,58.658],[-32.904,58.509],[-32.711,58.364],[-32.511,58.222],[-32.332,58.073],[-32.155,57.923],[-31.97,57.777],[-31.767,57.639],[-31.585,57.492],[-31.415,57.342],[-31.246,57.191],[-31.06,57.048],[-30.895,56.897],[-30.731,56.746],[-30.568,56.594],[-30.38,56.455],[-30.192,56.314],[-29.979,56.185],[-29.767,56.056],[-29.557,55.926],[-29.413,55.77],[-29.318,55.595],[-29.278,55.398],[-29.285,55.182],[-29.319,54.956],[-29.353,54.73],[-29.359,54.515],[-29.339,54.311],[-29.292,54.119],[-29.237,53.931],[-29.182,53.743],[-29.137,53.551],[-29.093,53.36],[-29.04,53.173],[-28.979,52.989],[-28.893,52.816],[-28.791,52.651],[-28.681,52.489],[-28.581,52.324],[-28.49,52.155],[-28.434,51.973],[-28.429,51.768],[-28.491,51.558],[-28.599,51.359],[-28.73,51.18],[-28.859,51.0],[-28.969,50.806],[-29.056,50.591],[-29.101,50.372],[-29.133,50.175],[-29.157,50.003]]}},{"type":"Feature","properties":{"kind":"occl","line":3,"px_len":144},"geometry":{"type":"LineString","coordinates":[[-43.157,60.455],[-43.615,60.474],[-44.019,60.504],[-44.426,60.541],[-44.8,60.597],[-45.175,60.652],[-45.552,60.706],[-45.93,60.759],[-46.318,60.805],[-46.699,60.855],[-47.082,60.904],[-47.465,60.952],[-47.858,60.993],[-48.259,60.994],[-48.691,60.973],[-49.161,60.923],[-49.67,60.876],[-50.148,60.85],[-50.58,60.854],[-50.983,60.879],[-51.379,60.909],[-51.798,60.92],[-52.21,60.935],[-52.622,60.949],[-53.028,60.967],[-53.414,61.001],[-53.794,61.04],[-54.154,61.094],[-54.509,61.153],[-54.846,61.228],[-55.172,61.314],[-55.499,61.399],[-55.829,61.483],[-56.16,61.567],[-56.532,61.614],[-56.962,61.607],[-57.447,61.545],[-57.949,61.463],[-58.447,61.379],[-58.919,61.317],[-59.364,61.263],[-59.783,61.201],[-60.197,61.109],[-60.544,60.987],[-60.801,60.847],[-60.968,60.688],[-61.133,60.529],[-61.256,60.383],[-61.338,60.25]]}}]}