{"type":"FeatureCollection","properties":{"chart":"fc","src":"Z__C_EDZW_20261006051745_nwv01,ico_tkb_na_N_000060_000000_202610060000_WV12.png","valid_time":"2026-10-08T12:00:00+00:00"},"features":[{"type":"Feature","properties":{"kind":"cold","line":0,"px_len":99},"geometry":{"type":"LineString","coordinates":[[4.088,43.527],[4.316,43.557],[4.529,43.579],[4.75,43.596],[4.972,43.599],[5.194,43.603],[5.416,43.605],[5.638,43.607],[5.86,43.59],[6.082,43.579],[6.304,43.597],[6.526,43.662],[6.749,43.738],[6.973,43.814],[7.198,43.883],[7.424,43.951],[7.649,44.007],[7.876,44.062],[8.103,44.123],[8.331,44.183],[8.559,44.236],[8.788,44.283],[9.017,44.329],[9.246,44.369],[9.476,44.408],[9.704,44.428],[9.932,44.442],[10.153,44.467],[10.355,44.547],[10.537,44.676],[10.715,44.829],[10.92,44.98],[11.123,45.113],[11.318,45.227]]}},{"type":"Feature","properties":{"kind":"cold","line":1,"px_len":194},"geometry":{"type":"LineString","coordinates":[[14.0,47.493],[14.134,47.654],[14.257,47.803],[14.392,47.958],[14.546,48.11],[14.728,48.26],[14.875,48.413],[14.978,48.571],[15.016,48.736],[15.027,48.903],[15.038,49.071],[15.059,49.238],[15.108,49.402],[15.176,49.565],[15.245,49.727],[15.305,49.891],[15.356,50.056],[15.427,50.219],[15.498,50.382],[15.57,50.545],[15.643,50.708],[15.716,50.872],[15.78,51.036],[15.825,51.203],[15.871,51.37],[15.936,51.535],[16.013,51.699],[16.1,51.862],[16.187,52.025],[16.286,52.187],[16.396,52.348],[16.507,52.509],[16.578,52.675],[16.588,52.848],[16.546,53.026],[16.503,53.205],[16.471,53.382],[16.459,53.558],[16.437,53.735],[16.446,53.909],[16.445,54.084],[16.465,54.256],[16.464,54.432],[16.474,54.606],[16.462,54.783],[16.46,54.959],[16.448,55.136],[16.436,55.313],[16.434,55.49],[16.444,55.665],[16.465,55.839],[16.487,56.014],[16.52,56.187],[16.576,56.359],[16.633,56.53],[16.656,56.705],[16.574,56.891],[16.433,57.083],[16.254,57.278],[16.145,57.467],[16.046,57.654],[15.982,57.838],[15.917,58.022],[15.9,58.202],[15.907,58.34],[15.939,58.437]]}},{"type":"Feature","properties":{"kind":"warm","line":2,"px_len":148},"geometry":{"type":"LineString","coordinates":[[16.428,59.528],[16.557,59.703],[16.721,59.861],[16.941,60.021],[17.176,60.18],[17.388,60.34],[17.563,60.504],[17.727,60.669],[17.907,60.833],[18.088,60.997],[18.325,61.155],[18.645,61.304],[19.061,61.436],[19.491,61.531],[19.905,61.585],[20.3,61.6],[20.698,61.62],[21.098,61.639],[21.505,61.669],[21.913,61.698],[22.338,61.751],[22.772,61.815],[23.212,61.884],[23.646,61.938],[24.082,61.991],[24.511,62.03],[24.94,62.068],[25.362,62.091],[25.794,62.126],[26.227,62.159],[26.671,62.202],[27.096,62.22],[27.501,62.211],[27.864,62.152],[28.198,62.06],[28.509,61.944],[28.811,61.82],[29.111,61.696],[29.408,61.571],[29.708,61.452],[30.011,61.337],[30.323,61.235],[30.627,61.125],[30.928,61.015],[31.221,60.898],[31.517,60.786],[31.805,60.668],[32.097,60.555],[32.374,60.445],[32.679,60.333]]}},{"type":"Feature","properties":{"kind":"warm","line":3,"px_len":201},"geometry":{"type":"LineString","coordinates":[[-53.611,37.78],[-53.509,37.917],[-53.414,38.045],[-53.315,38.178],[-53.216,38.31],[-53.128,38.449],[-53.046,38.59],[-52.964,38.732],[-52.874,38.87],[-52.791,39.012],[-52.726,39.163],[-52.66,39.313],[-52.607,39.47],[-52.56,39.63],[-52.526,39.797],[-52.491,39.963],[-52.449,40.127],[-52.381,40.278],[-52.268,40.409],[-52.114,40.521],[-51.947,40.627],[-51.778,40.733],[-51.616,40.841],[-51.453,40.949],[-51.302,41.064],[-51.163,41.184],[-51.023,41.304],[-50.889,41.427],[-50.735,41.541],[-50.587,41.657],[-50.424,41.767],[-50.261,41.877],[-50.09,41.983],[-49.905,42.082],[-49.72,42.181],[-49.52,42.273],[-49.326,42.367],[-49.125,42.458],[-48.929,42.552],[-48.726,42.642],[-48.535,42.739],[-48.35,42.838],[-48.171,42.941],[-48.004,43.05],[-47.849,43.166],[-47.7,43.285],[-47.55,43.404],[-47.392,43.519],[-47.214,43.623],[-46.996,43.706],[-46.737,43.767],[-46.451,43.812],[-46.17,43.86],[-45.903,43.914],[-45.66,43.982],[-45.43,44.057],[-45.219,44.142],[-45.02,44.235],[-44.82,44.327],[-44.625,44.422],[-44.43,44.517],[-44.233,44.611],[-44.036,44.705],[-43.838,44.799],[-43.645,44.896],[-43.452,44.993],[-43.274,45.075],[-43.105,45.14]]}},{"type":"Feature","properties":{"kind":"cold","line":3,"px_len":381},"geometry":{"type":"LineString","coordinates":[[-43.105,45.14],[-42.923,45.252],[-42.738,45.347],[-42.54,45.441],[-42.342,45.536],[-42.148,45.634],[-41.954,45.731],[-41.765,45.833],[-41.569,45.929],[-41.379,46.03],[-41.181,46.126],[-40.988,46.226],[-40.794,46.325],[-40.594,46.42],[-40.385,46.51],[-40.163,46.591],[-39.934,46.668],[-39.697,46.74],[-39.447,46.802],[-39.221,46.881],[-39.026,46.981],[-38.875,47.111],[-38.729,47.245],[-38.575,47.374],[-38.408,47.495],[-38.233,47.61],[-38.058,47.726],[-37.881,47.841],[-37.697,47.952],[-37.499,48.054],[-37.3,48.155],[-37.106,48.26],[-36.924,48.374],[-36.741,48.487],[-36.544,48.591],[-36.34,48.69],[-36.134,48.789],[-35.941,48.897],[-35.752,49.008],[-35.562,49.12],[-35.371,49.231],[-35.179,49.342],[-34.986,49.452],[-34.792,49.562],[-34.596,49.672],[-34.381,49.767],[-34.164,49.862],[-33.928,49.942],[-33.709,50.035],[-33.483,50.124],[-33.293,50.24],[-33.12,50.371],[-32.984,50.531],[-32.84,50.686],[-32.682,50.831],[-32.504,50.961],[-32.319,51.086],[-32.139,51.216],[-31.951,51.34],[-31.768,51.47],[-31.572,51.589],[-31.38,51.712],[-31.181,51.831],[-30.986,51.953],[-30.79,52.076],[-30.587,52.193],[-30.395,52.321],[-30.189,52.437],[-29.994,52.564],[-29.785,52.679],[-29.581,52.8],[-29.375,52.92],[-29.162,53.035],[-28.942,53.144],[-28.708,53.242],[-28.472,53.34],[-28.235,53.437],[-27.991,53.529],[-27.734,53.609],[-27.505,53.715],[-27.31,53.853],[-27.15,54.022],[-26.988,54.191],[-26.818,54.355],[-26.647,54.518],[-26.462,54.671],[-26.264,54.812],[-26.057,54.948],[-25.844,55.078],[-25.64,55.219],[-25.434,55.359],[-25.233,55.505],[-25.024,55.644],[-24.813,55.784],[-24.612,55.934],[-24.41,56.083],[-24.211,56.239],[-23.998,56.382],[-23.784,56.525],[-23.55,56.652],[-23.314,56.777],[-23.071,56.897],[-22.825,57.016],[-22.584,57.14],[-22.428,57.283],[-22.348,57.461],[-22.339,57.656],[-22.303,57.866],[-22.245,58.083],[-22.143,58.312],[-22.017,58.548],[-21.878,58.786],[-21.737,59.025],[-21.616,59.258],[-21.504,59.488],[-21.402,59.715],[-21.287,59.93],[-21.146,60.137],[-20.973,60.329],[-20.761,60.516],[-20.535,60.69],[-20.294,60.853],[-20.043,61.009],[-19.79,61.164],[-19.633,61.326],[-19.616,61.492],[-19.718,61.637],[-19.846,61.762]]}},{"type":"Feature","properties":{"kind":"stat","line":3,"px_len":38},"geometry":{"type":"LineString","coordinates":[[-19.846,61.762],[-20.02,61.929],[-20.183,62.084],[-20.328,62.25],[-20.488,62.413],[-20.65,62.577],[-20.853,62.731],[-21.046,62.888],[-21.241,63.044],[-21.425,63.204],[-21.611,63.363],[-21.8,63.522],[-21.948,63.646],[-22.055,63.735]]}},{"type":"Feature","properties":{"kind":"occl","line":3,"px_len":284},"geometry":{"type":"LineString","coordinates":[[-22.055,63.735],[-22.256,63.899],[-22.446,64.052],[-22.685,64.201],[-22.928,64.349],[-23.2,64.491],[-23.449,64.638],[-23.7,64.785],[-23.927,64.939],[-24.143,65.096],[-24.362,65.252],[-24.584,65.408],[-24.879,65.547],[-25.26,65.664],[-25.715,65.762],[-26.16,65.862],[-26.567,65.972],[-26.936,66.091],[-27.281,66.218],[-27.644,66.339],[-28.066,66.445],[-28.549,66.534],[-29.08,66.6],[-29.616,66.631],[-30.155,66.626],[-30.666,66.593],[-31.165,66.553],[-31.662,66.511],[-32.189,66.484],[-32.747,66.47],[-33.325,66.464],[-33.903,66.457],[-34.458,66.436],[-35.002,66.409],[-35.51,66.364],[-36.017,66.317],[-36.498,66.259],[-36.966,66.194],[-37.419,66.123],[-37.858,66.046],[-38.271,65.957],[-38.658,65.858],[-39.018,65.748],[-39.386,65.642],[-39.728,65.526],[-40.055,65.405],[-40.343,65.269],[-40.605,65.123],[-40.84,64.968],[-41.061,64.807],[-41.268,64.642],[-41.46,64.472],[-41.626,64.294],[-41.779,64.11],[-41.919,63.922],[-42.056,63.734],[-42.169,63.537],[-42.269,63.336],[-42.345,63.126],[-42.398,62.907],[-42.44,62.685],[-42.43,62.468],[-42.413,62.266],[-42.336,62.066],[-42.299,61.865],[-42.272,61.65],[-42.313,61.438],[-42.394,61.234],[-42.536,61.056],[-42.716,60.896],[-42.884,60.731],[-43.061,60.571],[-43.215,60.402],[-43.367,60.232],[-43.498,60.054],[-43.626,59.876],[-43.813,59.724],[-44.048,59.592],[-44.311,59.472],[-44.551,59.344],[-44.77,59.207],[-45.016,59.081],[-45.26,58.956],[-45.502,58.83],[-45.713,58.691],[-45.941,58.56],[-46.177,58.433],[-46.44,58.317],[-46.702,58.2],[-46.981,58.091],[-47.259,57.981],[-47.544,57.874],[-47.827,57.767],[-48.118,57.663],[-48.335,57.578],[-48.48,57.514]]}},{"type":"Feature","properties":{"kind":"warm","line":4,"px_len":189},"geometry":{"type":"LineString","coordinates":[[-14.862,51.533],[-14.666,51.707],[-14.495,51.889],[-14.323,52.09],[-14.149,52.291],[-13.958,52.469],[-13.748,52.616],[-13.526,52.746],[-13.298,52.868],[-13.073,52.997],[-12.852,53.137],[-12.66,53.311],[-12.531,53.498],[-12.502,53.685],[-12.524,53.862],[-12.566,54.035],[-12.599,54.21],[-12.632,54.386],[-12.655,54.564],[-12.658,54.746],[-12.65,54.93],[-12.631,55.116],[-12.612,55.303],[-12.603,55.488],[-12.605,55.671],[-12.596,55.856],[-12.587,56.042],[-12.556,56.231],[-12.536,56.419],[-12.505,56.609],[-12.484,56.797],[-12.451,56.988],[-12.453,57.172],[-12.511,57.346],[-12.65,57.506],[-12.837,57.657],[-13.048,57.804],[-13.284,57.946],[-13.523,58.087],[-13.752,58.231],[-13.949,58.381],[-14.136,58.532],[-14.301,58.688],[-14.479,58.842],[-14.636,59.0],[-14.83,59.151],[-14.991,59.309],[-15.153,59.467],[-15.305,59.627],[-15.47,59.785],[-15.637,59.942],[-15.782,60.104],[-15.879,60.276],[-15.978,60.448],[-16.053,60.626],[-16.153,60.798],[-16.306,60.96],[-16.586,61.097],[-16.979,61.189],[-17.426,61.254],[-17.866,61.29],[-18.296,61.313],[-18.677,61.331],[-19.021,61.356]]}},{"type":"Feature","properties":{"kind":"occl","line":5,"px_len":401},"geometry":{"type":"LineString","coordinates":[[76.246,56.367],[75.891,56.378],[75.57,56.373],[75.235,56.372],[74.895,56.375],[74.572,56.423],[74.292,56.514],[74.032,56.645],[73.737,56.767],[73.407,56.881],[73.041,56.986],[72.706,57.098],[72.391,57.214],[72.128,57.343],[71.906,57.481],[71.683,57.619],[71.469,57.76],[71.231,57.895],[70.99,58.029],[70.725,58.157],[70.447,58.282],[70.211,58.418],[70.018,58.565],[69.868,58.723],[69.716,58.881],[69.563,59.039],[69.386,59.191],[69.195,59.34],[68.99,59.485],[68.784,59.631],[68.575,59.776],[68.353,59.917],[68.152,60.065],[67.949,60.212],[67.744,60.359],[67.536,60.506],[67.338,60.656],[67.162,60.811],[66.984,60.967],[66.803,61.123],[66.657,61.288],[66.509,61.453],[66.395,61.628],[66.28,61.803],[66.188,61.984],[66.106,62.169],[66.036,62.357],[65.99,62.553],[65.956,62.751],[65.934,62.954],[65.937,63.163],[65.992,63.385],[66.099,63.622],[66.248,63.868],[66.423,64.097],[66.611,64.306],[66.747,64.501],[66.767,64.69],[66.709,64.884],[66.649,65.079],[66.645,65.286],[66.669,65.5],[66.722,65.722],[66.79,65.946],[66.83,66.164],[66.769,66.36],[66.573,66.525],[66.301,66.673],[66.025,66.821],[65.775,66.975],[65.537,67.133],[65.266,67.283],[64.975,67.429],[64.681,67.574],[64.413,67.727],[64.126,67.875],[63.82,68.019],[63.464,68.152],[63.087,68.28],[62.676,68.4],[62.244,68.515],[61.808,68.628],[61.367,68.741],[60.936,68.856],[60.501,68.97],[60.076,69.087],[59.646,69.203],[59.258,69.33],[58.881,69.461],[58.514,69.594],[58.141,69.727],[57.78,69.864],[57.445,70.008],[57.104,70.151],[56.759,70.294],[56.409,70.436],[56.053,70.578],[55.723,70.728],[55.404,70.882],[55.112,71.044],[54.799,71.201],[54.512,71.367],[54.22,71.533],[53.922,71.698],[53.571,71.848],[53.213,71.999],[52.85,72.148],[52.48,72.297],[52.136,72.455],[51.852,72.631],[51.712,72.851],[51.719,73.075],[51.828,73.308],[51.941,73.542],[52.039,73.781],[52.106,74.03],[52.138,74.269],[52.116,74.514],[52.203,74.729],[52.461,74.918],[52.855,75.082],[53.259,75.246],[53.69,75.403],[54.112,75.565],[54.525,75.731],[54.911,75.907],[55.325,76.078],[55.787,76.237],[56.26,76.395],[56.744,76.552],[57.259,76.703],[57.786,76.853],[58.362,76.991],[58.822,77.096],[59.195,77.159]]}}]}