{"type":"FeatureCollection","properties":{"chart":"fc","src":"Z__C_EDZW_20261006060755_nwv01,ico_tkb_na_N_000084_000000_202610060000_WV12.png","valid_time":"2026-10-09T12:00:00+00:00"},"features":[{"type":"Feature","properties":{"kind":"cold","line":0,"px_len":78},"geometry":{"type":"LineString","coordinates":[[7.094,42.537],[7.318,42.504],[7.525,42.46],[7.739,42.403],[7.952,42.339],[8.164,42.275],[8.375,42.199],[8.586,42.122],[8.795,42.033],[9.003,41.949],[9.21,41.853],[9.418,41.78],[9.628,41.747],[9.842,41.761],[10.056,41.774],[10.27,41.78],[10.482,41.775],[10.695,41.774],[10.907,41.761],[11.12,41.76],[11.334,41.764],[11.548,41.772],[11.764,41.787],[11.98,41.806],[12.199,41.842],[12.394,41.874],[12.565,41.907]]}},{"type":"Feature","properties":{"kind":"warm","line":0,"px_len":85},"geometry":{"type":"LineString","coordinates":[[12.565,41.907],[12.799,41.982],[13.02,42.064],[13.253,42.173],[13.492,42.305],[13.718,42.444],[13.913,42.585],[14.078,42.73],[14.22,42.877],[14.339,43.026],[14.442,43.177],[14.547,43.328],[14.709,43.472],[14.919,43.606],[15.165,43.705],[15.401,43.75],[15.626,43.747],[15.847,43.726],[16.07,43.717],[16.294,43.706],[16.517,43.696],[16.74,43.684],[16.968,43.689],[17.199,43.706],[17.431,43.727],[17.663,43.743],[17.894,43.757],[18.114,43.76],[18.349,43.755]]}},{"type":"Feature","properties":{"kind":"cold","line":0,"px_len":128},"geometry":{"type":"LineString","coordinates":[[18.349,43.755],[18.592,43.777],[18.814,43.785],[19.042,43.784],[19.269,43.777],[19.493,43.763],[19.72,43.755],[19.944,43.74],[20.166,43.719],[20.384,43.686],[20.595,43.635],[20.806,43.583],[21.012,43.519],[21.217,43.455],[21.433,43.419],[21.661,43.416],[21.902,43.448],[22.147,43.484],[22.391,43.52],[22.636,43.554],[22.877,43.577],[23.117,43.599],[23.361,43.626],[23.61,43.663],[23.862,43.706],[24.116,43.753],[24.372,43.8],[24.635,43.862],[24.903,43.93],[25.171,43.996],[25.429,44.039],[25.679,44.065],[25.924,44.078],[26.169,44.091],[26.395,44.134],[26.58,44.218],[26.734,44.343],[26.869,44.48],[27.02,44.612],[27.188,44.74],[27.389,44.858],[27.607,44.972],[27.791,45.057],[27.933,45.114]]}},{"type":"Feature","properties":{"kind":"cold","line":1,"px_len":66},"geometry":{"type":"LineString","coordinates":[[31.314,48.657],[31.426,48.813],[31.505,48.966],[31.588,49.125],[31.672,49.284],[31.783,49.435],[31.92,49.578],[32.059,49.721],[32.207,49.861],[32.322,50.011],[32.394,50.176],[32.431,50.352],[32.46,50.53],[32.516,50.701],[32.582,50.869],[32.656,51.034],[32.75,51.194],[32.862,51.348],[32.984,51.499],[33.108,51.651],[33.232,51.802],[33.343,51.937],[33.441,52.054]]}},{"type":"Feature","properties":{"kind":"occl","line":1,"px_len":260},"geometry":{"type":"LineString","coordinates":[[33.441,52.054],[33.573,52.211],[33.706,52.354],[33.863,52.496],[34.031,52.635],[34.209,52.771],[34.397,52.904],[34.606,53.031],[34.798,53.163],[34.935,53.313],[35.046,53.473],[35.157,53.632],[35.298,53.783],[35.44,53.933],[35.574,54.086],[35.69,54.245],[35.807,54.405],[35.935,54.561],[36.035,54.727],[36.098,54.905],[36.084,55.11],[36.059,55.317],[36.035,55.525],[36.04,55.724],[36.054,55.919],[36.069,56.115],[36.095,56.308],[36.13,56.498],[36.167,56.688],[36.193,56.881],[36.22,57.075],[36.247,57.268],[36.284,57.459],[36.344,57.643],[36.425,57.821],[36.528,57.992],[36.632,58.164],[36.717,58.342],[36.731,58.535],[36.657,58.739],[36.527,58.961],[36.39,59.191],[36.264,59.433],[36.17,59.665],[36.109,59.887],[36.039,60.104],[35.915,60.314],[35.714,60.499],[35.464,60.644],[35.173,60.754],[34.879,60.863],[34.582,60.971],[34.297,61.09],[34.002,61.203],[33.705,61.315],[33.412,61.433],[33.11,61.543],[32.812,61.659],[32.493,61.757],[32.184,61.865],[31.86,61.961],[31.534,62.056],[31.194,62.138],[30.863,62.232],[30.536,62.33],[30.212,62.434],[29.874,62.525],[29.5,62.578],[29.085,62.587],[28.652,62.577],[28.237,62.583],[27.837,62.607],[27.431,62.623],[27.03,62.644],[26.619,62.651],[26.192,62.638],[25.727,62.574],[25.282,62.47],[24.953,62.332],[24.748,62.175],[24.587,62.012],[24.427,61.848],[24.243,61.688],[24.087,61.524],[23.92,61.362],[23.755,61.2],[23.629,61.074],[23.542,60.983]]}},{"type":"Feature","properties":{"kind":"cold","line":2,"px_len":133},"geometry":{"type":"LineString","coordinates":[[-53.055,37.521],[-52.927,37.646],[-52.801,37.758],[-52.657,37.868],[-52.507,37.976],[-52.344,38.078],[-52.168,38.173],[-51.984,38.265],[-51.794,38.354],[-51.628,38.454],[-51.498,38.572],[-51.417,38.715],[-51.348,38.864],[-51.278,39.013],[-51.195,39.156],[-51.106,39.296],[-51.003,39.43],[-50.894,39.561],[-50.803,39.701],[-50.711,39.841],[-50.625,39.985],[-50.532,40.125],[-50.458,40.275],[-50.383,40.425],[-50.307,40.575],[-50.231,40.725],[-50.148,40.872],[-50.052,41.013],[-49.955,41.154],[-49.857,41.294],[-49.798,41.455],[-49.786,41.625],[-49.817,41.811],[-49.862,42.004],[-49.878,42.196],[-49.891,42.394],[-49.883,42.582],[-49.855,42.761],[-49.807,42.93],[-49.738,43.089],[-49.669,43.248],[-49.579,43.397],[-49.475,43.54],[-49.354,43.668],[-49.223,43.805]]}},{"type":"Feature","properties":{"kind":"warm","line":2,"px_len":228},"geometry":{"type":"LineString","coordinates":[[-49.223,43.805],[-49.092,43.943],[-48.969,44.07],[-48.84,44.203],[-48.69,44.324],[-48.553,44.453],[-48.408,44.578],[-48.276,44.71],[-48.129,44.835],[-48.009,44.974],[-47.895,45.116],[-47.781,45.258],[-47.63,45.383],[-47.438,45.485],[-47.195,45.563],[-46.904,45.614],[-46.598,45.656],[-46.291,45.698],[-46.004,45.75],[-45.73,45.808],[-45.469,45.873],[-45.208,45.937],[-44.952,46.004],[-44.695,46.07],[-44.437,46.135],[-44.172,46.196],[-43.899,46.252],[-43.626,46.307],[-43.352,46.362],[-43.07,46.411],[-42.807,46.472],[-42.558,46.539],[-42.327,46.618],[-42.088,46.693],[-41.842,46.762],[-41.562,46.811],[-41.255,46.833],[-40.946,46.82],[-40.667,46.784],[-40.419,46.724],[-40.184,46.655],[-39.962,46.577],[-39.723,46.511],[-39.466,46.458],[-39.173,46.43],[-38.861,46.413],[-38.531,46.409],[-38.201,46.411],[-37.883,46.421],[-37.571,46.434],[-37.265,46.451],[-36.964,46.47],[-36.694,46.511],[-36.434,46.56],[-36.198,46.626],[-35.962,46.692],[-35.742,46.77],[-35.515,46.844],[-35.276,46.907],[-35.007,46.947],[-34.702,46.959],[-34.394,46.939],[-34.095,46.897],[-33.797,46.854],[-33.478,46.821],[-33.157,46.813],[-32.847,46.813],[-32.554,46.826],[-32.271,46.848],[-32.0,46.878],[-31.728,46.908],[-31.455,46.936],[-31.182,46.964],[-30.92,47.001],[-30.652,47.031],[-30.421,47.065],[-30.221,47.097]]}},{"type":"Feature","properties":{"kind":"cold","line":2,"px_len":490},"geometry":{"type":"LineString","coordinates":[[-30.221,47.097],[-29.934,47.12],[-29.682,47.154],[-29.422,47.191],[-29.162,47.227],[-28.901,47.262],[-28.64,47.296],[-28.388,47.34],[-28.131,47.378],[-27.874,47.415],[-27.616,47.452],[-27.362,47.492],[-27.103,47.527],[-26.833,47.551],[-26.549,47.559],[-26.264,47.565],[-25.965,47.555],[-25.681,47.56],[-25.42,47.59],[-25.196,47.66],[-24.986,47.746],[-24.766,47.821],[-24.544,47.896],[-24.318,47.964],[-24.09,48.032],[-23.857,48.094],[-23.618,48.151],[-23.384,48.211],[-23.14,48.261],[-22.904,48.321],[-22.658,48.369],[-22.425,48.433],[-22.178,48.479],[-21.944,48.542],[-21.7,48.593],[-21.464,48.654],[-21.219,48.704],[-20.977,48.758],[-20.739,48.818],[-20.496,48.871],[-20.257,48.929],[-20.012,48.981],[-19.767,49.032],[-19.509,49.066],[-19.238,49.082],[-18.963,49.092],[-18.696,49.112],[-18.449,49.16],[-18.22,49.235],[-18.002,49.326],[-17.779,49.411],[-17.551,49.49],[-17.315,49.557],[-17.078,49.624],[-16.84,49.69],[-16.601,49.755],[-16.35,49.803],[-16.099,49.849],[-15.847,49.896],[-15.601,49.952],[-15.348,49.997],[-15.094,50.041],[-14.843,50.09],[-14.594,50.144],[-14.338,50.186],[-14.082,50.227],[-13.828,50.274],[-13.57,50.313],[-13.312,50.352],[-13.053,50.391],[-12.797,50.434],[-12.534,50.465],[-12.259,50.471],[-11.976,50.465],[-11.7,50.47],[-11.445,50.515],[-11.207,50.596],[-10.971,50.682],[-10.73,50.761],[-10.486,50.834],[-10.238,50.9],[-9.984,50.953],[-9.726,51.0],[-9.47,51.052],[-9.218,51.115],[-8.966,51.178],[-8.711,51.234],[-8.449,51.277],[-8.187,51.32],[-7.924,51.362],[-7.665,51.415],[-7.408,51.473],[-7.151,51.531],[-6.887,51.576],[-6.621,51.614],[-6.355,51.651],[-6.087,51.688],[-5.819,51.724],[-5.551,51.759],[-5.276,51.774],[-5.001,51.789],[-4.735,51.834],[-4.48,51.915],[-4.233,52.027],[-3.981,52.126],[-3.726,52.218],[-3.466,52.296],[-3.204,52.374],[-2.94,52.445],[-2.673,52.509],[-2.404,52.567],[-2.135,52.629],[-1.865,52.691],[-1.596,52.759],[-1.327,52.832],[-1.057,52.904],[-0.786,52.975],[-0.511,53.033],[-0.237,53.097],[0.039,53.16],[0.316,53.216],[0.595,53.271],[0.877,53.306],[1.159,53.347],[1.441,53.387],[1.707,53.476],[1.947,53.614],[2.186,53.778],[2.437,53.941],[2.715,54.085],[2.996,54.223],[3.281,54.34],[3.569,54.438],[3.861,54.509],[4.155,54.567],[4.45,54.624],[4.746,54.686],[5.042,54.748],[5.34,54.802],[5.639,54.849],[5.939,54.901],[6.24,54.953],[6.531,55.017],[6.756,55.112],[6.927,55.252],[7.056,55.424],[7.185,55.596],[7.305,55.769],[7.415,55.942],[7.537,56.114],[7.591,56.288],[7.563,56.462],[7.453,56.638],[7.342,56.814],[7.241,56.99],[7.14,57.166],[7.037,57.342],[6.933,57.518],[6.815,57.694],[6.697,57.87],[6.577,58.047],[6.443,58.223],[6.307,58.393],[6.132,58.575]]}},{"type":"Feature","properties":{"kind":"occl","line":2,"px_len":180},"geometry":{"type":"LineString","coordinates":[[6.132,58.575],[5.993,58.758],[5.853,58.928],[5.698,59.104],[5.541,59.28],[5.408,59.456],[5.312,59.632],[5.228,59.809],[5.143,59.986],[5.071,60.162],[4.917,60.339],[4.668,60.513],[4.322,60.686],[4.012,60.859],[3.766,61.033],[3.572,61.207],[3.404,61.382],[3.219,61.557],[2.989,61.73],[2.674,61.894],[2.301,62.035],[1.899,62.155],[1.498,62.247],[1.09,62.357],[0.675,62.486],[0.248,62.647],[-0.155,62.807],[-0.548,62.968],[-0.917,63.129],[-1.305,63.288],[-1.713,63.445],[-2.111,63.601],[-2.529,63.756],[-2.952,63.909],[-3.38,64.061],[-3.798,64.213],[-4.176,64.368],[-4.512,64.525],[-4.76,64.689],[-4.966,64.856],[-5.205,65.021],[-5.544,65.149],[-5.974,65.255],[-6.471,65.354],[-6.987,65.477],[-7.5,65.613],[-7.971,65.752],[-8.416,65.893],[-8.883,66.031],[-9.394,66.149],[-9.924,66.236],[-10.429,66.282],[-10.921,66.306],[-11.409,66.323],[-11.908,66.35],[-12.419,66.389],[-12.954,66.451],[-13.515,66.537],[-14.082,66.642],[-14.513,66.751],[-14.802,66.86]]}},{"type":"Feature","properties":{"kind":"warm","line":3,"px_len":161},"geometry":{"type":"LineString","coordinates":[[-2.59,47.786],[-2.351,47.873],[-2.133,47.975],[-1.91,48.102],[-1.684,48.222],[-1.455,48.336],[-1.222,48.431],[-0.985,48.514],[-0.745,48.589],[-0.504,48.658],[-0.261,48.72],[-0.015,48.769],[0.233,48.811],[0.479,48.865],[0.72,48.955],[0.956,49.094],[1.171,49.262],[1.348,49.44],[1.526,49.617],[1.697,49.794],[1.91,49.955],[2.126,50.102],[2.375,50.238],[2.624,50.379],[2.877,50.514],[3.13,50.654],[3.386,50.794],[3.642,50.952],[3.88,51.115],[4.09,51.289],[4.271,51.463],[4.464,51.636],[4.691,51.779],[4.952,51.89],[5.225,51.962],[5.5,52.028],[5.775,52.099],[6.052,52.182],[6.33,52.282],[6.589,52.408],[6.799,52.558],[6.927,52.728],[6.983,52.899],[6.998,53.07],[7.002,53.241],[7.006,53.412],[7.01,53.584],[7.003,53.756],[6.975,53.928],[6.946,54.1],[6.928,54.273],[6.932,54.445],[6.902,54.618],[6.872,54.752],[6.841,54.849]]}},{"type":"Feature","properties":{"kind":"cold","line":4,"px_len":232},"geometry":{"type":"LineString","coordinates":[[-69.834,42.833],[-69.589,42.868],[-69.358,42.91],[-69.12,42.969],[-68.935,43.062],[-68.812,43.191],[-68.747,43.345],[-68.69,43.499],[-68.632,43.655],[-68.558,43.807],[-68.475,43.957],[-68.383,44.106],[-68.291,44.256],[-68.198,44.405],[-68.089,44.551],[-67.97,44.695],[-67.834,44.836],[-67.706,44.979],[-67.576,45.122],[-67.446,45.264],[-67.315,45.407],[-67.183,45.549],[-67.05,45.692],[-66.907,45.832],[-66.764,45.972],[-66.594,46.107],[-66.415,46.24],[-66.218,46.369],[-66.037,46.502],[-65.905,46.645],[-65.823,46.799],[-65.774,46.961],[-65.707,47.12],[-65.632,47.277],[-65.556,47.433],[-65.479,47.59],[-65.401,47.747],[-65.323,47.904],[-65.245,48.062],[-65.148,48.215],[-65.042,48.366],[-64.934,48.518],[-64.844,48.673],[-64.762,48.831],[-64.679,48.989],[-64.595,49.146],[-64.511,49.304],[-64.399,49.456],[-64.286,49.607],[-64.145,49.753],[-64.012,49.9],[-63.868,50.046],[-63.797,50.208],[-63.771,50.381],[-63.8,50.567],[-63.82,50.751],[-63.841,50.935],[-63.842,51.116],[-63.825,51.292],[-63.799,51.466],[-63.772,51.641],[-63.754,51.817],[-63.746,51.996],[-63.747,52.178],[-63.749,52.36],[-63.76,52.544],[-63.791,52.732],[-63.842,52.925],[-63.894,53.118],[-63.946,53.312],[-64.019,53.51],[-64.154,53.701],[-64.339,53.868],[-64.561,54.015],[-64.792,54.15],[-65.018,54.296],[-65.176,54.442],[-65.252,54.612]]}},{"type":"Feature","properties":{"kind":"warm","line":4,"px_len":117},"geometry":{"type":"LineString","coordinates":[[-65.252,54.612],[-65.153,54.781],[-65.06,54.939],[-64.963,55.103],[-64.865,55.267],[-64.755,55.429],[-64.623,55.586],[-64.446,55.735],[-64.195,55.863],[-63.879,55.957],[-63.526,56.008],[-63.182,56.026],[-62.85,56.024],[-62.523,56.016],[-62.199,56.0],[-61.876,55.984],[-61.554,55.966],[-61.227,55.953],[-60.909,55.928],[-60.592,55.901],[-60.285,55.862],[-59.974,55.827],[-59.663,55.792],[-59.349,55.761],[-59.03,55.736],[-58.712,55.709],[-58.389,55.688],[-58.082,55.648],[-57.81,55.566],[-57.575,55.444],[-57.372,55.286],[-57.191,55.105],[-57.022,54.913],[-56.849,54.727],[-56.669,54.551],[-56.481,54.387],[-56.294,54.223],[-56.094,54.075],[-55.914,53.947],[-55.749,53.845]]}},{"type":"Feature","properties":{"kind":"occl","line":5,"px_len":68},"geometry":{"type":"LineString","coordinates":[[-65.628,54.502],[-65.986,54.442],[-66.301,54.413],[-66.623,54.392],[-66.957,54.344],[-67.309,54.259],[-67.672,54.148],[-68.034,54.03],[-68.363,53.906],[-68.69,53.78],[-69.014,53.653],[-69.364,53.537],[-69.704,53.437],[-70.03,53.368],[-70.344,53.322],[-70.652,53.287],[-70.958,53.257],[-71.265,53.221],[-71.529,53.152],[-71.732,53.035],[-71.882,52.886],[-71.991,52.725],[-72.066,52.599],[-72.098,52.506]]}},{"type":"Feature","properties":{"kind":"occl","line":6,"px_len":187},"geometry":{"type":"LineString","coordinates":[[73.876,55.919],[73.679,56.068],[73.542,56.218],[73.42,56.379],[73.33,56.547],[73.239,56.716],[73.18,56.892],[73.131,57.07],[73.114,57.257],[73.131,57.451],[73.159,57.648],[73.243,57.858],[73.329,58.068],[73.382,58.27],[73.366,58.458],[73.315,58.638],[73.288,58.824],[73.283,59.014],[73.313,59.213],[73.368,59.416],[73.447,59.625],[73.504,59.829],[73.512,60.024],[73.472,60.208],[73.407,60.387],[73.353,60.569],[73.323,60.756],[73.318,60.948],[73.326,61.143],[73.397,61.351],[73.534,61.572],[73.748,61.794],[73.982,61.997],[74.246,62.169],[74.535,62.316],[74.842,62.443],[75.123,62.586],[75.309,62.754],[75.425,62.952],[75.545,63.166],[75.738,63.39],[75.982,63.616],[76.24,63.828],[76.518,64.022],[76.806,64.208],[77.102,64.388],[77.349,64.573],[77.471,64.754],[77.473,64.939],[77.411,65.121],[77.347,65.304],[77.267,65.484],[77.185,65.665],[77.103,65.845],[77.035,66.028],[76.95,66.209],[76.879,66.392],[76.775,66.571],[76.702,66.754],[76.596,66.933],[76.536,67.119],[76.432,67.291],[76.315,67.477]]}},{"type":"Feature","properties":{"kind":"occl","line":7,"px_len":98},"geometry":{"type":"LineString","coordinates":[[67.544,71.209],[66.993,71.331],[66.512,71.449],[66.014,71.572],[65.49,71.69],[64.941,71.803],[64.385,71.915],[63.822,72.024],[63.233,72.129],[62.656,72.235],[62.147,72.355],[61.782,72.505],[61.506,72.673],[61.262,72.849],[60.974,73.018],[60.642,73.177],[60.323,73.341],[59.998,73.503],[59.666,73.666],[59.327,73.828],[59.001,73.993],[58.83,74.192],[58.807,74.405],[58.966,74.646],[59.152,74.891],[59.343,75.136],[59.541,75.381],[59.746,75.627],[59.991,75.86],[60.313,76.072],[60.624,76.254],[60.755,76.438],[60.735,76.588],[60.669,76.705]]}}]}