{"type":"FeatureCollection","properties":{"chart":"fc","src":"Z__C_EDZW_20261009045054_nwv01,ico_tkb_na_N_000060_000000_202610090000_WV12.png","valid_time":"2026-10-11T12:00:00+00:00"},"features":[{"type":"Feature","properties":{"kind":"warm","line":0,"px_len":68},"geometry":{"type":"LineString","coordinates":[[19.386,40.649],[19.645,40.77],[19.886,40.881],[20.123,40.999],[20.339,41.121],[20.526,41.248],[20.684,41.381],[20.82,41.518],[20.942,41.657],[21.08,41.794],[21.249,41.924],[21.45,42.049],[21.671,42.156],[21.906,42.254],[22.153,42.337],[22.403,42.425],[22.634,42.523],[22.847,42.636],[23.025,42.764],[23.197,42.892],[23.346,43.026],[23.504,43.158],[23.617,43.263],[23.7,43.337]]}},{"type":"Feature","properties":{"kind":"cold","line":0,"px_len":86},"geometry":{"type":"LineString","coordinates":[[23.7,43.337],[23.871,43.472],[24.022,43.6],[24.184,43.731],[24.348,43.862],[24.52,43.99],[24.693,44.119],[24.884,44.243],[25.083,44.365],[25.291,44.485],[25.517,44.601],[25.736,44.717],[25.9,44.848],[26.002,44.995],[26.064,45.151],[26.142,45.304],[26.238,45.453],[26.342,45.6],[26.455,45.745],[26.569,45.89],[26.692,46.032],[26.824,46.173],[26.957,46.313],[27.09,46.453],[27.217,46.596],[27.328,46.743],[27.448,46.887],[27.561,47.034],[27.654,47.146],[27.704,47.232]]}},{"type":"Feature","properties":{"kind":"cold","line":1,"px_len":282},"geometry":{"type":"LineString","coordinates":[[-37.71,47.722],[-37.868,47.586],[-37.999,47.448],[-38.13,47.303],[-38.259,47.157],[-38.394,47.015],[-38.521,46.869],[-38.642,46.718],[-38.761,46.568],[-38.886,46.422],[-39.01,46.276],[-39.133,46.129],[-39.249,45.979],[-39.357,45.824],[-39.453,45.661],[-39.535,45.49],[-39.611,45.314],[-39.674,45.13],[-39.748,44.955],[-39.852,44.801],[-39.998,44.676],[-40.161,44.563],[-40.318,44.445],[-40.479,44.332],[-40.628,44.21],[-40.781,44.092],[-40.922,43.966],[-41.056,43.836],[-41.188,43.706],[-41.32,43.575],[-41.458,43.449],[-41.588,43.318],[-41.718,43.187],[-41.858,43.064],[-42.004,42.945],[-42.15,42.826],[-42.294,42.706],[-42.456,42.598],[-42.616,42.49],[-42.776,42.382],[-42.917,42.262],[-43.058,42.141],[-43.203,42.025],[-43.36,41.915],[-43.504,41.798],[-43.635,41.674],[-43.753,41.541],[-43.865,41.405],[-43.988,41.276],[-44.14,41.166],[-44.339,41.086],[-44.555,41.015],[-44.759,40.938],[-44.95,40.852],[-45.134,40.762],[-45.311,40.668],[-45.482,40.57],[-45.645,40.469],[-45.808,40.367],[-45.971,40.265],[-46.132,40.162],[-46.299,40.063],[-46.459,39.96],[-46.618,39.857],[-46.777,39.753],[-46.928,39.646],[-47.085,39.542],[-47.23,39.431],[-47.385,39.326],[-47.522,39.212],[-47.652,39.093],[-47.77,38.968],[-47.887,38.843],[-48.021,38.727],[-48.208,38.642],[-48.424,38.572],[-48.657,38.512],[-48.866,38.439],[-49.08,38.367],[-49.275,38.286],[-49.458,38.198],[-49.622,38.099],[-49.791,38.004],[-49.96,37.908],[-50.128,37.812],[-50.295,37.716],[-50.462,37.619],[-50.627,37.522],[-50.786,37.422],[-50.951,37.325],[-51.114,37.227],[-51.271,37.126],[-51.404,37.012],[-51.506,36.904],[-51.585,36.804]]}},{"type":"Feature","properties":{"kind":"occl","line":2,"px_len":144},"geometry":{"type":"LineString","coordinates":[[20.08,58.222],[20.422,58.19],[20.754,58.192],[21.118,58.23],[21.503,58.303],[21.863,58.4],[22.205,58.505],[22.531,58.598],[22.884,58.667],[23.259,58.724],[23.639,58.765],[24.013,58.792],[24.38,58.806],[24.76,58.838],[25.156,58.892],[25.55,58.96],[25.927,59.037],[26.279,59.076],[26.631,59.093],[26.984,59.073],[27.351,59.071],[27.717,59.068],[28.084,59.063],[28.46,59.07],[28.85,59.093],[29.247,59.121],[29.634,59.135],[30.001,59.125],[30.362,59.107],[30.712,59.076],[31.078,59.061],[31.464,59.084],[31.855,59.141],[32.265,59.213],[32.677,59.27],[33.101,59.308],[33.504,59.32],[33.894,59.32],[34.291,59.324],[34.718,59.356],[35.16,59.412],[35.578,59.496],[35.941,59.595],[36.296,59.696],[36.665,59.793],[37.072,59.855],[37.497,59.903],[37.888,59.921],[38.233,59.938]]}},{"type":"Feature","properties":{"kind":"warm","line":3,"px_len":190},"geometry":{"type":"LineString","coordinates":[[28.126,47.651],[28.247,47.804],[28.37,47.942],[28.515,48.082],[28.635,48.228],[28.748,48.377],[28.844,48.53],[28.941,48.684],[29.039,48.838],[29.138,48.991],[29.212,49.152],[29.268,49.318],[29.316,49.487],[29.392,49.648],[29.52,49.795],[29.686,49.931],[29.915,50.051],[30.154,50.167],[30.403,50.279],[30.636,50.397],[30.853,50.519],[31.054,50.646],[31.238,50.778],[31.414,50.912],[31.583,51.049],[31.753,51.185],[31.924,51.322],[32.114,51.452],[32.297,51.586],[32.491,51.716],[32.677,51.848],[32.873,51.978],[33.071,52.107],[33.288,52.23],[33.507,52.353],[33.728,52.475],[33.95,52.597],[34.174,52.718],[34.408,52.836],[34.644,52.954],[34.891,53.067],[35.131,53.184],[35.381,53.297],[35.614,53.415],[35.84,53.536],[36.03,53.669],[36.231,53.799],[36.424,53.932],[36.628,54.061],[36.805,54.2],[37.031,54.322],[37.296,54.43],[37.642,54.503],[38.0,54.547],[38.363,54.559],[38.709,54.553],[39.06,54.551],[39.43,54.564],[39.825,54.597],[40.232,54.639],[40.629,54.692],[41.017,54.747],[41.365,54.81],[41.735,54.879]]}},{"type":"Feature","properties":{"kind":"cold","line":3,"px_len":64},"geometry":{"type":"LineString","coordinates":[[41.735,54.879],[42.107,54.946],[42.432,55.016],[42.746,55.098],[43.062,55.18],[43.362,55.268],[43.663,55.355],[43.957,55.445],[44.261,55.531],[44.567,55.616],[44.875,55.699],[45.193,55.778],[45.513,55.856],[45.825,55.937],[46.095,56.038],[46.331,56.155],[46.533,56.288],[46.737,56.42],[46.943,56.553],[47.124,56.697],[47.299,56.837],[47.491,56.986]]}},{"type":"Feature","properties":{"kind":"warm","line":3,"px_len":108},"geometry":{"type":"LineString","coordinates":[[47.491,56.986],[47.821,57.043],[48.151,57.04],[48.501,56.99],[48.841,56.934],[49.173,56.872],[49.495,56.804],[49.799,56.726],[50.11,56.652],[50.428,56.582],[50.745,56.511],[51.051,56.434],[51.34,56.347],[51.586,56.237],[51.78,56.099],[51.932,55.939],[52.057,55.765],[52.181,55.591],[52.312,55.422],[52.466,55.265],[52.619,55.109],[52.786,54.961],[52.96,54.818],[53.141,54.679],[53.312,54.535],[53.473,54.387],[53.633,54.238],[53.791,54.09],[53.94,53.937],[54.088,53.784],[54.235,53.631],[54.38,53.478],[54.524,53.324],[54.658,53.167],[54.799,53.013],[54.935,52.882],[55.064,52.774]]}},{"type":"Feature","properties":{"kind":"occl","line":4,"px_len":92},"geometry":{"type":"LineString","coordinates":[[38.659,59.943],[39.088,59.938],[39.474,59.922],[39.878,59.906],[40.31,59.911],[40.758,59.925],[41.189,59.959],[41.613,59.986],[42.022,60.001],[42.441,59.987],[42.82,59.945],[43.158,59.876],[43.455,59.779],[43.734,59.672],[44.027,59.574],[44.327,59.48],[44.624,59.386],[44.903,59.281],[45.188,59.18],[45.472,59.079],[45.713,58.951],[45.903,58.794],[46.043,58.605],[46.19,58.422],[46.343,58.244],[46.51,58.076],[46.69,57.917],[46.87,57.759],[47.055,57.605],[47.23,57.445],[47.365,57.322],[47.461,57.233]]}},{"type":"Feature","properties":{"kind":"cold","line":5,"px_len":567},"geometry":{"type":"LineString","coordinates":[[-46.587,33.979],[-46.375,33.955],[-46.171,33.95],[-45.972,33.975],[-45.813,34.046],[-45.697,34.16],[-45.602,34.287],[-45.501,34.411],[-45.389,34.527],[-45.276,34.644],[-45.158,34.757],[-45.028,34.864],[-44.887,34.963],[-44.746,35.062],[-44.604,35.16],[-44.462,35.259],[-44.313,35.354],[-44.159,35.445],[-44.004,35.535],[-43.849,35.626],[-43.698,35.72],[-43.547,35.813],[-43.395,35.906],[-43.242,35.999],[-43.089,36.092],[-42.935,36.185],[-42.781,36.277],[-42.626,36.369],[-42.475,36.464],[-42.319,36.556],[-42.173,36.655],[-42.015,36.746],[-41.873,36.848],[-41.714,36.938],[-41.57,37.04],[-41.41,37.13],[-41.265,37.231],[-41.109,37.324],[-40.963,37.425],[-40.805,37.517],[-40.653,37.614],[-40.489,37.702],[-40.329,37.794],[-40.149,37.87],[-39.967,37.945],[-39.759,38.001],[-39.571,38.072],[-39.414,38.166],[-39.292,38.288],[-39.175,38.413],[-39.057,38.539],[-38.934,38.661],[-38.809,38.782],[-38.664,38.888],[-38.507,38.985],[-38.349,39.081],[-38.196,39.182],[-38.047,39.286],[-37.888,39.382],[-37.727,39.478],[-37.571,39.577],[-37.425,39.685],[-37.273,39.788],[-37.11,39.883],[-36.946,39.977],[-36.787,40.075],[-36.637,40.182],[-36.486,40.288],[-36.335,40.394],[-36.183,40.5],[-36.03,40.605],[-35.877,40.711],[-35.722,40.816],[-35.567,40.921],[-35.412,41.026],[-35.255,41.13],[-35.098,41.235],[-34.94,41.339],[-34.781,41.442],[-34.621,41.546],[-34.461,41.649],[-34.3,41.752],[-34.138,41.855],[-33.975,41.958],[-33.812,42.06],[-33.648,42.162],[-33.478,42.259],[-33.297,42.347],[-33.1,42.42],[-32.907,42.498],[-32.744,42.603],[-32.61,42.736],[-32.486,42.877],[-32.356,43.014],[-32.224,43.151],[-32.082,43.278],[-31.924,43.391],[-31.765,43.504],[-31.605,43.617],[-31.445,43.73],[-31.268,43.828],[-31.1,43.935],[-30.937,44.047],[-30.773,44.158],[-30.598,44.26],[-30.427,44.366],[-30.26,44.477],[-30.092,44.587],[-29.918,44.692],[-29.749,44.802],[-29.578,44.912],[-29.407,45.021],[-29.234,45.13],[-29.061,45.239],[-28.892,45.353],[-28.716,45.461],[-28.54,45.569],[-28.368,45.681],[-28.19,45.789],[-28.026,45.911],[-27.846,46.018],[-27.679,46.139],[-27.497,46.245],[-27.329,46.366],[-27.15,46.477],[-26.979,46.598],[-26.803,46.713],[-26.631,46.833],[-26.457,46.953],[-26.287,47.077],[-26.116,47.202],[-25.939,47.321],[-25.757,47.434],[-25.573,47.547],[-25.388,47.66],[-25.193,47.762],[-24.991,47.859],[-24.785,47.95],[-24.577,48.04],[-24.391,48.156],[-24.247,48.32],[-24.139,48.526],[-24.029,48.733],[-23.905,48.923],[-23.769,49.103],[-23.628,49.278],[-23.48,49.447],[-23.332,49.616],[-23.186,49.79],[-23.049,49.975],[-22.919,50.172],[-22.789,50.368],[-22.666,50.575],[-22.564,50.781],[-22.484,51.002],[-22.429,51.213],[-22.374,51.425],[-22.327,51.634],[-22.279,51.843],[-22.24,52.05],[-22.228,52.247],[-22.215,52.445],[-22.221,52.637],[-22.217,52.833],[-22.223,53.025],[-22.219,53.221],[-22.216,53.417],[-22.202,53.617],[-22.18,53.819],[-22.118,54.034],[-22.027,54.258],[-21.945,54.48],[-21.959,54.671],[-22.062,54.835],[-22.195,54.991],[-22.319,55.149],[-22.425,55.313],[-22.541,55.475],[-22.639,55.642],[-22.738,55.81],[-22.818,55.984],[-22.879,56.164],[-22.93,56.348],[-22.961,56.538],[-22.993,56.728],[-22.994,56.928],[-22.974,57.134],[-22.895,57.351],[-22.768,57.522],[-22.604,57.645]]}},{"type":"Feature","properties":{"kind":"warm","line":5,"px_len":243},"geometry":{"type":"LineString","coordinates":[[-22.604,57.645],[-22.242,57.67],[-21.9,57.687],[-21.547,57.706],[-21.188,57.718],[-20.818,57.717],[-20.442,57.709],[-20.051,57.683],[-19.671,57.666],[-19.285,57.643],[-18.901,57.618],[-18.492,57.562],[-18.091,57.482],[-17.727,57.377],[-17.443,57.254],[-17.215,57.117],[-17.011,56.974],[-16.809,56.831],[-16.587,56.693],[-16.357,56.557],[-16.095,56.427],[-15.815,56.302],[-15.515,56.182],[-15.207,56.062],[-14.9,55.942],[-14.597,55.821],[-14.295,55.7],[-14.007,55.575],[-13.72,55.449],[-13.425,55.325],[-13.101,55.207],[-12.747,55.094],[-12.375,54.983],[-11.994,54.874],[-11.658,54.755],[-11.378,54.625],[-11.194,54.478],[-11.064,54.321],[-10.976,54.157],[-10.879,53.994],[-10.763,53.835],[-10.648,53.676],[-10.513,53.521],[-10.389,53.364],[-10.237,53.212],[-10.095,53.059],[-9.935,52.909],[-9.786,52.757],[-9.639,52.605],[-9.503,52.451],[-9.358,52.299],[-9.214,52.146],[-9.082,51.992],[-8.95,51.838],[-8.83,51.682],[-8.701,51.528],[-8.602,51.369],[-8.484,51.213],[-8.387,51.054],[-8.272,50.899],[-8.176,50.74],[-8.063,50.584],[-7.95,50.428],[-7.82,50.276],[-7.681,50.125],[-7.534,49.975],[-7.397,49.823],[-7.299,49.666],[-7.248,49.502],[-7.244,49.33],[-7.267,49.155],[-7.309,48.977],[-7.341,48.8],[-7.354,48.627],[-7.341,48.458],[-7.327,48.289],[-7.296,48.123],[-7.256,47.959],[-7.199,47.798],[-7.142,47.637],[-7.092,47.494],[-7.048,47.369]]}},{"type":"Feature","properties":{"kind":"occl","line":6,"px_len":142},"geometry":{"type":"LineString","coordinates":[[-22.955,57.742],[-23.239,57.866],[-23.482,57.987],[-23.721,58.117],[-23.974,58.243],[-24.218,58.372],[-24.464,58.501],[-24.713,58.629],[-24.952,58.76],[-25.194,58.89],[-25.416,59.027],[-25.651,59.16],[-25.899,59.29],[-26.161,59.415],[-26.435,59.536],[-26.723,59.653],[-27.034,59.762],[-27.359,59.867],[-27.698,59.967],[-28.038,60.066],[-28.392,60.16],[-28.737,60.258],[-29.063,60.361],[-29.359,60.476],[-29.646,60.593],[-29.936,60.71],[-30.282,60.807],[-30.696,60.879],[-31.188,60.921],[-31.692,60.958],[-32.165,61.004],[-32.608,61.061],[-33.01,61.133],[-33.415,61.204],[-33.853,61.26],[-34.336,61.289],[-34.815,61.282],[-35.239,61.244],[-35.644,61.195],[-36.057,61.149],[-36.514,61.126],[-36.999,61.116],[-37.511,61.118],[-38.014,61.131],[-38.498,61.152],[-38.953,61.185],[-39.342,61.24],[-39.695,61.332]]}},{"type":"Feature","properties":{"kind":"occl","line":7,"px_len":60},"geometry":{"type":"LineString","coordinates":[[77.805,56.728],[78.108,56.803],[78.386,56.879],[78.67,56.969],[78.959,57.053],[79.249,57.135],[79.537,57.223],[79.831,57.304],[80.122,57.39],[80.416,57.476],[80.707,57.567],[81.0,57.657],[81.296,57.747],[81.527,57.866],[81.666,58.02],[81.741,58.205],[81.79,58.394],[81.851,58.584],[81.889,58.771],[81.949,58.941],[82.019,59.092]]}}]}