{"type":"FeatureCollection","properties":{"chart":"fc","src":"Z__C_EDZW_20261009045054_nwv01,ico_tkb_na_N_000048_000000_202610090000_WV12.png","valid_time":"2026-10-11T00:00:00+00:00"},"features":[{"type":"Feature","properties":{"kind":"warm","line":0,"px_len":156},"geometry":{"type":"LineString","coordinates":[[7.263,43.495],[7.316,43.661],[7.395,43.814],[7.474,43.974],[7.537,44.135],[7.584,44.295],[7.632,44.456],[7.688,44.617],[7.728,44.778],[7.793,44.939],[7.902,45.099],[8.088,45.252],[8.317,45.373],[8.554,45.457],[8.79,45.51],[9.027,45.569],[9.264,45.621],[9.502,45.678],[9.741,45.735],[9.983,45.815],[10.226,45.894],[10.47,45.973],[10.713,46.039],[10.958,46.104],[11.201,46.157],[11.444,46.203],[11.687,46.242],[11.931,46.28],[12.174,46.312],[12.42,46.361],[12.669,46.421],[12.923,46.505],[13.179,46.594],[13.436,46.682],[13.692,46.758],[13.946,46.814],[14.191,46.828],[14.432,46.817],[14.669,46.793],[14.909,46.78],[15.149,46.767],[15.389,46.753],[15.633,46.757],[15.88,46.772],[16.13,46.798],[16.381,46.823],[16.638,46.871],[16.9,46.931],[17.169,47.014],[17.444,47.114],[17.726,47.231],[17.981,47.345],[18.206,47.444]]}},{"type":"Feature","properties":{"kind":"cold","line":0,"px_len":235},"geometry":{"type":"LineString","coordinates":[[18.206,47.444],[18.49,47.578],[18.736,47.705],[18.977,47.838],[19.21,47.972],[19.437,48.107],[19.656,48.243],[19.858,48.382],[20.071,48.518],[20.286,48.654],[20.529,48.786],[20.765,48.918],[21.027,49.039],[21.305,49.144],[21.606,49.231],[21.891,49.321],[22.118,49.434],[22.297,49.568],[22.424,49.719],[22.552,49.869],[22.691,50.018],[22.858,50.161],[23.056,50.299],[23.273,50.433],[23.52,50.561],[23.787,50.684],[24.076,50.803],[24.366,50.921],[24.677,51.034],[24.98,51.148],[25.295,51.26],[25.611,51.37],[25.949,51.475],[26.289,51.579],[26.611,51.686],[26.936,51.792],[27.272,51.894],[27.614,51.968],[27.946,52.022],[28.264,52.052],[28.594,52.099],[28.879,52.176],[29.126,52.291],[29.311,52.428],[29.488,52.567],[29.666,52.706],[29.875,52.837],[30.105,52.963],[30.355,53.083],[30.608,53.203],[30.871,53.319],[31.127,53.438],[31.385,53.555],[31.625,53.678],[31.867,53.8],[32.1,53.924],[32.336,54.048],[32.563,54.174],[32.783,54.303],[33.004,54.431],[33.227,54.559],[33.451,54.687],[33.697,54.808],[33.955,54.925],[34.224,55.039],[34.485,55.155],[34.719,55.28],[34.914,55.417],[35.052,55.572],[35.201,55.724],[35.351,55.876],[35.523,56.022],[35.676,56.173],[35.831,56.325],[35.997,56.473],[36.185,56.615],[36.375,56.756],[36.581,56.885],[36.811,57.021]]}},{"type":"Feature","properties":{"kind":"warm","line":0,"px_len":98},"geometry":{"type":"LineString","coordinates":[[36.811,57.021],[37.183,57.007],[37.509,56.975],[37.825,56.922],[38.141,56.869],[38.437,56.798],[38.744,56.737],[39.05,56.675],[39.354,56.613],[39.619,56.517],[39.837,56.383],[40.001,56.206],[40.097,56.007],[40.159,55.782],[40.232,55.568],[40.333,55.343],[40.458,55.139],[40.588,54.941],[40.747,54.769],[40.911,54.603],[41.068,54.431],[41.191,54.233],[41.273,54.012],[41.308,53.787],[41.273,53.592],[41.169,53.426],[41.014,53.282],[40.868,53.134],[40.732,52.982],[40.607,52.827],[40.482,52.671],[40.384,52.505],[40.33,52.367],[40.312,52.261]]}},{"type":"Feature","properties":{"kind":"occl","line":1,"px_len":260},"geometry":{"type":"LineString","coordinates":[[4.708,62.301],[4.775,62.116],[4.869,61.944],[4.962,61.766],[5.081,61.588],[5.213,61.411],[5.384,61.233],[5.567,61.056],[5.761,60.879],[5.952,60.701],[6.128,60.523],[6.275,60.346],[6.393,60.168],[6.484,59.99],[6.56,59.812],[6.662,59.635],[6.801,59.457],[6.99,59.279],[7.215,59.1],[7.411,58.922],[7.568,58.743],[7.71,58.565],[7.9,58.386],[8.162,58.205],[8.458,58.024],[8.777,57.873],[9.098,57.767],[9.421,57.706],[9.743,57.644],[10.065,57.594],[10.388,57.555],[10.714,57.542],[11.041,57.534],[11.369,57.538],[11.7,57.554],[12.033,57.576],[12.368,57.609],[12.703,57.635],[13.039,57.66],[13.371,57.664],[13.702,57.668],[14.034,57.67],[14.371,57.691],[14.712,57.723],[15.057,57.767],[15.401,57.804],[15.743,57.827],[16.076,57.823],[16.409,57.818],[16.742,57.812],[17.084,57.83],[17.427,57.847],[17.777,57.883],[18.131,57.924],[18.493,57.982],[18.863,58.052],[19.236,58.127],[19.612,58.201],[19.992,58.28],[20.371,58.352],[20.749,58.415],[21.116,58.453],[21.48,58.482],[21.835,58.492],[22.187,58.494],[22.535,58.489],[22.897,58.508],[23.246,58.568],[23.611,58.653],[23.983,58.743],[24.384,58.812],[24.776,58.862],[25.16,58.898],[25.541,58.927],[25.945,58.985],[26.367,59.066],[26.762,59.179],[27.112,59.301],[27.429,59.428],[27.785,59.548],[28.182,59.644],[28.608,59.719],[29.028,59.766],[29.444,59.806],[29.845,59.825],[30.253,59.85],[30.562,59.859],[30.784,59.866]]}},{"type":"Feature","properties":{"kind":"warm","line":2,"px_len":164},"geometry":{"type":"LineString","coordinates":[[-11.515,45.209],[-11.449,45.401],[-11.377,45.581],[-11.288,45.766],[-11.185,45.94],[-11.106,46.11],[-11.029,46.285],[-11.032,46.456],[-11.069,46.62],[-11.157,46.774],[-11.246,46.927],[-11.344,47.078],[-11.443,47.23],[-11.525,47.385],[-11.574,47.548],[-11.623,47.711],[-11.673,47.875],[-11.749,48.032],[-11.825,48.19],[-11.885,48.352],[-11.937,48.516],[-11.989,48.68],[-12.05,48.842],[-12.103,49.006],[-12.138,49.174],[-12.156,49.347],[-12.164,49.521],[-12.164,49.698],[-12.2,49.867],[-12.292,50.024],[-12.449,50.167],[-12.663,50.299],[-12.887,50.427],[-13.122,50.554],[-13.331,50.686],[-13.551,50.815],[-13.754,50.949],[-13.949,51.084],[-14.136,51.221],[-14.306,51.362],[-14.477,51.503],[-14.621,51.651],[-14.776,51.796],[-14.932,51.941],[-15.079,52.088],[-15.228,52.235],[-15.417,52.373],[-15.693,52.489],[-16.024,52.564],[-16.347,52.593],[-16.642,52.579],[-16.917,52.536],[-17.182,52.48],[-17.447,52.424],[-17.659,52.388],[-17.817,52.372]]}},{"type":"Feature","properties":{"kind":"cold","line":2,"px_len":84},"geometry":{"type":"LineString","coordinates":[[-17.817,52.372],[-18.047,52.254],[-18.232,52.106],[-18.398,51.921],[-18.55,51.719],[-18.696,51.51],[-18.831,51.305],[-18.947,51.105],[-19.057,50.899],[-19.192,50.714],[-19.381,50.574],[-19.603,50.478],[-19.832,50.393],[-20.069,50.319],[-20.296,50.233],[-20.527,50.152],[-20.747,50.06],[-20.98,49.983],[-21.212,49.906],[-21.443,49.829],[-21.682,49.761],[-21.925,49.699],[-22.171,49.642],[-22.416,49.584],[-22.666,49.53],[-22.919,49.482],[-23.172,49.432],[-23.404,49.397],[-23.615,49.375]]}},{"type":"Feature","properties":{"kind":"warm","line":2,"px_len":102},"geometry":{"type":"LineString","coordinates":[[-23.615,49.375],[-23.869,49.316],[-24.116,49.272],[-24.38,49.235],[-24.649,49.203],[-24.917,49.17],[-25.189,49.142],[-25.461,49.113],[-25.743,49.093],[-26.034,49.083],[-26.335,49.082],[-26.657,49.101],[-26.986,49.138],[-27.301,49.203],[-27.593,49.277],[-27.886,49.35],[-28.201,49.398],[-28.513,49.408],[-28.794,49.379],[-29.053,49.328],[-29.307,49.272],[-29.57,49.225],[-29.833,49.177],[-30.111,49.143],[-30.401,49.119],[-30.707,49.108],[-31.013,49.096],[-31.313,49.078],[-31.613,49.059],[-31.901,49.03],[-32.177,48.99],[-32.44,48.939],[-32.679,48.868],[-32.895,48.809],[-33.083,48.755]]}},{"type":"Feature","properties":{"kind":"cold","line":2,"px_len":345},"geometry":{"type":"LineString","coordinates":[[-33.083,48.755],[-33.286,48.646],[-33.473,48.544],[-33.665,48.437],[-33.875,48.345],[-34.084,48.252],[-34.298,48.163],[-34.504,48.069],[-34.722,47.984],[-34.951,47.907],[-35.202,47.857],[-35.44,47.871],[-35.654,47.949],[-35.833,48.064],[-36.041,48.163],[-36.274,48.196],[-36.505,48.154],[-36.725,48.069],[-36.925,47.969],[-37.124,47.869],[-37.303,47.755],[-37.468,47.632],[-37.626,47.505],[-37.771,47.368],[-37.921,47.236],[-38.057,47.095],[-38.199,46.958],[-38.321,46.808],[-38.441,46.658],[-38.543,46.495],[-38.65,46.336],[-38.755,46.177],[-38.86,46.019],[-38.971,45.864],[-39.08,45.71],[-39.195,45.56],[-39.309,45.41],[-39.422,45.26],[-39.541,45.114],[-39.658,44.969],[-39.781,44.827],[-39.909,44.69],[-40.03,44.548],[-40.156,44.41],[-40.276,44.268],[-40.406,44.135],[-40.53,43.997],[-40.659,43.863],[-40.781,43.725],[-40.909,43.591],[-41.029,43.453],[-41.155,43.319],[-41.256,43.169],[-41.35,43.015],[-41.431,42.853],[-41.518,42.695],[-41.575,42.518],[-41.596,42.316],[-41.587,42.096],[-41.572,41.872],[-41.563,41.652],[-41.601,41.464],[-41.69,41.311],[-41.825,41.19],[-41.971,41.077],[-42.127,40.971],[-42.283,40.865],[-42.432,40.754],[-42.569,40.636],[-42.71,40.522],[-42.863,40.415],[-43.015,40.308],[-43.177,40.208],[-43.328,40.101],[-43.477,39.993],[-43.621,39.881],[-43.769,39.773],[-43.928,39.672],[-44.08,39.567],[-44.226,39.458],[-44.377,39.353],[-44.522,39.244],[-44.683,39.145],[-44.826,39.036],[-44.968,38.926],[-45.093,38.805],[-45.234,38.695],[-45.374,38.585],[-45.514,38.474],[-45.653,38.364],[-45.825,38.274],[-46.02,38.198],[-46.231,38.132],[-46.425,38.055],[-46.618,37.978],[-46.793,37.889],[-46.967,37.801],[-47.129,37.705],[-47.291,37.609],[-47.451,37.513],[-47.594,37.406],[-47.69,37.273],[-47.752,37.12],[-47.795,36.957],[-47.861,36.807],[-47.933,36.661],[-48.026,36.528],[-48.125,36.398],[-48.235,36.275],[-48.349,36.155],[-48.475,36.042],[-48.599,35.928],[-48.718,35.811],[-48.824,35.688],[-48.918,35.578],[-49.001,35.482]]}},{"type":"Feature","properties":{"kind":"cold","line":3,"px_len":155},"geometry":{"type":"LineString","coordinates":[[-41.293,41.396],[-41.016,41.379],[-40.767,41.357],[-40.507,41.334],[-40.236,41.319],[-39.967,41.328],[-39.731,41.377],[-39.534,41.453],[-39.369,41.554],[-39.21,41.659],[-39.049,41.763],[-38.899,41.876],[-38.737,41.98],[-38.597,42.1],[-38.445,42.212],[-38.303,42.332],[-38.149,42.443],[-37.994,42.555],[-37.855,42.678],[-37.715,42.802],[-37.581,42.93],[-37.439,43.053],[-37.303,43.181],[-37.171,43.312],[-37.044,43.448],[-36.916,43.584],[-36.793,43.725],[-36.664,43.86],[-36.545,44.005],[-36.425,44.149],[-36.31,44.298],[-36.194,44.447],[-36.077,44.596],[-35.965,44.749],[-35.852,44.902],[-35.733,45.051],[-35.607,45.196],[-35.48,45.34],[-35.346,45.48],[-35.206,45.615],[-35.048,45.736],[-34.889,45.857],[-34.769,46.002],[-34.727,46.171],[-34.764,46.358],[-34.827,46.538],[-34.891,46.718],[-34.962,46.894],[-35.047,47.062],[-35.139,47.226],[-35.226,47.394],[-35.29,47.527],[-35.34,47.62]]}},{"type":"Feature","properties":{"kind":"occl","line":4,"px_len":90},"geometry":{"type":"LineString","coordinates":[[-18.272,52.435],[-18.459,52.577],[-18.648,52.705],[-18.843,52.839],[-19.049,52.969],[-19.275,53.094],[-19.523,53.213],[-19.781,53.328],[-20.013,53.452],[-20.237,53.577],[-20.433,53.711],[-20.641,53.841],[-20.884,53.954],[-21.171,54.018],[-21.502,54.046],[-21.848,54.061],[-22.214,54.098],[-22.597,54.15],[-22.992,54.211],[-23.394,54.277],[-23.775,54.319],[-24.124,54.326],[-24.412,54.272],[-24.665,54.184],[-24.889,54.068],[-25.123,53.962],[-25.366,53.867],[-25.619,53.782],[-25.866,53.691],[-26.078,53.605],[-26.262,53.528]]}},{"type":"Feature","properties":{"kind":"cold","line":5,"px_len":45},"geometry":{"type":"LineString","coordinates":[[-36.268,48.474],[-36.362,48.652],[-36.437,48.824],[-36.513,49.005],[-36.575,49.195],[-36.63,49.389],[-36.659,49.601],[-36.681,49.808],[-36.669,50.019],[-36.643,50.221],[-36.596,50.436],[-36.541,50.646],[-36.499,50.866],[-36.464,51.091],[-36.45,51.304],[-36.438,51.49]]}},{"type":"Feature","properties":{"kind":"occl","line":5,"px_len":102},"geometry":{"type":"LineString","coordinates":[[-36.438,51.49],[-36.428,51.735],[-36.435,51.953],[-36.442,52.181],[-36.42,52.399],[-36.361,52.612],[-36.28,52.811],[-36.228,53.021],[-36.259,53.21],[-36.358,53.388],[-36.514,53.535],[-36.656,53.692],[-36.791,53.852],[-36.895,54.03],[-36.985,54.217],[-37.076,54.403],[-37.159,54.595],[-37.284,54.764],[-37.451,54.911],[-37.676,55.028],[-37.918,55.134],[-38.154,55.245],[-38.383,55.36],[-38.598,55.483],[-38.798,55.615],[-38.992,55.751],[-39.188,55.887],[-39.377,56.027],[-39.576,56.163],[-39.753,56.312],[-39.955,56.447],[-40.143,56.591],[-40.373,56.711],[-40.579,56.818],[-40.777,56.901]]}},{"type":"Feature","properties":{"kind":"occl","line":6,"px_len":96},"geometry":{"type":"LineString","coordinates":[[-41.857,57.909],[-42.039,58.074],[-42.205,58.231],[-42.374,58.396],[-42.553,58.557],[-42.75,58.707],[-42.966,58.848],[-43.192,58.983],[-43.412,59.122],[-43.651,59.252],[-43.883,59.385],[-44.126,59.514],[-44.321,59.672],[-44.477,59.856],[-44.557,60.067],[-44.602,60.289],[-44.631,60.521],[-44.69,60.757],[-44.795,60.977],[-44.936,61.177],[-45.096,61.366],[-45.189,61.554],[-45.183,61.738],[-45.087,61.922],[-44.98,62.112],[-44.894,62.31],[-44.829,62.516],[-44.797,62.735],[-44.81,62.971],[-44.885,63.204],[-44.974,63.442],[-45.057,63.652],[-45.106,63.849]]}},{"type":"Feature","properties":{"kind":"cold","line":7,"px_len":194},"geometry":{"type":"LineString","coordinates":[[44.752,47.022],[45.02,47.095],[45.279,47.157],[45.564,47.211],[45.83,47.276],[46.096,47.341],[46.357,47.408],[46.632,47.467],[46.894,47.533],[47.171,47.59],[47.449,47.646],[47.755,47.685],[48.075,47.714],[48.408,47.735],[48.696,47.783],[48.923,47.867],[49.111,47.976],[49.301,48.085],[49.498,48.189],[49.696,48.293],[49.902,48.392],[50.122,48.482],[50.35,48.567],[50.586,48.648],[50.816,48.732],[51.041,48.82],[51.266,48.908],[51.493,48.995],[51.721,49.081],[51.943,49.171],[52.16,49.265],[52.377,49.359],[52.583,49.461],[52.796,49.559],[53.004,49.66],[53.213,49.761],[53.41,49.871],[53.602,49.984],[53.801,50.093],[54.015,50.193],[54.243,50.282],[54.485,50.362],[54.715,50.45],[54.914,50.562],[55.075,50.701],[55.224,50.85],[55.375,50.998],[55.527,51.147],[55.693,51.285],[55.88,51.409],[56.087,51.519],[56.296,51.628],[56.507,51.736],[56.718,51.845],[56.931,51.953],[57.158,52.05],[57.393,52.142],[57.629,52.234],[57.867,52.325],[58.105,52.416],[58.351,52.501],[58.599,52.585],[58.853,52.664],[59.109,52.742],[59.304,52.807],[59.436,52.859]]}},{"type":"Feature","properties":{"kind":"occl","line":7,"px_len":337},"geometry":{"type":"LineString","coordinates":[[59.436,52.859],[59.715,52.929],[59.973,52.996],[60.228,53.076],[60.49,53.151],[60.741,53.235],[60.999,53.313],[61.253,53.396],[61.507,53.478],[61.769,53.555],[62.026,53.636],[62.285,53.716],[62.538,53.801],[62.811,53.87],[63.102,53.921],[63.4,53.967],[63.699,54.011],[63.999,54.055],[64.317,54.081],[64.658,54.085],[64.999,54.088],[65.307,54.122],[65.576,54.193],[65.83,54.281],[66.069,54.384],[66.276,54.52],[66.453,54.689],[66.609,54.881],[66.783,55.055],[66.959,55.229],[67.148,55.392],[67.334,55.56],[67.527,55.723],[67.732,55.874],[67.946,56.019],[68.172,56.152],[68.405,56.279],[68.646,56.4],[68.888,56.521],[69.127,56.646],[69.362,56.777],[69.6,56.908],[69.839,57.038],[70.081,57.168],[70.319,57.303],[70.56,57.437],[70.802,57.572],[71.041,57.711],[71.283,57.85],[71.522,57.995],[71.773,58.127],[72.026,58.259],[72.297,58.372],[72.57,58.485],[72.854,58.585],[73.136,58.691],[73.42,58.796],[73.658,58.925],[73.852,59.094],[74.035,59.281],[74.229,59.49],[74.457,59.678],[74.693,59.859],[74.946,60.022],[75.188,60.203],[75.415,60.407],[75.592,60.624],[75.691,60.832],[75.716,61.027],[75.702,61.215],[75.701,61.405],[75.686,61.593],[75.685,61.784],[75.71,61.98],[75.775,62.182],[75.855,62.387],[75.909,62.588],[75.951,62.786],[75.965,62.98],[75.979,63.175],[75.98,63.367],[75.967,63.556],[75.939,63.744],[75.897,63.93],[75.854,64.115],[75.781,64.296],[75.722,64.48],[75.662,64.663],[75.616,64.85],[75.569,65.036],[75.537,65.224],[75.534,65.418],[75.562,65.617],[75.621,65.82],[75.712,66.028],[75.726,66.225],[75.662,66.409],[75.501,66.58],[75.241,66.736],[74.834,66.87],[74.293,66.982],[73.747,67.093],[73.244,67.209],[72.758,67.32],[72.241,67.403],[71.708,67.445],[71.179,67.448],[70.672,67.431],[70.167,67.413],[69.654,67.398],[69.126,67.395],[68.613,67.392],[68.045,67.399]]}}]}