{"type":"FeatureCollection","properties":{"chart":"fc","src":"Z__C_EDZW_20261007051746_nwv01,ico_tkb_na_N_000048_000000_202610070000_WV12.png","valid_time":"2026-10-09T00:00:00+00:00"},"features":[{"type":"Feature","properties":{"kind":"cold","line":0,"px_len":163},"geometry":{"type":"LineString","coordinates":[[4.339,38.029],[4.54,38.079],[4.727,38.118],[4.922,38.15],[5.117,38.176],[5.312,38.207],[5.508,38.215],[5.703,38.228],[5.9,38.223],[6.095,38.235],[6.291,38.229],[6.488,38.263],[6.685,38.336],[6.883,38.466],[7.083,38.601],[7.283,38.724],[7.485,38.824],[7.686,38.912],[7.889,39.0],[8.092,39.092],[8.297,39.19],[8.502,39.294],[8.709,39.402],[8.917,39.504],[9.125,39.595],[9.333,39.673],[9.542,39.756],[9.731,39.857],[9.87,39.984],[9.95,40.131],[10.009,40.285],[10.061,40.439],[10.121,40.593],[10.181,40.748],[10.257,40.901],[10.341,41.055],[10.426,41.208],[10.504,41.362],[10.566,41.517],[10.63,41.672],[10.677,41.828],[10.718,41.985],[10.711,42.145],[10.704,42.305],[10.681,42.466],[10.674,42.626],[10.651,42.787],[10.635,42.949],[10.628,43.11],[10.637,43.27],[10.63,43.431],[10.622,43.593],[10.639,43.753],[10.681,43.906],[10.724,44.071]]}},{"type":"Feature","properties":{"kind":"warm","line":0,"px_len":103},"geometry":{"type":"LineString","coordinates":[[10.724,44.071],[10.817,44.234],[10.926,44.383],[11.063,44.538],[11.216,44.691],[11.397,44.842],[11.611,44.979],[11.837,45.072],[12.074,45.11],[12.306,45.111],[12.537,45.111],[12.769,45.111],[13.001,45.11],[13.233,45.114],[13.468,45.13],[13.708,45.168],[13.948,45.207],[14.194,45.274],[14.445,45.358],[14.685,45.468],[14.92,45.589],[15.133,45.719],[15.324,45.863],[15.516,46.007],[15.736,46.148],[15.999,46.276],[16.266,46.38],[16.526,46.452],[16.782,46.5],[17.036,46.541],[17.292,46.588],[17.552,46.645],[17.822,46.732],[18.09,46.837],[18.387,46.968]]}},{"type":"Feature","properties":{"kind":"cold","line":0,"px_len":234},"geometry":{"type":"LineString","coordinates":[[18.387,46.968],[18.641,47.105],[18.868,47.234],[19.106,47.366],[19.346,47.498],[19.586,47.623],[19.84,47.733],[20.101,47.829],[20.385,47.908],[20.619,48.001],[20.778,48.12],[20.875,48.268],[20.965,48.424],[21.065,48.579],[21.175,48.732],[21.277,48.886],[21.389,49.039],[21.511,49.191],[21.643,49.34],[21.766,49.492],[21.864,49.648],[21.952,49.806],[22.051,49.962],[22.151,50.119],[22.242,50.277],[22.315,50.439],[22.398,50.599],[22.501,50.756],[22.624,50.909],[22.767,51.059],[22.911,51.208],[23.027,51.363],[23.087,51.529],[23.099,51.704],[23.081,51.885],[23.073,52.064],[23.085,52.24],[23.117,52.412],[23.158,52.582],[23.191,52.755],[23.234,52.926],[23.267,53.099],[23.31,53.27],[23.344,53.443],[23.378,53.616],[23.412,53.79],[23.458,53.962],[23.503,54.133],[23.56,54.304],[23.627,54.472],[23.717,54.637],[23.807,54.801],[23.887,54.968],[23.905,55.147],[23.847,55.339],[23.756,55.537],[23.674,55.734],[23.603,55.929],[23.52,56.125],[23.458,56.319],[23.418,56.508],[23.399,56.694],[23.369,56.882],[23.339,57.07],[23.297,57.26],[23.254,57.45],[23.223,57.639],[23.203,57.826],[23.217,58.007],[23.244,58.187],[23.271,58.367],[23.31,58.545],[23.302,58.73],[23.233,58.926],[23.102,59.131],[23.019,59.329],[23.008,59.515],[23.036,59.676],[23.066,59.815]]}},{"type":"Feature","properties":{"kind":"warm","line":0,"px_len":199},"geometry":{"type":"LineString","coordinates":[[23.066,59.815],[23.148,59.995],[23.21,60.164],[23.251,60.344],[23.306,60.522],[23.413,60.692],[23.547,60.858],[23.696,61.022],[23.833,61.188],[24.065,61.34],[24.417,61.473],[24.851,61.571],[25.288,61.626],[25.699,61.642],[26.1,61.644],[26.501,61.645],[26.908,61.651],[27.319,61.661],[27.742,61.682],[28.17,61.708],[28.588,61.72],[29.006,61.731],[29.42,61.735],[29.833,61.736],[30.229,61.719],[30.619,61.694],[31.014,61.673],[31.427,61.67],[31.839,61.665],[32.263,61.67],[32.675,61.662],[33.087,61.653],[33.466,61.613],[33.806,61.536],[34.105,61.424],[34.375,61.287],[34.643,61.15],[34.915,61.019],[35.184,60.886],[35.464,60.765],[35.741,60.643],[36.029,60.532],[36.309,60.415],[36.592,60.302],[36.867,60.184],[37.139,60.065],[37.409,59.945],[37.691,59.836],[37.984,59.737],[38.268,59.632],[38.544,59.521],[38.817,59.41],[39.102,59.308],[39.385,59.206],[39.624,59.071],[39.804,58.892],[39.927,58.669],[39.996,58.441],[40.026,58.218],[40.056,57.996],[40.122,57.768],[40.231,57.541],[40.352,57.324],[40.471,57.108],[40.596,56.897],[40.702,56.685],[40.806,56.449]]}},{"type":"Feature","properties":{"kind":"warm","line":1,"px_len":332},"geometry":{"type":"LineString","coordinates":[[-53.881,38.436],[-54.062,38.464],[-54.146,38.568],[-54.151,38.735],[-54.142,38.909],[-54.127,39.08],[-54.099,39.247],[-54.051,39.404],[-53.983,39.554],[-53.895,39.695],[-53.814,39.838],[-53.718,39.976],[-53.629,40.117],[-53.539,40.258],[-53.455,40.403],[-53.384,40.553],[-53.318,40.706],[-53.266,40.865],[-53.22,41.027],[-53.173,41.189],[-53.1,41.34],[-52.985,41.473],[-52.83,41.588],[-52.653,41.693],[-52.462,41.792],[-52.264,41.887],[-52.071,41.985],[-51.898,42.093],[-51.737,42.206],[-51.576,42.318],[-51.414,42.431],[-51.244,42.54],[-51.086,42.655],[-50.928,42.77],[-50.789,42.894],[-50.636,43.012],[-50.489,43.133],[-50.32,43.244],[-50.137,43.348],[-49.899,43.425],[-49.633,43.467],[-49.358,43.475],[-49.101,43.462],[-48.849,43.444],[-48.579,43.444],[-48.29,43.462],[-48.001,43.51],[-47.718,43.559],[-47.454,43.619],[-47.19,43.677],[-46.958,43.753],[-46.738,43.835],[-46.544,43.931],[-46.348,44.026],[-46.172,44.132],[-45.988,44.234],[-45.79,44.329],[-45.552,44.4],[-45.273,44.449],[-44.984,44.468],[-44.681,44.478],[-44.378,44.487],[-44.078,44.52],[-43.797,44.563],[-43.541,44.621],[-43.29,44.682],[-43.052,44.751],[-42.813,44.818],[-42.58,44.889],[-42.358,44.967],[-42.149,45.053],[-41.951,45.146],[-41.765,45.247],[-41.591,45.356],[-41.415,45.464],[-41.239,45.572],[-41.043,45.667],[-40.827,45.75],[-40.572,45.807],[-40.285,45.843],[-39.972,45.861],[-39.659,45.877],[-39.365,45.905],[-39.094,45.95],[-38.83,45.997],[-38.583,46.057],[-38.341,46.12],[-38.111,46.192],[-37.88,46.262],[-37.655,46.337],[-37.434,46.415],[-37.219,46.497],[-37.009,46.583],[-36.804,46.673],[-36.61,46.772],[-36.428,46.879],[-36.25,46.99],[-36.072,47.101],[-35.892,47.212],[-35.687,47.304],[-35.451,47.373],[-35.179,47.414],[-34.888,47.44],[-34.585,47.456],[-34.293,47.48],[-34.013,47.512],[-33.762,47.567],[-33.521,47.63],[-33.291,47.703],[-33.061,47.775],[-32.877,47.828],[-32.748,47.866]]}},{"type":"Feature","properties":{"kind":"cold","line":1,"px_len":382},"geometry":{"type":"LineString","coordinates":[[-32.748,47.866],[-32.514,47.945],[-32.293,48.016],[-32.064,48.09],[-31.835,48.164],[-31.598,48.232],[-31.356,48.294],[-31.101,48.347],[-30.835,48.388],[-30.562,48.424],[-30.278,48.449],[-30.032,48.508],[-29.807,48.586],[-29.613,48.694],[-29.408,48.791],[-29.202,48.888],[-28.995,48.984],[-28.786,49.08],[-28.577,49.176],[-28.361,49.266],[-28.134,49.345],[-27.9,49.418],[-27.659,49.486],[-27.429,49.564],[-27.187,49.631],[-26.955,49.707],[-26.716,49.777],[-26.482,49.853],[-26.247,49.927],[-26.0,49.991],[-25.763,50.064],[-25.505,50.116],[-25.246,50.167],[-24.971,50.201],[-24.701,50.24],[-24.449,50.299],[-24.227,50.39],[-24.019,50.496],[-23.804,50.597],[-23.588,50.698],[-23.371,50.797],[-23.153,50.897],[-22.919,50.979],[-22.684,51.061],[-22.462,51.159],[-22.239,51.257],[-22.015,51.353],[-21.775,51.433],[-21.535,51.512],[-21.293,51.591],[-21.05,51.669],[-20.807,51.747],[-20.562,51.823],[-20.316,51.9],[-20.055,51.958],[-19.785,52.005],[-19.509,52.045],[-19.264,52.124],[-19.039,52.231],[-18.836,52.366],[-18.63,52.501],[-18.423,52.636],[-18.205,52.758],[-17.978,52.869],[-17.745,52.973],[-17.51,53.077],[-17.27,53.175],[-17.032,53.278],[-16.793,53.38],[-16.553,53.482],[-16.307,53.577],[-16.056,53.666],[-15.807,53.76],[-15.549,53.842],[-15.29,53.923],[-15.021,53.992],[-14.752,54.06],[-14.489,54.139],[-14.248,54.253],[-14.035,54.415],[-13.832,54.594],[-13.627,54.773],[-13.408,54.934],[-13.179,55.082],[-12.938,55.212],[-12.694,55.341],[-12.445,55.464],[-12.198,55.592],[-11.941,55.708],[-11.679,55.817],[-11.416,55.925],[-11.143,56.02],[-10.873,56.121],[-10.587,56.196],[-10.304,56.277],[-10.033,56.361],[-9.824,56.496],[-9.657,56.67],[-9.517,56.873],[-9.348,57.074],[-9.148,57.265],[-8.919,57.453],[-8.672,57.637],[-8.429,57.832],[-8.185,58.034],[-7.944,58.248],[-7.694,58.448],[-7.426,58.617],[-7.143,58.76],[-6.848,58.883],[-6.551,59.005],[-6.252,59.127],[-5.947,59.241],[-5.64,59.355],[-5.329,59.461],[-5.017,59.573],[-4.723,59.703],[-4.567,59.852],[-4.616,60.014],[-4.8,60.177],[-4.999,60.339],[-5.148,60.506],[-5.285,60.674],[-5.424,60.842],[-5.552,61.011],[-5.668,61.181],[-5.755,61.348],[-5.835,61.529]]}},{"type":"Feature","properties":{"kind":"occl","line":1,"px_len":179},"geometry":{"type":"LineString","coordinates":[[-5.835,61.529],[-5.917,61.711],[-5.994,61.879],[-6.075,62.054],[-6.184,62.226],[-6.267,62.401],[-6.337,62.578],[-6.352,62.761],[-6.395,62.94],[-6.467,63.117],[-6.627,63.286],[-6.862,63.446],[-7.129,63.603],[-7.371,63.763],[-7.556,63.929],[-7.729,64.097],[-7.904,64.264],[-8.111,64.428],[-8.367,64.586],[-8.686,64.737],[-9.082,64.873],[-9.531,64.98],[-10.016,65.061],[-10.51,65.126],[-11.007,65.189],[-11.512,65.256],[-12.024,65.328],[-12.539,65.398],[-13.047,65.453],[-13.546,65.494],[-14.041,65.527],[-14.555,65.577],[-15.064,65.655],[-15.586,65.758],[-16.099,65.847],[-16.641,65.923],[-17.188,65.982],[-17.731,66.032],[-18.235,66.044],[-18.731,66.063],[-19.212,66.113],[-19.671,66.218],[-20.141,66.328],[-20.631,66.434],[-21.201,66.522],[-21.76,66.612],[-22.323,66.699],[-22.846,66.794],[-23.358,66.89],[-23.857,66.973],[-24.351,67.009],[-24.839,66.998],[-25.328,66.961],[-25.852,66.945],[-26.403,66.944],[-27.001,66.97],[-27.62,67.005],[-28.24,67.037],[-28.813,67.038],[-29.23,67.023],[-29.523,67.008]]}},{"type":"Feature","properties":{"kind":"warm","line":2,"px_len":194},"geometry":{"type":"LineString","coordinates":[[-6.767,49.003],[-6.549,49.156],[-6.346,49.3],[-6.128,49.433],[-5.902,49.547],[-5.671,49.649],[-5.443,49.762],[-5.219,49.893],[-5.033,50.056],[-4.87,50.236],[-4.767,50.42],[-4.692,50.601],[-4.645,50.778],[-4.579,50.958],[-4.462,51.144],[-4.295,51.336],[-4.107,51.53],[-3.916,51.724],[-3.723,51.917],[-3.508,52.113],[-3.276,52.29],[-3.034,52.442],[-2.787,52.582],[-2.542,52.739],[-2.323,52.919],[-2.156,53.107],[-2.072,53.288],[-2.06,53.462],[-2.091,53.633],[-2.101,53.806],[-2.1,53.979],[-2.078,54.155],[-2.056,54.331],[-2.0,54.51],[-1.923,54.691],[-1.822,54.874],[-1.731,55.056],[-1.628,55.239],[-1.524,55.422],[-1.373,55.608],[-1.199,55.796],[-1.022,55.984],[-0.889,56.169],[-0.835,56.348],[-0.862,56.522],[-0.959,56.691],[-1.093,56.858],[-1.24,57.024],[-1.377,57.191],[-1.503,57.358],[-1.607,57.528],[-1.712,57.697],[-1.806,57.867],[-1.913,58.037],[-2.034,58.205],[-2.156,58.374],[-2.279,58.542],[-2.391,58.712],[-2.53,58.879],[-2.683,59.046],[-2.85,59.211],[-3.057,59.373],[-3.279,59.534],[-3.578,59.682],[-3.824,59.78],[-4.04,59.827]]}},{"type":"Feature","properties":{"kind":"warm","line":3,"px_len":130},"geometry":{"type":"LineString","coordinates":[[-61.27,47.771],[-61.214,47.942],[-61.147,48.096],[-61.06,48.252],[-60.989,48.412],[-60.969,48.587],[-61.026,48.783],[-61.143,48.983],[-61.302,49.167],[-61.481,49.322],[-61.665,49.472],[-61.84,49.638],[-61.998,49.833],[-62.155,50.034],[-62.317,50.229],[-62.487,50.412],[-62.652,50.607],[-62.794,50.809],[-62.902,51.016],[-62.983,51.216],[-63.085,51.402],[-63.224,51.582],[-63.411,51.739],[-63.626,51.869],[-63.868,51.957],[-64.124,52.02],[-64.385,52.077],[-64.646,52.133],[-64.908,52.189],[-65.162,52.261],[-65.416,52.334],[-65.662,52.423],[-65.918,52.494],[-66.166,52.582],[-66.419,52.663],[-66.663,52.762],[-66.915,52.849],[-67.165,52.94],[-67.426,53.013],[-67.699,53.061],[-68.007,53.035],[-68.32,52.949],[-68.625,52.829],[-68.944,52.697]]}},{"type":"Feature","properties":{"kind":"cold","line":3,"px_len":173},"geometry":{"type":"LineString","coordinates":[[-68.944,52.697],[-69.038,52.53],[-69.127,52.374],[-69.207,52.211],[-69.287,52.048],[-69.326,51.878],[-69.385,51.712],[-69.433,51.545],[-69.5,51.38],[-69.538,51.212],[-69.556,51.04],[-69.564,50.867],[-69.572,50.694],[-69.571,50.52],[-69.569,50.346],[-69.577,50.174],[-69.604,50.005],[-69.621,49.834],[-69.647,49.666],[-69.664,49.496],[-69.699,49.329],[-69.716,49.159],[-69.732,48.99],[-69.721,48.816],[-69.728,48.645],[-69.771,48.481],[-69.876,48.327],[-70.025,48.18],[-70.183,48.035],[-70.321,47.887],[-70.449,47.737],[-70.567,47.586],[-70.685,47.435],[-70.793,47.282],[-70.9,47.13],[-71.015,46.979],[-71.129,46.828],[-71.242,46.677],[-71.337,46.523],[-71.431,46.369],[-71.507,46.213],[-71.592,46.058],[-71.667,45.902],[-71.741,45.746],[-71.799,45.588],[-71.872,45.432],[-72.02,45.288],[-72.235,45.153],[-72.472,45.021],[-72.684,44.885],[-72.869,44.746],[-73.052,44.606],[-73.235,44.466],[-73.441,44.328],[-73.67,44.194],[-73.897,44.059],[-74.091,43.92],[-74.193,43.805],[-74.23,43.719]]}}]}