{"type":"FeatureCollection","properties":{"chart":"fc","src":"Z__C_EDZW_20261007061019_nwv01,ico_tkb_na_N_000108_000000_202610070000_WV12.png","valid_time":"2026-10-11T12:00:00+00:00"},"features":[{"type":"Feature","properties":{"kind":"cold","line":0,"px_len":205},"geometry":{"type":"LineString","coordinates":[[24.338,42.013],[24.445,42.161],[24.562,42.293],[24.699,42.427],[24.836,42.561],[24.974,42.695],[25.113,42.829],[25.26,42.961],[25.424,43.089],[25.596,43.215],[25.785,43.336],[25.975,43.457],[26.197,43.57],[26.412,43.684],[26.582,43.81],[26.691,43.953],[26.77,44.104],[26.865,44.25],[26.96,44.397],[27.072,44.54],[27.177,44.685],[27.29,44.827],[27.397,44.972],[27.52,45.113],[27.644,45.253],[27.76,45.396],[27.878,45.538],[27.988,45.683],[28.091,45.83],[28.195,45.977],[28.308,46.122],[28.422,46.267],[28.544,46.409],[28.676,46.549],[28.841,46.68],[29.008,46.81],[29.167,46.943],[29.27,47.092],[29.323,47.256],[29.353,47.427],[29.391,47.596],[29.437,47.762],[29.493,47.926],[29.566,48.086],[29.656,48.241],[29.73,48.401],[29.805,48.56],[29.872,48.723],[29.948,48.883],[30.016,49.045],[30.076,49.211],[30.136,49.376],[30.197,49.542],[30.268,49.705],[30.339,49.868],[30.419,50.029],[30.509,50.187],[30.618,50.341],[30.727,50.494],[30.829,50.65],[30.877,50.821],[30.863,51.012],[30.812,51.212],[30.769,51.411],[30.754,51.601],[30.748,51.79],[30.779,51.968],[30.843,52.13],[30.954,52.293]]}},{"type":"Feature","properties":{"kind":"warm","line":1,"px_len":154},"geometry":{"type":"LineString","coordinates":[[43.753,51.709],[43.645,51.911],[43.558,52.111],[43.461,52.314],[43.339,52.498],[43.177,52.651],[42.958,52.759],[42.719,52.85],[42.46,52.926],[42.218,53.017],[41.969,53.102],[41.743,53.207],[41.503,53.301],[41.281,53.41],[41.051,53.514],[40.832,53.627],[40.611,53.74],[40.389,53.853],[40.171,53.97],[39.952,54.087],[39.732,54.204],[39.521,54.331],[39.316,54.463],[39.12,54.605],[38.917,54.742],[38.707,54.873],[38.458,54.971],[38.173,55.035],[37.834,55.05],[37.477,55.048],[37.103,55.027],[36.74,55.017],[36.378,55.005],[36.022,54.997],[35.655,54.976],[35.278,54.944],[34.885,54.893],[34.488,54.834],[34.098,54.78],[33.725,54.742],[33.367,54.719],[33.011,54.694],[32.649,54.649],[32.299,54.571],[32.021,54.457],[31.823,54.321],[31.706,54.163],[31.609,54.0],[31.513,53.836],[31.399,53.678],[31.3,53.523],[31.241,53.343]]}},{"type":"Feature","properties":{"kind":"cold","line":2,"px_len":604},"geometry":{"type":"LineString","coordinates":[[-46.115,33.679],[-46.07,33.844],[-45.98,33.966],[-45.839,34.063],[-45.692,34.156],[-45.539,34.246],[-45.391,34.339],[-45.232,34.424],[-45.067,34.506],[-44.901,34.588],[-44.735,34.669],[-44.573,34.753],[-44.411,34.837],[-44.253,34.925],[-44.095,35.012],[-43.937,35.098],[-43.772,35.181],[-43.602,35.26],[-43.431,35.338],[-43.244,35.406],[-43.051,35.469],[-42.843,35.521],[-42.639,35.576],[-42.46,35.648],[-42.311,35.743],[-42.204,35.867],[-42.08,35.98],[-41.966,36.1],[-41.825,36.201],[-41.699,36.313],[-41.557,36.414],[-41.415,36.515],[-41.267,36.612],[-41.113,36.705],[-40.963,36.801],[-40.808,36.893],[-40.657,36.989],[-40.501,37.081],[-40.354,37.18],[-40.196,37.271],[-40.048,37.37],[-39.894,37.465],[-39.745,37.563],[-39.59,37.657],[-39.429,37.747],[-39.272,37.841],[-39.1,37.922],[-38.922,37.999],[-38.727,38.063],[-38.538,38.132],[-38.368,38.215],[-38.228,38.323],[-38.103,38.443],[-37.977,38.563],[-37.85,38.683],[-37.723,38.803],[-37.59,38.918],[-37.445,39.025],[-37.285,39.12],[-37.125,39.214],[-36.963,39.308],[-36.817,39.414],[-36.654,39.507],[-36.49,39.6],[-36.326,39.693],[-36.177,39.798],[-36.016,39.895],[-35.85,39.987],[-35.683,40.078],[-35.525,40.178],[-35.367,40.278],[-35.198,40.369],[-35.028,40.459],[-34.858,40.549],[-34.687,40.639],[-34.5,40.715],[-34.302,40.782],[-34.104,40.849],[-33.93,40.937],[-33.775,41.043],[-33.64,41.166],[-33.498,41.285],[-33.361,41.408],[-33.213,41.522],[-33.06,41.632],[-32.895,41.732],[-32.73,41.832],[-32.564,41.931],[-32.397,42.03],[-32.23,42.129],[-32.062,42.228],[-31.893,42.326],[-31.733,42.433],[-31.577,42.545],[-31.42,42.657],[-31.253,42.759],[-31.08,42.856],[-30.906,42.952],[-30.731,43.049],[-30.556,43.145],[-30.379,43.24],[-30.188,43.321],[-29.996,43.402],[-29.788,43.468],[-29.585,43.538],[-29.376,43.602],[-29.2,43.701],[-29.046,43.823],[-28.911,43.964],[-28.771,44.101],[-28.624,44.232],[-28.463,44.349],[-28.295,44.461],[-28.123,44.567],[-27.958,44.683],[-27.788,44.793],[-27.617,44.904],[-27.445,45.014],[-27.272,45.124],[-27.103,45.238],[-26.933,45.353],[-26.762,45.467],[-26.595,45.586],[-26.427,45.704],[-26.257,45.823],[-26.082,45.936],[-25.902,46.043],[-25.725,46.156],[-25.528,46.247],[-25.336,46.344],[-25.128,46.424],[-24.934,46.519],[-24.72,46.594],[-24.533,46.699],[-24.367,46.83],[-24.232,46.997],[-24.1,47.17],[-23.958,47.332],[-23.815,47.494],[-23.661,47.646],[-23.502,47.792],[-23.342,47.938],[-23.18,48.084],[-23.031,48.245],[-22.885,48.412],[-22.751,48.595],[-22.616,48.778],[-22.493,48.978],[-22.364,49.172],[-22.248,49.382],[-22.121,49.582],[-21.988,49.776],[-21.836,49.948],[-21.673,50.109],[-21.508,50.27],[-21.395,50.442],[-21.352,50.618],[-21.388,50.797],[-21.451,50.967],[-21.505,51.14],[-21.542,51.319],[-21.544,51.51],[-21.546,51.701],[-21.529,51.898],[-21.531,52.089],[-21.533,52.281],[-21.544,52.47],[-21.555,52.66],[-21.557,52.852],[-21.568,53.042],[-21.561,53.237],[-21.544,53.436],[-21.498,53.644],[-21.452,53.853],[-21.434,54.052],[-21.484,54.232],[-21.593,54.393],[-21.731,54.546],[-21.871,54.698],[-21.993,54.857],[-22.106,55.018],[-22.22,55.179],[-22.326,55.344],[-22.432,55.509],[-22.52,55.679],[-22.628,55.844],[-22.728,56.012],[-22.838,56.177],[-22.94,56.345],[-23.033,56.516],[-23.126,56.687],[-23.211,56.861],[-23.286,57.039],[-23.34,57.223],[-23.396,57.408],[-23.421,57.602],[-23.414,57.806],[-23.343,58.029],[-23.243,58.254],[-23.023,58.408],[-22.71,58.462],[-22.26,58.412]]}},{"type":"Feature","properties":{"kind":"warm","line":2,"px_len":250},"geometry":{"type":"LineString","coordinates":[[-22.26,58.412],[-21.8,58.349],[-21.399,58.313],[-20.982,58.272],[-20.554,58.219],[-20.14,58.131],[-19.761,58.034],[-19.407,57.929],[-19.055,57.824],[-18.684,57.722],[-18.293,57.625],[-17.871,57.535],[-17.485,57.435],[-17.145,57.324],[-16.885,57.193],[-16.716,57.042],[-16.602,56.879],[-16.511,56.71],[-16.367,56.554],[-16.214,56.4],[-16.052,56.249],[-15.891,56.097],[-15.742,55.943],[-15.573,55.794],[-15.406,55.644],[-15.22,55.5],[-15.035,55.354],[-14.841,55.211],[-14.649,55.068],[-14.448,54.926],[-14.238,54.787],[-14.01,54.652],[-13.773,54.518],[-13.538,54.384],[-13.294,54.252],[-13.094,54.11],[-12.966,53.954],[-12.922,53.781],[-12.898,53.605],[-12.864,53.43],[-12.821,53.258],[-12.778,53.085],[-12.715,52.917],[-12.634,52.754],[-12.543,52.592],[-12.443,52.432],[-12.335,52.275],[-12.247,52.113],[-12.169,51.95],[-12.102,51.785],[-12.016,51.623],[-11.931,51.462],[-11.818,51.307],[-11.706,51.152],[-11.576,51.001],[-11.466,50.845],[-11.329,50.696],[-11.24,50.537],[-11.207,50.367],[-11.268,50.178],[-11.374,49.98],[-11.497,49.779],[-11.61,49.58],[-11.704,49.384],[-11.779,49.193],[-11.834,49.005],[-11.881,48.82],[-11.936,48.633],[-12.008,48.442],[-12.079,48.251],[-12.141,48.063],[-12.167,47.882],[-12.176,47.706],[-12.168,47.533],[-12.194,47.354],[-12.254,47.166],[-12.367,46.973],[-12.509,46.786],[-12.682,46.623],[-12.868,46.49],[-13.058,46.367],[-13.246,46.244],[-13.42,46.111],[-13.609,45.974]]}},{"type":"Feature","properties":{"kind":"occl","line":3,"px_len":121},"geometry":{"type":"LineString","coordinates":[[-23.189,58.682],[-23.472,58.809],[-23.734,58.927],[-24.027,59.044],[-24.366,59.146],[-24.718,59.245],[-25.084,59.339],[-25.419,59.442],[-25.756,59.544],[-26.074,59.652],[-26.394,59.759],[-26.695,59.873],[-26.987,59.99],[-27.259,60.113],[-27.523,60.239],[-27.778,60.368],[-28.036,60.497],[-28.284,60.629],[-28.524,60.764],[-28.766,60.899],[-29.078,61.011],[-29.469,61.095],[-29.919,61.158],[-30.37,61.219],[-30.801,61.287],[-31.213,61.361],[-31.616,61.438],[-32.021,61.514],[-32.472,61.571],[-32.94,61.604],[-33.389,61.583],[-33.775,61.525],[-34.115,61.44],[-34.452,61.354],[-34.788,61.268],[-35.139,61.19],[-35.489,61.111],[-35.846,61.036],[-36.219,60.97],[-36.597,60.936],[-37.0,60.943]]}},{"type":"Feature","properties":{"kind":"cold","line":4,"px_len":266},"geometry":{"type":"LineString","coordinates":[[57.047,55.034],[57.452,55.033],[57.812,55.041],[58.181,55.053],[58.55,55.063],[58.919,55.071],[59.282,55.084],[59.651,55.089],[60.034,55.084],[60.419,55.053],[60.788,55.0],[61.135,54.929],[61.452,54.892],[61.739,54.912],[62.003,54.985],[62.272,55.066],[62.549,55.141],[62.832,55.21],[63.117,55.278],[63.416,55.334],[63.715,55.39],[64.022,55.439],[64.324,55.493],[64.632,55.541],[64.929,55.598],[65.228,55.655],[65.516,55.722],[65.811,55.782],[66.095,55.853],[66.387,55.918],[66.674,55.987],[66.973,56.044],[67.274,56.101],[67.587,56.145],[67.906,56.183],[68.215,56.231],[68.492,56.312],[68.739,56.427],[68.971,56.559],[69.205,56.69],[69.452,56.809],[69.701,56.928],[69.967,57.029],[70.23,57.135],[70.505,57.229],[70.766,57.34],[71.035,57.444],[71.3,57.553],[71.566,57.662],[71.825,57.782],[72.086,57.902],[72.359,58.009],[72.633,58.116],[72.92,58.209],[73.203,58.309],[73.507,58.383],[73.804,58.469],[74.106,58.547],[74.345,58.675],[74.542,58.842],[74.709,59.052],[74.906,59.261],[75.127,59.459],[75.361,59.645],[75.603,59.824],[75.852,59.997],[76.104,60.169],[76.354,60.348],[76.603,60.532],[76.856,60.715],[77.112,60.899],[77.375,61.075],[77.651,61.239],[77.948,61.377],[78.26,61.495],[78.566,61.625],[78.863,61.774],[79.146,61.926],[79.338,62.085],[79.424,62.25],[79.408,62.435],[79.392,62.621],[79.376,62.806],[79.36,62.992],[79.329,63.175],[79.298,63.359],[79.252,63.541],[79.22,63.726],[79.185,63.868],[79.162,63.969]]}}]}