{"type":"FeatureCollection","properties":{"chart":"fc","src":"Z__C_EDZW_20261003051909_nwv01,ico_tkb_na_N_000060_000000_202610030000_WV12.png","valid_time":"2026-10-05T12:00:00+00:00"},"features":[{"type":"Feature","properties":{"kind":"cold","line":0,"px_len":330},"geometry":{"type":"LineString","coordinates":[[-40.628,46.893],[-40.327,46.933],[-40.063,46.981],[-39.799,47.036],[-39.534,47.09],[-39.268,47.144],[-39.002,47.197],[-38.735,47.249],[-38.461,47.296],[-38.174,47.333],[-37.88,47.365],[-37.572,47.387],[-37.252,47.399],[-36.926,47.405],[-36.649,47.447],[-36.414,47.518],[-36.221,47.621],[-36.027,47.723],[-35.826,47.821],[-35.612,47.908],[-35.391,47.991],[-35.175,48.078],[-34.951,48.16],[-34.715,48.232],[-34.478,48.303],[-34.246,48.378],[-34.013,48.453],[-33.785,48.532],[-33.556,48.61],[-33.332,48.693],[-33.107,48.775],[-32.875,48.851],[-32.655,48.937],[-32.421,49.012],[-32.204,49.102],[-31.974,49.181],[-31.755,49.269],[-31.524,49.348],[-31.297,49.43],[-31.063,49.507],[-30.823,49.579],[-30.57,49.639],[-30.299,49.685],[-30.033,49.734],[-29.784,49.798],[-29.579,49.901],[-29.384,50.014],[-29.193,50.132],[-28.995,50.245],[-28.797,50.357],[-28.591,50.463],[-28.373,50.559],[-28.154,50.654],[-27.934,50.749],[-27.713,50.844],[-27.49,50.938],[-27.266,51.031],[-27.042,51.124],[-26.816,51.217],[-26.605,51.325],[-26.393,51.432],[-26.179,51.539],[-25.948,51.629],[-25.716,51.719],[-25.483,51.809],[-25.249,51.898],[-25.013,51.986],[-24.776,52.074],[-24.523,52.145],[-24.258,52.205],[-23.992,52.263],[-23.761,52.36],[-23.554,52.483],[-23.372,52.633],[-23.178,52.772],[-22.978,52.906],[-22.755,53.016],[-22.531,53.127],[-22.3,53.231],[-22.073,53.34],[-21.84,53.444],[-21.6,53.541],[-21.359,53.637],[-21.116,53.734],[-20.873,53.829],[-20.632,53.93],[-20.385,54.024],[-20.147,54.129],[-19.897,54.223],[-19.656,54.327],[-19.408,54.425],[-19.155,54.516],[-18.89,54.596],[-18.62,54.668],[-18.348,54.741],[-18.071,54.806],[-17.783,54.859],[-17.508,54.929],[-17.259,55.034],[-17.038,55.179],[-16.821,55.329],[-16.592,55.468],[-16.349,55.588],[-16.099,55.702],[-15.843,55.809],[-15.582,55.91],[-15.314,56.004],[-15.037,56.085],[-14.758,56.166],[-14.51,56.239],[-14.302,56.317]]}},{"type":"Feature","properties":{"kind":"warm","line":0,"px_len":83},"geometry":{"type":"LineString","coordinates":[[-14.302,56.317],[-14.008,56.398],[-13.735,56.474],[-13.45,56.551],[-13.159,56.622],[-12.87,56.698],[-12.581,56.773],[-12.282,56.835],[-11.982,56.896],[-11.689,56.968],[-11.394,57.04],[-11.101,57.117],[-10.803,57.187],[-10.511,57.269],[-10.221,57.356],[-9.932,57.449],[-9.632,57.522],[-9.314,57.564],[-8.973,57.56],[-8.626,57.543],[-8.276,57.518],[-7.927,57.492],[-7.584,57.477],[-7.245,57.468],[-6.911,57.471],[-6.58,57.478],[-6.248,57.485],[-5.992,57.495],[-5.805,57.49]]}},{"type":"Feature","properties":{"kind":"cold","line":0,"px_len":216},"geometry":{"type":"LineString","coordinates":[[-5.805,57.49],[-5.474,57.527],[-5.166,57.561],[-4.842,57.589],[-4.514,57.603],[-4.185,57.616],[-3.859,57.634],[-3.529,57.645],[-3.196,57.642],[-2.857,57.619],[-2.52,57.601],[-2.191,57.608],[-1.874,57.659],[-1.565,57.747],[-1.256,57.841],[-0.941,57.915],[-0.621,57.975],[-0.296,58.015],[0.027,58.067],[0.354,58.105],[0.679,58.155],[1.008,58.19],[1.337,58.225],[1.67,58.246],[2.003,58.26],[2.337,58.272],[2.671,58.283],[3.005,58.294],[3.34,58.303],[3.675,58.311],[4.007,58.351],[4.338,58.422],[4.669,58.532],[5.003,58.634],[5.339,58.735],[5.677,58.822],[6.018,58.902],[6.36,58.967],[6.704,59.038],[7.049,59.115],[7.397,59.203],[7.747,59.291],[8.1,59.39],[8.456,59.495],[8.817,59.625],[9.181,59.754],[9.547,59.869],[9.913,59.963],[10.284,60.069],[10.583,60.21],[10.769,60.374],[10.864,60.549],[10.934,60.725],[11.018,60.9],[11.104,61.075],[11.204,61.25],[11.319,61.425],[11.436,61.599],[11.568,61.773],[11.716,61.946],[11.866,62.119],[12.004,62.293],[12.172,62.465],[12.385,62.635],[12.615,62.804],[12.849,62.973],[13.071,63.142],[13.311,63.31],[13.539,63.479],[13.783,63.64],[14.088,63.743],[14.406,63.784],[14.723,63.77]]}},{"type":"Feature","properties":{"kind":"warm","line":0,"px_len":185},"geometry":{"type":"LineString","coordinates":[[14.723,63.77],[15.127,63.702],[15.506,63.655],[15.907,63.625],[16.307,63.594],[16.703,63.555],[17.092,63.502],[17.473,63.434],[17.841,63.34],[18.172,63.206],[18.378,63.036],[18.484,62.849],[18.514,62.662],[18.543,62.475],[18.573,62.289],[18.601,62.102],[18.657,61.913],[18.726,61.723],[18.807,61.531],[18.888,61.339],[18.967,61.147],[19.058,60.955],[19.161,60.76],[19.276,60.564],[19.415,60.366],[19.565,60.166],[19.701,59.967],[19.771,59.776],[19.764,59.595],[19.695,59.421],[19.564,59.255],[19.41,59.092],[19.234,58.932],[19.095,58.767],[18.983,58.599],[18.909,58.428],[18.835,58.256],[18.762,58.084],[18.691,57.912],[18.619,57.741],[18.525,57.572],[18.421,57.405],[18.317,57.238],[18.261,57.066],[18.217,56.892],[18.186,56.717],[18.166,56.541],[18.158,56.364],[18.161,56.185],[18.074,56.017],[17.92,55.858],[17.668,55.71],[17.406,55.562],[17.147,55.414],[16.901,55.264],[16.68,55.112],[16.482,54.956],[16.309,54.799],[16.147,54.64],[15.988,54.481],[15.84,54.32],[15.738,54.195],[15.678,54.103]]}},{"type":"Feature","properties":{"kind":"occl","line":1,"px_len":79},"geometry":{"type":"LineString","coordinates":[[-3.01,62.568],[-2.745,62.776],[-2.472,62.97],[-2.152,63.174],[-1.806,63.358],[-1.448,63.515],[-1.077,63.644],[-0.698,63.753],[-0.33,63.859],[-0.071,63.986],[0.104,64.149],[0.213,64.336],[0.355,64.524],[0.547,64.715],[0.788,64.907],[1.081,65.1],[1.395,65.294],[1.697,65.486],[1.972,65.677],[2.202,65.866],[2.403,66.054],[2.641,66.243],[2.899,66.431],[3.249,66.601],[3.639,66.764],[4.072,66.907],[4.543,67.069]]}},{"type":"Feature","properties":{"kind":"occl","line":2,"px_len":166},"geometry":{"type":"LineString","coordinates":[[-12.547,66.728],[-12.119,66.821],[-11.726,66.914],[-11.323,67.021],[-10.917,67.127],[-10.496,67.219],[-10.058,67.29],[-9.602,67.341],[-9.144,67.39],[-8.684,67.438],[-8.236,67.504],[-7.806,67.601],[-7.381,67.711],[-6.951,67.819],[-6.506,67.906],[-6.06,67.999],[-5.6,68.07],[-5.14,68.147],[-4.67,68.209],[-4.21,68.296],[-3.76,68.409],[-3.338,68.553],[-2.963,68.727],[-2.578,68.894],[-2.173,69.074],[-1.718,69.242],[-1.253,69.402],[-0.776,69.547],[-0.288,69.677],[0.209,69.798],[0.714,69.912],[1.227,70.017],[1.748,70.107],[2.275,70.189],[2.81,70.255],[3.347,70.32],[3.89,70.376],[4.391,70.458],[4.874,70.585],[5.362,70.732],[5.899,70.898],[6.466,71.042],[7.041,71.171],[7.622,71.263],[8.209,71.353],[8.804,71.463],[9.347,71.605],[9.816,71.768],[10.208,71.946],[10.541,72.125],[10.858,72.303],[11.181,72.482],[11.558,72.658],[12.011,72.832],[12.449,72.998],[12.947,73.176]]}},{"type":"Feature","properties":{"kind":"warm","line":3,"px_len":211},"geometry":{"type":"LineString","coordinates":[[-56.091,40.499],[-56.273,40.585],[-56.44,40.67],[-56.603,40.773],[-56.763,40.881],[-56.914,41.005],[-57.062,41.133],[-57.218,41.251],[-57.396,41.337],[-57.598,41.386],[-57.815,41.413],[-58.032,41.44],[-58.246,41.472],[-58.45,41.518],[-58.648,41.575],[-58.839,41.642],[-59.032,41.709],[-59.225,41.775],[-59.418,41.841],[-59.612,41.906],[-59.807,41.971],[-60.002,42.035],[-60.198,42.099],[-60.395,42.162],[-60.583,42.241],[-60.768,42.326],[-60.945,42.426],[-61.122,42.525],[-61.294,42.636],[-61.47,42.74],[-61.657,42.828],[-61.862,42.883],[-62.085,42.904],[-62.324,42.896],[-62.562,42.888],[-62.804,42.874],[-63.033,42.881],[-63.263,42.888],[-63.487,42.905],[-63.709,42.927],[-63.931,42.948],[-64.148,42.98],[-64.37,43.0],[-64.59,43.025],[-64.81,43.049],[-65.025,43.084],[-65.241,43.118],[-65.457,43.152],[-65.673,43.186],[-65.884,43.229],[-66.094,43.278],[-66.304,43.327],[-66.514,43.375],[-66.74,43.388],[-66.971,43.346],[-67.184,43.244],[-67.348,43.112],[-67.516,42.988],[-67.711,42.9],[-67.946,42.857],[-68.178,42.843],[-68.403,42.846],[-68.626,42.854],[-68.845,42.872],[-69.066,42.885],[-69.287,42.897],[-69.509,42.908],[-69.73,42.918],[-69.95,42.934],[-70.166,42.936],[-70.399,42.934]]}},{"type":"Feature","properties":{"kind":"occl","line":4,"px_len":636},"geometry":{"type":"LineString","coordinates":[[35.599,45.67],[35.817,45.73],[36.025,45.814],[36.255,45.911],[36.502,46.0],[36.756,46.086],[36.99,46.18],[37.202,46.284],[37.37,46.405],[37.516,46.536],[37.64,46.676],[37.788,46.807],[37.96,46.928],[38.156,47.038],[38.353,47.149],[38.543,47.262],[38.696,47.392],[38.805,47.541],[38.876,47.707],[38.948,47.873],[39.036,48.032],[39.132,48.188],[39.237,48.341],[39.35,48.49],[39.48,48.632],[39.619,48.772],[39.751,48.914],[39.868,49.063],[39.963,49.223],[40.034,49.393],[40.099,49.566],[40.164,49.74],[40.229,49.914],[40.287,50.091],[40.338,50.273],[40.389,50.454],[40.433,50.639],[40.485,50.821],[40.554,50.995],[40.64,51.163],[40.744,51.324],[40.848,51.485],[40.954,51.646],[41.018,51.825],[41.025,52.029],[41.006,52.244],[40.979,52.464],[40.994,52.665],[41.026,52.859],[41.085,53.043],[41.144,53.227],[41.178,53.422],[41.168,53.636],[41.108,53.862],[41.01,54.081],[40.899,54.289],[40.82,54.492],[40.786,54.7],[40.8,54.904],[40.825,55.105],[40.868,55.298],[40.921,55.488],[40.993,55.671],[41.066,55.854],[41.149,56.034],[41.234,56.213],[41.328,56.389],[41.424,56.565],[41.521,56.741],[41.619,56.918],[41.719,57.094],[41.829,57.266],[41.95,57.435],[42.092,57.596],[42.255,57.75],[42.41,57.907],[42.596,58.052],[42.784,58.198],[43.014,58.327],[43.206,58.472],[43.37,58.628],[43.495,58.8],[43.632,58.968],[43.801,59.124],[43.982,59.276],[44.165,59.428],[44.349,59.58],[44.556,59.723],[44.734,59.878],[44.873,60.05],[44.952,60.246],[45.011,60.45],[45.05,60.663],[45.1,60.872],[45.172,61.073],[45.267,61.266],[45.374,61.455],[45.493,61.639],[45.624,61.819],[45.768,61.996],[45.914,62.172],[46.062,62.348],[46.211,62.524],[46.363,62.7],[46.517,62.875],[46.684,63.047],[46.887,63.205],[47.093,63.363],[47.323,63.512],[47.557,63.661],[47.804,63.805],[48.02,63.962],[48.182,64.141],[48.312,64.334],[48.432,64.531],[48.589,64.715],[48.772,64.889],[48.993,65.049],[49.204,65.214],[49.407,65.384],[49.578,65.567],[49.715,65.763],[49.76,65.969],[49.746,66.198],[49.66,66.426],[49.644,66.655],[49.654,66.875],[49.724,67.101],[49.796,67.326],[49.895,67.543],[49.996,67.76],[50.112,67.972],[50.204,68.193],[50.312,68.41],[50.394,68.637],[50.479,68.863],[50.538,69.1],[50.613,69.331],[50.689,69.563],[50.795,69.785],[50.932,69.998],[51.114,70.196],[51.33,70.385],[51.535,70.578],[51.582,70.767],[51.497,70.961],[51.29,71.155],[51.139,71.368],[51.016,71.592],[50.951,71.834],[50.916,72.087],[50.879,72.34],[50.761,72.568],[50.542,72.767],[50.22,72.936],[49.826,73.085],[49.425,73.233],[49.017,73.38],[48.65,73.542],[48.26,73.698],[47.911,73.869],[47.572,74.044],[47.241,74.224],[46.903,74.404],[46.557,74.583],[46.203,74.762],[45.823,74.935],[45.401,75.096],[44.969,75.257],[44.527,75.417],[44.058,75.571],[43.563,75.718],[43.022,75.853],[42.488,75.993],[41.91,76.12],[41.304,76.239],[40.654,76.346],[40.043,76.469],[39.421,76.59],[38.788,76.709],[38.095,76.81],[37.407,76.914],[36.74,77.028],[36.014,77.122],[35.155,77.166],[34.173,77.158],[33.136,77.121],[32.133,77.092],[31.16,77.073],[30.216,77.062],[29.286,77.054],[28.322,77.023],[27.348,76.961],[26.416,76.855],[25.623,76.72],[25.015,76.57],[24.534,76.41],[24.12,76.245],[23.688,76.081],[23.211,75.921],[22.665,75.765],[22.076,75.613],[21.447,75.462],[20.805,75.311],[20.15,75.161],[19.534,75.007],[18.931,74.851],[18.365,74.693],[17.787,74.534],[17.22,74.374],[16.64,74.214],[16.085,74.072],[15.551,73.95]]}},{"type":"Feature","properties":{"kind":"occl","line":5,"px_len":171},"geometry":{"type":"LineString","coordinates":[[65.944,54.054],[66.136,54.215],[66.287,54.369],[66.406,54.556],[66.521,54.749],[66.668,54.937],[66.832,55.122],[66.993,55.313],[67.149,55.51],[67.319,55.695],[67.524,55.847],[67.763,55.964],[68.037,56.046],[68.302,56.139],[68.562,56.238],[68.819,56.341],[69.073,56.45],[69.317,56.569],[69.558,56.694],[69.801,56.818],[70.056,56.93],[70.313,57.042],[70.588,57.136],[70.869,57.222],[71.147,57.315],[71.426,57.406],[71.707,57.497],[72.005,57.569],[72.319,57.623],[72.648,57.658],[72.983,57.686],[73.328,57.7],[73.678,57.708],[74.042,57.697],[74.41,57.678],[74.778,57.658],[75.145,57.637],[75.508,57.62],[75.878,57.591],[76.268,57.529],[76.651,57.437],[77.007,57.36],[77.327,57.337],[77.646,57.355],[77.966,57.391],[78.298,57.409],[78.619,57.444],[78.951,57.459],[79.274,57.492],[79.607,57.505],[79.934,57.53],[80.268,57.541],[80.596,57.564],[80.927,57.579],[81.252,57.606],[81.575,57.638],[81.867,57.658],[82.132,57.654]]}}]}