{"type":"FeatureCollection","properties":{"chart":"fc","src":"Z__C_EDZW_20261009052433_nwv01,ico_tkb_na_N_000084_000000_202610090000_WV12.png","valid_time":"2026-10-12T12:00:00+00:00"},"features":[{"type":"Feature","properties":{"kind":"cold","line":0,"px_len":154},"geometry":{"type":"LineString","coordinates":[[24.326,40.466],[24.553,40.581],[24.783,40.682],[25.025,40.786],[25.259,40.873],[25.485,40.937],[25.723,40.973],[25.958,41.002],[26.175,41.061],[26.353,41.155],[26.498,41.283],[26.623,41.416],[26.755,41.548],[26.896,41.678],[27.059,41.801],[27.231,41.922],[27.426,42.036],[27.615,42.152],[27.812,42.265],[28.003,42.38],[28.187,42.497],[28.372,42.614],[28.544,42.735],[28.731,42.851],[28.912,42.969],[29.102,43.084],[29.285,43.201],[29.461,43.321],[29.624,43.445],[29.795,43.566],[29.967,43.687],[30.147,43.805],[30.329,43.923],[30.519,44.038],[30.726,44.148],[30.941,44.254],[31.18,44.353],[31.428,44.449],[31.631,44.559],[31.79,44.685],[31.896,44.828],[32.011,44.969],[32.119,45.113],[32.251,45.248],[32.376,45.386],[32.525,45.516],[32.667,45.649],[32.826,45.776],[32.977,45.906],[33.123,46.038],[33.265,46.165],[33.416,46.302]]}},{"type":"Feature","properties":{"kind":"occl","line":1,"px_len":184},"geometry":{"type":"LineString","coordinates":[[24.286,57.336],[24.529,57.484],[24.732,57.626],[24.917,57.777],[25.07,57.935],[25.247,58.089],[25.403,58.247],[25.549,58.406],[25.685,58.568],[25.905,58.715],[26.234,58.841],[26.645,58.943],[27.068,59.022],[27.485,59.087],[27.908,59.156],[28.313,59.249],[28.682,59.363],[29.03,59.481],[29.386,59.554],[29.76,59.579],[30.127,59.562],[30.499,59.549],[30.871,59.536],[31.242,59.521],[31.624,59.516],[32.017,59.523],[32.421,59.539],[32.821,59.549],[33.214,59.551],[33.602,59.546],[33.983,59.533],[34.365,59.52],[34.739,59.499],[35.107,59.472],[35.468,59.437],[35.828,59.401],[36.174,59.353],[36.519,59.304],[36.857,59.248],[37.173,59.174],[37.488,59.1],[37.774,59.002],[38.066,58.909],[38.335,58.799],[38.595,58.683],[38.834,58.55],[39.056,58.405],[39.284,58.265],[39.522,58.136],[39.759,58.007],[39.994,57.877],[40.22,57.741],[40.416,57.583],[40.591,57.41],[40.763,57.236],[40.96,57.083],[41.19,56.956],[41.418,56.829],[41.657,56.712],[41.895,56.595],[42.128,56.486],[42.345,56.343]]}},{"type":"Feature","properties":{"kind":"warm","line":1,"px_len":192},"geometry":{"type":"LineString","coordinates":[[42.345,56.343],[42.801,56.382],[43.204,56.4],[43.625,56.418],[44.045,56.434],[44.47,56.472],[44.868,56.52],[45.231,56.583],[45.577,56.653],[45.934,56.717],[46.313,56.754],[46.714,56.763],[47.086,56.733],[47.411,56.672],[47.688,56.58],[47.956,56.484],[48.245,56.401],[48.541,56.322],[48.851,56.252],[49.159,56.181],[49.49,56.123],[49.82,56.064],[50.165,56.014],[50.508,55.962],[50.843,55.905],[51.159,55.837],[51.475,55.768],[51.797,55.703],[52.11,55.633],[52.422,55.561],[52.724,55.484],[53.032,55.411],[53.331,55.332],[53.654,55.266],[53.992,55.207],[54.37,55.169],[54.756,55.133],[55.127,55.115],[55.464,55.078],[55.775,55.028],[56.055,54.937],[56.291,54.826],[56.491,54.697],[56.69,54.568],[56.904,54.447],[57.117,54.325],[57.328,54.203],[57.537,54.081],[57.771,53.97],[58.02,53.867],[58.284,53.771],[58.547,53.674],[58.817,53.581],[59.077,53.482],[59.352,53.391],[59.635,53.303],[59.941,53.226],[60.255,53.151],[60.602,53.09],[60.965,53.035],[61.326,52.978],[61.643,52.903],[61.907,52.805],[62.083,52.693],[62.188,52.576]]}},{"type":"Feature","properties":{"kind":"warm","line":2,"px_len":107},"geometry":{"type":"LineString","coordinates":[[34.481,47.218],[34.601,47.369],[34.713,47.509],[34.838,47.651],[34.98,47.787],[35.123,47.924],[35.259,48.063],[35.38,48.208],[35.502,48.353],[35.625,48.497],[35.749,48.642],[35.866,48.79],[35.959,48.947],[36.036,49.111],[36.106,49.277],[36.168,49.447],[36.214,49.623],[36.253,49.802],[36.283,49.985],[36.339,50.158],[36.429,50.319],[36.579,50.458],[36.756,50.588],[36.942,50.714],[37.113,50.846],[37.268,50.984],[37.407,51.129],[37.547,51.274],[37.689,51.418],[37.823,51.566],[37.94,51.72],[38.059,51.875],[38.188,52.026],[38.335,52.17],[38.483,52.314],[38.599,52.426],[38.683,52.506]]}},{"type":"Feature","properties":{"kind":"cold","line":2,"px_len":74},"geometry":{"type":"LineString","coordinates":[[38.683,52.506],[38.866,52.645],[39.039,52.773],[39.219,52.906],[39.401,53.039],[39.584,53.172],[39.768,53.304],[39.945,53.44],[40.132,53.572],[40.321,53.703],[40.493,53.842],[40.667,53.98],[40.86,54.111],[41.073,54.234],[41.305,54.35],[41.53,54.469],[41.693,54.613],[41.795,54.783],[41.843,54.976],[41.892,55.169],[41.951,55.358],[42.019,55.544],[42.107,55.723],[42.196,55.901],[42.273,56.037],[42.328,56.134]]}},{"type":"Feature","properties":{"kind":"cold","line":3,"px_len":436},"geometry":{"type":"LineString","coordinates":[[-40.152,30.884],[-40.018,30.981],[-39.884,31.062],[-39.74,31.144],[-39.595,31.225],[-39.45,31.306],[-39.305,31.387],[-39.159,31.468],[-39.013,31.548],[-38.857,31.62],[-38.701,31.692],[-38.531,31.753],[-38.356,31.809],[-38.176,31.861],[-38.005,31.92],[-37.851,31.994],[-37.719,32.087],[-37.608,32.2],[-37.496,32.313],[-37.38,32.421],[-37.254,32.522],[-37.128,32.622],[-37.002,32.723],[-36.874,32.823],[-36.747,32.923],[-36.618,33.023],[-36.49,33.123],[-36.36,33.222],[-36.23,33.322],[-36.1,33.421],[-35.969,33.52],[-35.846,33.628],[-35.727,33.739],[-35.608,33.85],[-35.483,33.957],[-35.363,34.067],[-35.242,34.178],[-35.125,34.293],[-35.002,34.403],[-34.884,34.518],[-34.765,34.633],[-34.645,34.747],[-34.53,34.866],[-34.413,34.984],[-34.296,35.103],[-34.183,35.225],[-34.061,35.339],[-33.946,35.462],[-33.818,35.571],[-33.689,35.681],[-33.547,35.777],[-33.413,35.882],[-33.269,35.978],[-33.124,36.074],[-32.975,36.165],[-32.86,36.291],[-32.771,36.443],[-32.703,36.617],[-32.626,36.783],[-32.544,36.944],[-32.448,37.092],[-32.343,37.231],[-32.228,37.362],[-32.112,37.492],[-32.001,37.627],[-31.888,37.762],[-31.775,37.897],[-31.661,38.032],[-31.547,38.166],[-31.436,38.306],[-31.325,38.445],[-31.213,38.584],[-31.1,38.724],[-30.986,38.863],[-30.876,39.007],[-30.766,39.15],[-30.655,39.294],[-30.543,39.438],[-30.43,39.582],[-30.321,39.73],[-30.212,39.879],[-30.097,40.023],[-29.986,40.171],[-29.874,40.32],[-29.761,40.468],[-29.634,40.602],[-29.506,40.737],[-29.369,40.862],[-29.235,40.991],[-29.083,41.101],[-28.925,41.206],[-28.766,41.311],[-28.647,41.438],[-28.573,41.605],[-28.525,41.801],[-28.465,42.004],[-28.387,42.201],[-28.296,42.383],[-28.199,42.561],[-28.093,42.729],[-27.981,42.892],[-27.873,43.06],[-27.763,43.229],[-27.658,43.402],[-27.547,43.57],[-27.44,43.744],[-27.332,43.917],[-27.222,44.091],[-27.112,44.264],[-27.002,44.438],[-26.894,44.617],[-26.786,44.796],[-26.677,44.975],[-26.562,45.149],[-26.446,45.323],[-26.329,45.497],[-26.216,45.676],[-26.097,45.85],[-25.978,46.025],[-25.857,46.199],[-25.735,46.373],[-25.612,46.548],[-25.478,46.712],[-25.334,46.865],[-25.175,47.003],[-25.006,47.13],[-24.83,47.252],[-24.64,47.358],[-24.454,47.469],[-24.3,47.594],[-24.195,47.764],[-24.116,47.965],[-24.026,48.178],[-23.912,48.379],[-23.783,48.563],[-23.639,48.732],[-23.489,48.895],[-23.324,49.042],[-23.158,49.189],[-22.981,49.324],[-22.807,49.465],[-22.632,49.606],[-22.456,49.747],[-22.273,49.881],[-22.089,50.002],[-21.882,50.123]]}},{"type":"Feature","properties":{"kind":"warm","line":3,"px_len":154},"geometry":{"type":"LineString","coordinates":[[-21.882,50.123],[-21.696,50.271],[-21.512,50.396],[-21.319,50.524],[-21.119,50.646],[-20.918,50.767],[-20.716,50.889],[-20.513,51.009],[-20.308,51.13],[-20.097,51.245],[-19.885,51.359],[-19.667,51.467],[-19.453,51.58],[-19.25,51.71],[-19.054,51.851],[-18.865,52.003],[-18.67,52.149],[-18.474,52.295],[-18.259,52.417],[-18.012,52.499],[-17.735,52.54],[-17.441,52.557],[-17.146,52.572],[-16.855,52.593],[-16.564,52.613],[-16.276,52.638],[-15.988,52.662],[-15.708,52.697],[-15.423,52.725],[-15.129,52.74],[-14.825,52.737],[-14.506,52.709],[-14.18,52.668],[-13.836,52.597],[-13.502,52.536],[-13.175,52.486],[-12.863,52.458],[-12.558,52.442],[-12.253,52.425],[-11.949,52.406],[-11.632,52.363],[-11.32,52.284],[-11.008,52.179],[-10.691,52.061],[-10.365,51.963],[-10.043,51.89],[-9.736,51.847],[-9.439,51.82],[-9.155,51.823],[-8.881,51.85],[-8.625,51.892],[-8.349,51.936]]}},{"type":"Feature","properties":{"kind":"stat","line":3,"px_len":205},"geometry":{"type":"LineString","coordinates":[[-8.349,51.936],[-8.082,52.005],[-7.839,52.081],[-7.589,52.171],[-7.344,52.273],[-7.099,52.38],[-6.855,52.493],[-6.607,52.599],[-6.355,52.698],[-6.1,52.79],[-5.841,52.876],[-5.581,52.96],[-5.349,53.067],[-5.181,53.21],[-5.088,53.383],[-5.018,53.566],[-4.938,53.751],[-4.792,53.943],[-4.635,54.136],[-4.432,54.334],[-4.26,54.528],[-4.085,54.722],[-3.942,54.912],[-3.785,55.104],[-3.605,55.298],[-3.385,55.482],[-3.136,55.655],[-2.867,55.804],[-2.589,55.933],[-2.306,56.048],[-2.019,56.156],[-1.733,56.276],[-1.445,56.396],[-1.196,56.538],[-1.043,56.692],[-0.976,56.866],[-0.957,57.044],[-0.938,57.222],[-0.906,57.4],[-0.899,57.577],[-0.879,57.755],[-0.883,57.932],[-0.851,58.111],[-0.843,58.289],[-0.847,58.466],[-0.851,58.644],[-0.83,58.823],[-0.772,59.004],[-0.687,59.188],[-0.6,59.371],[-0.552,59.552],[-0.606,59.728],[-0.726,59.899],[-0.848,60.07],[-0.97,60.242],[-1.055,60.416],[-1.141,60.589],[-1.187,60.766],[-1.235,60.943],[-1.282,61.12],[-1.331,61.296],[-1.38,61.474],[-1.429,61.651],[-1.48,61.828],[-1.531,62.005],[-1.582,62.183],[-1.635,62.361],[-1.686,62.532],[-1.742,62.716]]}},{"type":"Feature","properties":{"kind":"occl","line":3,"px_len":304},"geometry":{"type":"LineString","coordinates":[[-1.742,62.716],[-1.798,62.901],[-1.851,63.072],[-1.907,63.25],[-1.964,63.429],[-2.022,63.607],[-2.08,63.786],[-2.14,63.964],[-2.2,64.143],[-2.261,64.322],[-2.322,64.501],[-2.385,64.68],[-2.449,64.859],[-2.513,65.038],[-2.532,65.22],[-2.55,65.403],[-2.568,65.586],[-2.587,65.768],[-2.607,65.951],[-2.675,66.131],[-2.828,66.306],[-3.017,66.478],[-3.192,66.652],[-3.386,66.824],[-3.549,66.998],[-3.698,67.174],[-3.849,67.349],[-4.054,67.521],[-4.334,67.687],[-4.723,67.846],[-5.225,67.995],[-5.786,68.104],[-6.338,68.185],[-6.872,68.23],[-7.413,68.281],[-7.975,68.355],[-8.564,68.461],[-9.174,68.584],[-9.78,68.691],[-10.383,68.784],[-10.984,68.867],[-11.585,68.942],[-12.184,69.008],[-12.775,69.058],[-13.368,69.107],[-13.965,69.153],[-14.557,69.191],[-15.144,69.221],[-15.726,69.241],[-16.323,69.273],[-16.938,69.314],[-17.578,69.372],[-18.246,69.447],[-18.9,69.536],[-19.5,69.595],[-20.043,69.61],[-20.568,69.579],[-21.091,69.532],[-21.621,69.489],[-22.157,69.451],[-22.729,69.434],[-23.31,69.422],[-23.909,69.419],[-24.479,69.396],[-25.006,69.348],[-25.471,69.264],[-25.881,69.149],[-26.286,69.034],[-26.687,68.917],[-27.114,68.817],[-27.537,68.716],[-27.966,68.619],[-28.413,68.532],[-28.866,68.449],[-29.327,68.371],[-29.784,68.291],[-30.259,68.221],[-30.731,68.15],[-31.222,68.088],[-31.722,68.029],[-32.241,67.98],[-32.735,67.918],[-33.158,67.824],[-33.52,67.702],[-33.854,67.569],[-34.208,67.446],[-34.569,67.327],[-34.961,67.222],[-35.349,67.117],[-35.734,67.01],[-36.08,66.888],[-36.387,66.749],[-36.656,66.596],[-36.876,66.422],[-37.08,66.243],[-37.282,66.064],[-37.514,65.9],[-37.755,65.74],[-38.003,65.584],[-38.249,65.429],[-38.513,65.291],[-38.82,65.154]]}},{"type":"Feature","properties":{"kind":"warm","line":4,"px_len":182},"geometry":{"type":"LineString","coordinates":[[-4.344,46.301],[-4.146,46.499],[-3.959,46.677],[-3.758,46.844],[-3.547,46.974],[-3.33,47.086],[-3.107,47.179],[-2.886,47.284],[-2.666,47.4],[-2.479,47.543],[-2.323,47.708],[-2.223,47.879],[-2.159,48.053],[-2.122,48.224],[-2.094,48.395],[-2.048,48.568],[-1.982,48.742],[-1.879,48.92],[-1.755,49.1],[-1.631,49.28],[-1.505,49.46],[-1.398,49.638],[-1.289,49.817],[-1.189,49.995],[-1.078,50.173],[-0.975,50.351],[-0.872,50.529],[-0.778,50.706],[-0.672,50.885],[-0.556,51.064],[-0.429,51.243],[-0.29,51.424],[-0.12,51.606],[0.072,51.79],[0.266,51.973],[0.411,52.154],[0.496,52.33],[0.52,52.503],[0.482,52.672],[0.422,52.84],[0.362,53.008],[0.323,53.178],[0.304,53.349],[0.306,53.522],[0.308,53.694],[0.321,53.868],[0.324,54.041],[0.348,54.215],[0.361,54.39],[0.364,54.563],[0.344,54.736],[0.314,54.907],[0.283,55.08],[0.24,55.251],[0.175,55.422],[0.097,55.591],[-0.004,55.76],[-0.117,55.928],[-0.278,56.093],[-0.452,56.257],[-0.608,56.383],[-0.721,56.473]]}},{"type":"Feature","properties":{"kind":"warm","line":5,"px_len":197},"geometry":{"type":"LineString","coordinates":[[-56.944,41.659],[-56.929,41.837],[-56.914,42.003],[-56.895,42.173],[-56.875,42.345],[-56.856,42.516],[-56.829,42.685],[-56.802,42.854],[-56.775,43.024],[-56.755,43.196],[-56.735,43.368],[-56.707,43.538],[-56.665,43.703],[-56.599,43.86],[-56.541,44.019],[-56.475,44.176],[-56.416,44.336],[-56.334,44.488],[-56.267,44.646],[-56.229,44.814],[-56.25,45.005],[-56.311,45.197],[-56.406,45.381],[-56.522,45.553],[-56.651,45.735],[-56.769,45.933],[-56.852,46.139],[-56.917,46.346],[-56.975,46.55],[-57.033,46.754],[-57.108,46.964],[-57.192,47.177],[-57.3,47.398],[-57.411,47.62],[-57.522,47.841],[-57.647,48.047],[-57.773,48.252],[-57.9,48.458],[-58.0,48.675],[-58.067,48.881],[-58.11,49.08],[-58.17,49.284],[-58.281,49.477],[-58.441,49.65],[-58.638,49.772],[-58.858,49.865],[-59.082,49.953],[-59.303,50.045],[-59.518,50.149],[-59.742,50.24],[-59.963,50.337],[-60.185,50.433],[-60.4,50.541],[-60.613,50.653],[-60.823,50.771],[-61.035,50.889],[-61.252,51.0],[-61.47,51.111],[-61.693,51.215],[-61.918,51.319],[-62.151,51.411],[-62.393,51.491],[-62.651,51.547],[-62.92,51.584],[-63.201,51.603],[-63.424,51.608],[-63.591,51.6]]}},{"type":"Feature","properties":{"kind":"cold","line":5,"px_len":97},"geometry":{"type":"LineString","coordinates":[[-63.591,51.6],[-63.882,51.619],[-64.164,51.615],[-64.462,51.6],[-64.769,51.567],[-65.076,51.533],[-65.386,51.491],[-65.692,51.455],[-65.997,51.418],[-66.302,51.379],[-66.606,51.34],[-66.912,51.294],[-67.217,51.246],[-67.524,51.192],[-67.833,51.131],[-68.147,51.056],[-68.438,50.958],[-68.723,50.845],[-68.99,50.721],[-69.264,50.651],[-69.527,50.629],[-69.795,50.646],[-70.065,50.656],[-70.335,50.665],[-70.61,50.662],[-70.889,50.645],[-71.177,50.603],[-71.461,50.566],[-71.746,50.529],[-72.027,50.496],[-72.308,50.463],[-72.573,50.446],[-72.846,50.467]]}}]}