{"type":"FeatureCollection","properties":{"chart":"fc","src":"Z__C_EDZW_20261004034244_nwv01,ico_tkb_na_N_000036_000000_202610040000_WV12.png","valid_time":"2026-10-05T12:00:00+00:00"},"features":[{"type":"Feature","properties":{"kind":"cold","line":0,"px_len":253},"geometry":{"type":"LineString","coordinates":[[-44.478,44.825],[-44.269,44.92],[-44.056,44.998],[-43.83,45.077],[-43.604,45.155],[-43.376,45.232],[-43.141,45.305],[-42.912,45.381],[-42.682,45.456],[-42.445,45.527],[-42.213,45.601],[-41.961,45.663],[-41.702,45.719],[-41.416,45.759],[-41.118,45.789],[-40.806,45.81],[-40.531,45.855],[-40.307,45.932],[-40.119,46.034],[-39.937,46.139],[-39.754,46.245],[-39.564,46.345],[-39.36,46.437],[-39.149,46.524],[-38.93,46.607],[-38.698,46.68],[-38.459,46.748],[-38.22,46.816],[-37.979,46.883],[-37.732,46.944],[-37.483,47.006],[-37.24,47.07],[-36.99,47.13],[-36.746,47.194],[-36.488,47.248],[-36.218,47.292],[-35.934,47.326],[-35.627,47.341],[-35.307,47.345],[-34.999,47.358],[-34.744,47.411],[-34.523,47.492],[-34.32,47.585],[-34.115,47.678],[-33.921,47.781],[-33.715,47.873],[-33.49,47.951],[-33.264,48.028],[-33.037,48.105],[-32.809,48.181],[-32.569,48.247],[-32.334,48.317],[-32.103,48.391],[-31.877,48.47],[-31.651,48.548],[-31.423,48.625],[-31.201,48.707],[-30.982,48.793],[-30.758,48.874],[-30.538,48.959],[-30.317,49.044],[-30.111,49.143],[-29.905,49.242],[-29.698,49.34],[-29.489,49.438],[-29.269,49.525],[-29.041,49.607],[-28.802,49.678],[-28.556,49.743],[-28.31,49.808],[-28.101,49.908],[-27.923,50.038],[-27.776,50.2],[-27.617,50.35],[-27.452,50.496],[-27.274,50.631],[-27.084,50.755],[-26.893,50.879],[-26.69,50.992],[-26.491,51.109],[-26.285,51.222],[-26.083,51.339],[-25.88,51.456],[-25.685,51.569],[-25.465,51.683]]}},{"type":"Feature","properties":{"kind":"warm","line":0,"px_len":82},"geometry":{"type":"LineString","coordinates":[[-25.465,51.683],[-25.254,51.807],[-25.06,51.925],[-24.84,52.029],[-24.634,52.149],[-24.411,52.252],[-24.202,52.371],[-23.992,52.49],[-23.801,52.63],[-23.609,52.77],[-23.415,52.91],[-23.23,53.06],[-23.044,53.21],[-22.84,53.344],[-22.593,53.432],[-22.315,53.486],[-22.02,53.523],[-21.72,53.553],[-21.425,53.588],[-21.138,53.634],[-20.856,53.684],[-20.583,53.745],[-20.313,53.81],[-20.038,53.87],[-19.761,53.928],[-19.484,53.986],[-19.215,54.04],[-18.913,54.082]]}},{"type":"Feature","properties":{"kind":"cold","line":0,"px_len":334},"geometry":{"type":"LineString","coordinates":[[-18.913,54.082],[-18.627,54.146],[-18.356,54.197],[-18.065,54.24],[-17.778,54.287],[-17.486,54.327],[-17.197,54.373],[-16.899,54.405],[-16.596,54.432],[-16.284,54.445],[-15.968,54.451],[-15.64,54.439],[-15.307,54.42],[-14.987,54.417],[-14.703,54.467],[-14.433,54.54],[-14.169,54.624],[-13.9,54.702],[-13.627,54.773],[-13.341,54.825],[-13.046,54.865],[-12.755,54.909],[-12.47,54.965],[-12.184,55.02],[-11.897,55.074],[-11.609,55.127],[-11.32,55.18],[-11.031,55.232],[-10.743,55.289],[-10.462,55.357],[-10.179,55.425],[-9.891,55.486],[-9.606,55.552],[-9.319,55.618],[-9.032,55.682],[-8.734,55.727],[-8.436,55.772],[-8.136,55.815],[-7.836,55.858],[-7.533,55.893],[-7.226,55.922],[-6.931,55.98],[-6.651,56.076],[-6.385,56.209],[-6.118,56.347],[-5.845,56.472],[-5.564,56.584],[-5.275,56.676],[-4.984,56.768],[-4.691,56.858],[-4.396,56.948],[-4.1,57.037],[-3.802,57.125],[-3.504,57.219],[-3.205,57.312],[-2.903,57.404],[-2.602,57.502],[-2.299,57.599],[-1.996,57.702],[-1.691,57.804],[-1.383,57.905],[-1.072,57.998],[-0.756,58.078],[-0.439,58.157],[-0.118,58.229],[0.204,58.3],[0.53,58.356],[0.857,58.412],[1.185,58.467],[1.494,58.573],[1.761,58.721],[2.0,58.908],[2.256,59.081],[2.555,59.242],[2.886,59.384],[3.219,59.524],[3.557,59.657],[3.897,59.79],[4.241,59.921],[4.587,60.058],[4.937,60.201],[5.29,60.342],[5.646,60.483],[6.007,60.616],[6.37,60.728],[6.736,60.819],[7.103,60.883],[7.472,60.939],[7.843,60.994],[8.176,61.088],[8.461,61.221],[8.696,61.389],[8.92,61.563],[9.204,61.735],[9.547,61.905],[9.951,62.073],[10.361,62.239],[10.746,62.406],[11.108,62.572],[11.446,62.738],[11.773,62.905],[12.061,63.072],[12.352,63.24],[12.647,63.406],[12.976,63.571],[13.309,63.734],[13.646,63.897],[14.003,64.058],[14.379,64.218],[14.802,64.36],[15.24,64.487],[15.732,64.615]]}},{"type":"Feature","properties":{"kind":"warm","line":0,"px_len":144},"geometry":{"type":"LineString","coordinates":[[15.732,64.615],[16.166,64.59],[16.554,64.533],[16.95,64.46],[17.326,64.347],[17.665,64.195],[17.921,64.008],[18.09,63.808],[18.183,63.615],[18.245,63.424],[18.307,63.234],[18.382,63.043],[18.47,62.85],[18.57,62.656],[18.67,62.462],[18.796,62.266],[18.92,62.069],[19.097,61.866],[19.257,61.665],[19.416,61.464],[19.492,61.272],[19.5,61.088],[19.402,60.916],[19.28,60.747],[19.132,60.581],[19.013,60.412],[18.894,60.243],[18.803,60.071],[18.726,59.898],[18.65,59.725],[18.575,59.552],[18.525,59.376],[18.489,59.199],[18.466,59.021],[18.443,58.842],[18.432,58.663],[18.446,58.481],[18.472,58.298],[18.486,58.116],[18.463,57.939],[18.346,57.773],[18.17,57.613],[17.89,57.466],[17.577,57.321],[17.243,57.179],[16.948,57.031],[16.691,56.88],[16.488,56.742],[16.34,56.619]]}},{"type":"Feature","properties":{"kind":"occl","line":1,"px_len":115},"geometry":{"type":"LineString","coordinates":[[15.545,64.873],[15.35,65.077],[15.163,65.267],[15.023,65.459],[14.913,65.65],[14.851,65.838],[14.787,66.026],[14.722,66.214],[14.639,66.403],[14.606,66.59],[14.622,66.773],[14.64,66.957],[14.64,67.141],[14.605,67.328],[14.587,67.514],[14.569,67.7],[14.533,67.887],[14.514,68.074],[14.363,68.253],[14.096,68.432],[13.677,68.617],[13.237,68.816],[12.828,69.019],[12.487,69.218],[12.197,69.414],[11.863,69.611],[11.436,69.783],[10.933,69.921],[10.411,69.997],[9.88,70.051],[9.343,70.082],[8.805,70.112],[8.265,70.14],[7.724,70.173],[7.182,70.218],[6.638,70.268],[6.09,70.33],[5.559,70.404],[4.982,70.504]]}},{"type":"Feature","properties":{"kind":"warm","line":2,"px_len":189},"geometry":{"type":"LineString","coordinates":[[-57.416,41.07],[-57.6,41.158],[-57.771,41.241],[-57.95,41.326],[-58.139,41.394],[-58.329,41.463],[-58.51,41.546],[-58.692,41.63],[-58.864,41.728],[-59.04,41.822],[-59.201,41.941],[-59.362,42.061],[-59.521,42.185],[-59.691,42.293],[-59.872,42.385],[-60.072,42.444],[-60.289,42.475],[-60.516,42.49],[-60.734,42.52],[-60.952,42.55],[-61.161,42.595],[-61.38,42.623],[-61.589,42.668],[-61.8,42.711],[-62.001,42.771],[-62.204,42.83],[-62.403,42.894],[-62.598,42.968],[-62.791,43.048],[-62.981,43.133],[-63.169,43.223],[-63.352,43.324],[-63.534,43.43],[-63.716,43.535],[-63.908,43.624],[-64.117,43.678],[-64.34,43.704],[-64.572,43.712],[-64.806,43.714],[-65.043,43.71],[-65.278,43.711],[-65.505,43.727],[-65.729,43.749],[-65.951,43.776],[-66.171,43.808],[-66.391,43.84],[-66.612,43.871],[-66.833,43.901],[-67.052,43.936],[-67.273,43.965],[-67.495,43.993],[-67.715,44.027],[-67.931,44.071],[-68.147,44.115],[-68.359,44.17],[-68.569,44.23],[-68.785,44.278],[-69.016,44.285],[-69.262,44.25],[-69.519,44.18],[-69.782,44.092],[-70.04,44.015],[-70.257,43.979],[-70.434,43.985]]}},{"type":"Feature","properties":{"kind":"occl","line":3,"px_len":214},"geometry":{"type":"LineString","coordinates":[[63.307,52.684],[63.525,52.806],[63.715,52.932],[63.884,53.08],[63.976,53.242],[63.971,53.413],[63.88,53.581],[63.771,53.744],[63.678,53.913],[63.675,54.093],[63.766,54.27],[63.928,54.444],[64.098,54.611],[64.251,54.795],[64.383,55.001],[64.511,55.212],[64.634,55.428],[64.783,55.623],[64.945,55.807],[65.133,55.968],[65.347,56.108],[65.574,56.235],[65.827,56.341],[66.07,56.456],[66.326,56.56],[66.584,56.664],[66.861,56.75],[67.128,56.846],[67.391,56.948],[67.655,57.049],[67.933,57.138],[68.206,57.232],[68.476,57.331],[68.747,57.429],[69.031,57.515],[69.317,57.601],[69.594,57.697],[69.856,57.81],[70.109,57.935],[70.364,58.058],[70.632,58.17],[70.907,58.275],[71.195,58.367],[71.5,58.441],[71.816,58.503],[72.135,58.563],[72.454,58.623],[72.78,58.675],[73.121,58.709],[73.469,58.735],[73.831,58.743],[74.198,58.743],[74.574,58.729],[74.955,58.709],[75.34,58.681],[75.715,58.664],[76.072,58.67],[76.412,58.699],[76.753,58.728],[77.107,58.736],[77.482,58.713],[77.864,58.676],[78.252,58.626],[78.624,58.599],[78.977,58.602],[79.308,58.641],[79.633,58.692],[79.959,58.741],[80.296,58.771],[80.638,58.794],[80.974,58.801],[81.332,58.817]]}},{"type":"Feature","properties":{"kind":"occl","line":4,"px_len":553},"geometry":{"type":"LineString","coordinates":[[39.829,48.68],[39.975,48.823],[40.111,48.957],[40.253,49.095],[40.397,49.233],[40.533,49.375],[40.671,49.517],[40.817,49.655],[40.989,49.782],[41.177,49.902],[41.374,50.018],[41.581,50.13],[41.749,50.26],[41.887,50.404],[41.994,50.562],[42.126,50.71],[42.251,50.861],[42.385,51.009],[42.52,51.156],[42.656,51.304],[42.793,51.451],[42.899,51.613],[42.998,51.78],[43.04,51.972],[43.03,52.174],[42.972,52.39],[42.913,52.606],[42.891,52.821],[42.892,53.033],[42.91,53.239],[42.928,53.445],[42.964,53.643],[42.991,53.845],[43.028,54.044],[43.065,54.243],[43.12,54.435],[43.202,54.615],[43.311,54.783],[43.43,54.948],[43.551,55.113],[43.615,55.287],[43.618,55.48],[43.558,55.7],[43.492,55.939],[43.433,56.182],[43.4,56.415],[43.386,56.64],[43.382,56.861],[43.334,57.084],[43.23,57.289],[43.071,57.467],[42.875,57.619],[42.676,57.77],[42.49,57.932],[42.317,58.104],[42.163,58.292],[42.03,58.496],[41.916,58.715],[41.816,58.946],[41.722,59.182],[41.641,59.428],[41.569,59.671],[41.528,59.903],[41.529,60.121],[41.563,60.326],[41.641,60.517],[41.765,60.693],[41.911,60.86],[42.06,61.028],[42.199,61.2],[42.306,61.383],[42.37,61.582],[42.39,61.797],[42.444,62.0],[42.522,62.195],[42.647,62.375],[42.763,62.559],[42.892,62.739],[42.963,62.939],[42.977,63.159],[42.911,63.397],[42.801,63.633],[42.701,63.866],[42.646,64.092],[42.633,64.32],[42.657,64.538],[42.694,64.751],[42.77,64.953],[42.848,65.154],[42.94,65.352],[43.033,65.55],[43.154,65.74],[43.29,65.925],[43.442,66.107],[43.595,66.289],[43.738,66.474],[43.87,66.664],[43.95,66.871],[43.92,67.077],[43.702,67.244],[43.347,67.366],[42.913,67.449],[42.497,67.541],[42.088,67.638],[41.696,67.745],[41.301,67.851],[40.891,67.95],[40.457,68.037],[40.009,68.117],[39.533,68.169],[39.062,68.162],[38.637,68.078],[38.268,67.948],[37.965,67.804],[37.681,67.655],[37.432,67.498],[37.155,67.349],[36.883,67.199],[36.629,67.045],[36.423,66.88],[36.22,66.716],[36.035,66.547],[35.853,66.379],[35.702,66.204],[35.553,66.029],[35.422,65.85],[35.32,65.665],[35.235,65.477],[35.165,65.286],[35.11,65.091],[35.055,64.897],[35.002,64.702],[34.909,64.518],[34.762,64.346],[34.564,64.187],[34.341,64.034],[34.134,63.878],[33.943,63.719],[33.755,63.559],[33.569,63.399],[33.385,63.239],[33.203,63.079],[32.998,62.924],[32.756,62.779],[32.465,62.644],[32.163,62.512],[31.878,62.377],[31.634,62.232],[31.432,62.079],[31.231,61.925],[31.033,61.771],[30.837,61.617],[30.669,61.457],[30.477,61.303],[30.288,61.148],[30.1,60.993],[29.915,60.838],[29.732,60.683],[29.538,60.53],[29.359,60.375],[29.218,60.211],[29.092,60.045],[28.99,59.874],[28.89,59.703],[28.827,59.524],[28.765,59.345],[28.656,59.177],[28.454,59.029],[28.196,58.892],[27.928,58.757],[27.698,58.615],[27.494,58.468],[27.291,58.32],[27.102,58.17],[26.949,58.012],[26.752,57.864],[26.5,57.727],[26.147,57.609],[25.809,57.488],[25.473,57.366],[25.196,57.232],[24.934,57.096],[24.707,56.953],[24.509,56.812],[24.327,56.654]]}},{"type":"Feature","properties":{"kind":"occl","line":5,"px_len":192},"geometry":{"type":"LineString","coordinates":[[38.985,68.431],[38.758,68.654],[38.636,68.876],[38.557,69.112],[38.543,69.333],[38.478,69.565],[38.347,69.787],[38.146,70.024],[37.956,70.257],[37.829,70.501],[37.752,70.733],[37.708,70.959],[37.682,71.181],[37.655,71.404],[37.628,71.626],[37.618,71.845],[37.647,72.057],[37.734,72.259],[37.861,72.453],[38.031,72.64],[38.113,72.836],[38.015,73.024],[37.734,73.22],[37.418,73.429],[37.156,73.667],[36.925,73.923],[36.73,74.171],[36.551,74.416],[36.327,74.643],[35.97,74.841],[35.503,75.006],[34.946,75.133],[34.367,75.252],[33.753,75.358],[33.131,75.462],[32.487,75.559],[31.846,75.659],[31.208,75.764],[30.572,75.874],[29.915,75.976],[29.26,76.082],[28.572,76.174],[27.865,76.257],[27.127,76.325],[26.413,76.41],[25.681,76.487],[24.901,76.535],[24.033,76.522],[23.151,76.492],[22.28,76.465],[21.444,76.462],[20.602,76.45],[19.768,76.441],[18.909,76.402],[18.049,76.354],[17.157,76.255],[16.319,76.13],[15.592,75.97],[15.049,75.801],[14.629,75.628],[14.274,75.451],[13.847,75.277],[13.349,75.105],[12.793,74.955],[12.256,74.824]]}},{"type":"Feature","properties":{"kind":"occl","line":6,"px_len":164},"geometry":{"type":"LineString","coordinates":[[44.35,67.367],[44.781,67.478],[45.139,67.594],[45.512,67.715],[45.876,67.839],[46.229,67.967],[46.56,68.102],[46.88,68.242],[47.177,68.39],[47.45,68.546],[47.685,68.715],[47.91,68.889],[48.096,69.076],[48.285,69.263],[48.493,69.445],[48.733,69.618],[49.006,69.781],[49.313,69.935],[49.668,70.074],[50.043,70.207],[50.424,70.34],[50.809,70.472],[51.2,70.603],[51.596,70.733],[51.998,70.863],[52.361,71.006],[52.716,71.153],[53.032,71.315],[53.354,71.477],[53.653,71.648],[54.016,71.798],[54.488,71.912],[55.055,71.994],[55.67,72.058],[56.275,72.125],[56.885,72.191],[57.457,72.27],[58.006,72.359],[58.547,72.451],[59.093,72.542],[59.705,72.585],[60.381,72.588],[61.137,72.554],[61.902,72.537],[62.659,72.533],[63.39,72.536],[64.11,72.543],[64.794,72.565],[65.456,72.596],[66.098,72.637],[66.742,72.675],[67.379,72.718],[67.996,72.77],[68.606,72.827],[69.074,72.875],[69.408,72.909]]}}]}