{"type":"FeatureCollection","properties":{"chart":"fc","src":"Z__C_EDZW_20261008044327_nwv01,ico_tkb_na_N_000048_000000_202610080000_WV12.png","valid_time":"2026-10-10T00:00:00+00:00"},"features":[{"type":"Feature","properties":{"kind":"cold","line":0,"px_len":239},"geometry":{"type":"LineString","coordinates":[[5.314,34.813],[5.503,34.843],[5.678,34.872],[5.86,34.896],[6.042,34.918],[6.224,34.941],[6.407,34.963],[6.59,34.99],[6.773,35.011],[6.956,35.036],[7.139,35.051],[7.322,35.059],[7.505,35.067],[7.689,35.08],[7.872,35.093],[8.056,35.099],[8.241,35.144],[8.429,35.238],[8.619,35.36],[8.81,35.476],[9.0,35.574],[9.191,35.661],[9.382,35.737],[9.574,35.817],[9.767,35.909],[9.962,36.011],[10.158,36.112],[10.355,36.224],[10.555,36.347],[10.736,36.482],[10.919,36.623],[11.081,36.764],[11.252,36.905],[11.403,37.047],[11.554,37.189],[11.693,37.332],[11.832,37.475],[11.958,37.619],[12.092,37.762],[12.219,37.906],[12.348,38.05],[12.462,38.194],[12.578,38.339],[12.687,38.485],[12.796,38.631],[12.907,38.776],[13.018,38.922],[13.13,39.067],[13.228,39.214],[13.326,39.361],[13.418,39.509],[13.51,39.657],[13.603,39.805],[13.712,39.952],[13.829,40.097],[13.961,40.242],[14.095,40.386],[14.222,40.531],[14.311,40.68],[14.348,40.834],[14.355,40.993],[14.361,41.151],[14.391,41.307],[14.445,41.461],[14.498,41.615],[14.552,41.769],[14.607,41.924],[14.685,42.075],[14.764,42.227],[14.843,42.379],[14.923,42.532],[15.012,42.683],[15.109,42.833],[15.207,42.984],[15.314,43.134],[15.429,43.282],[15.553,43.43],[15.679,43.578],[15.821,43.724],[15.94,43.836],[16.042,43.914]]}},{"type":"Feature","properties":{"kind":"occl","line":1,"px_len":83},"geometry":{"type":"LineString","coordinates":[[30.343,60.096],[30.833,60.188],[31.274,60.253],[31.711,60.296],[32.127,60.314],[32.525,60.312],[32.911,60.313],[33.251,60.353],[33.569,60.442],[33.866,60.567],[34.226,60.675],[34.612,60.776],[35.06,60.859],[35.523,60.938],[36.0,61.012],[36.421,61.1],[36.75,61.214],[36.999,61.35],[37.226,61.494],[37.456,61.636],[37.724,61.768],[37.983,61.903],[38.268,62.031],[38.568,62.154],[38.919,62.262],[39.297,62.362],[39.713,62.45],[40.048,62.515],[40.301,62.556]]}},{"type":"Feature","properties":{"kind":"cold","line":2,"px_len":247},"geometry":{"type":"LineString","coordinates":[[-52.505,37.258],[-52.336,37.315],[-52.198,37.408],[-52.067,37.523],[-51.928,37.635],[-51.783,37.744],[-51.631,37.85],[-51.479,37.956],[-51.319,38.058],[-51.147,38.154],[-50.962,38.243],[-50.77,38.329],[-50.589,38.421],[-50.438,38.528],[-50.317,38.65],[-50.226,38.789],[-50.134,38.927],[-50.036,39.062],[-49.925,39.191],[-49.813,39.32],[-49.7,39.449],[-49.581,39.574],[-49.448,39.693],[-49.315,39.812],[-49.187,39.934],[-49.059,40.056],[-48.923,40.175],[-48.787,40.293],[-48.663,40.418],[-48.544,40.546],[-48.412,40.667],[-48.273,40.785],[-48.133,40.903],[-48.005,41.027],[-47.882,41.155],[-47.759,41.283],[-47.635,41.411],[-47.511,41.538],[-47.385,41.666],[-47.259,41.793],[-47.132,41.92],[-47.004,42.047],[-46.876,42.175],[-46.747,42.302],[-46.616,42.429],[-46.486,42.555],[-46.373,42.693],[-46.26,42.83],[-46.146,42.968],[-46.012,43.095],[-45.877,43.221],[-45.761,43.358],[-45.644,43.496],[-45.526,43.633],[-45.388,43.759],[-45.25,43.885],[-45.11,44.011],[-44.963,44.133],[-44.802,44.247],[-44.621,44.35],[-44.452,44.46],[-44.32,44.593],[-44.228,44.748],[-44.16,44.919],[-44.079,45.082],[-43.997,45.246],[-43.888,45.394],[-43.779,45.542],[-43.655,45.682],[-43.537,45.827],[-43.412,45.967],[-43.292,46.111],[-43.158,46.247],[-43.037,46.391],[-42.901,46.527],[-42.784,46.675],[-42.647,46.811],[-42.528,46.959],[-42.389,47.095],[-42.269,47.243],[-42.127,47.378],[-41.991,47.509],[-41.821,47.637]]}},{"type":"Feature","properties":{"kind":"warm","line":2,"px_len":261},"geometry":{"type":"LineString","coordinates":[[-41.821,47.637],[-41.617,47.743],[-41.437,47.849],[-41.25,47.959],[-41.062,48.068],[-40.852,48.165],[-40.662,48.274],[-40.477,48.386],[-40.305,48.507],[-40.125,48.623],[-39.943,48.739],[-39.781,48.868],[-39.625,49.001],[-39.461,49.129],[-39.248,49.227],[-38.987,49.293],[-38.671,49.324],[-38.328,49.336],[-37.985,49.347],[-37.655,49.365],[-37.344,49.395],[-37.033,49.425],[-36.741,49.467],[-36.448,49.507],[-36.161,49.552],[-35.86,49.586],[-35.559,49.62],[-35.245,49.643],[-34.93,49.665],[-34.609,49.681],[-34.293,49.701],[-33.971,49.715],[-33.649,49.727],[-33.321,49.734],[-32.986,49.735],[-32.651,49.734],[-32.305,49.723],[-31.97,49.719],[-31.624,49.705],[-31.301,49.709],[-30.985,49.717],[-30.696,49.749],[-30.419,49.789],[-30.147,49.834],[-29.858,49.863],[-29.547,49.862],[-29.232,49.824],[-28.938,49.76],[-28.679,49.673],[-28.453,49.571],[-28.244,49.461],[-28.02,49.358],[-27.782,49.261],[-27.522,49.174],[-27.246,49.093],[-26.949,49.021],[-26.644,48.952],[-26.333,48.885],[-26.023,48.817],[-25.706,48.751],[-25.399,48.681],[-25.076,48.616],[-24.747,48.553],[-24.402,48.495],[-24.059,48.436],[-23.717,48.376],[-23.375,48.314],[-23.035,48.251],[-22.706,48.197],[-22.385,48.153],[-22.083,48.129],[-21.795,48.121],[-21.523,48.133],[-21.26,48.155],[-21.001,48.182],[-20.733,48.198],[-20.444,48.185],[-20.139,48.135],[-19.844,48.054],[-19.579,47.956],[-19.323,47.854],[-19.061,47.755],[-18.778,47.681],[-18.488,47.623],[-18.193,47.586],[-17.899,47.548],[-17.649,47.529],[-17.438,47.525]]}},{"type":"Feature","properties":{"kind":"cold","line":2,"px_len":424},"geometry":{"type":"LineString","coordinates":[[-17.438,47.525],[-17.14,47.492],[-16.87,47.471],[-16.596,47.456],[-16.322,47.441],[-16.048,47.424],[-15.767,47.396],[-15.484,47.361],[-15.198,47.319],[-14.902,47.259],[-14.608,47.198],[-14.333,47.171],[-14.087,47.194],[-13.859,47.251],[-13.631,47.307],[-13.401,47.363],[-13.162,47.401],[-12.92,47.432],[-12.672,47.451],[-12.428,47.481],[-12.182,47.504],[-11.933,47.521],[-11.683,47.538],[-11.433,47.553],[-11.189,47.579],[-10.941,47.599],[-10.696,47.624],[-10.448,47.643],[-10.205,47.672],[-9.956,47.689],[-9.712,47.717],[-9.468,47.744],[-9.224,47.771],[-8.979,47.797],[-8.734,47.822],[-8.495,47.865],[-8.249,47.888],[-8.003,47.912],[-7.756,47.934],[-7.516,47.974],[-7.275,48.013],[-7.034,48.051],[-6.792,48.089],[-6.55,48.125],[-6.307,48.162],[-6.064,48.197],[-5.82,48.232],[-5.576,48.267],[-5.332,48.3],[-5.083,48.321],[-4.833,48.335],[-4.582,48.348],[-4.33,48.355],[-4.078,48.367],[-3.835,48.408],[-3.601,48.485],[-3.374,48.592],[-3.142,48.686],[-2.908,48.774],[-2.67,48.849],[-2.429,48.917],[-2.186,48.978],[-1.942,49.039],[-1.698,49.099],[-1.453,49.158],[-1.207,49.217],[-0.96,49.275],[-0.715,49.345],[-0.467,49.408],[-0.219,49.47],[0.03,49.531],[0.278,49.598],[0.528,49.665],[0.779,49.73],[1.03,49.795],[1.282,49.866],[1.534,49.936],[1.787,50.005],[2.042,50.073],[2.297,50.141],[2.553,50.208],[2.811,50.274],[3.068,50.346],[3.327,50.417],[3.587,50.475],[3.848,50.532],[4.111,50.576],[4.375,50.613],[4.64,50.637],[4.905,50.66],[5.17,50.701],[5.425,50.784],[5.66,50.905],[5.867,51.05],[6.086,51.182],[6.326,51.314],[6.599,51.445],[6.873,51.562],[7.149,51.673],[7.426,51.77],[7.705,51.873],[7.985,51.975],[8.268,52.083],[8.552,52.19],[8.838,52.296],[9.126,52.407],[9.417,52.531],[9.711,52.653],[10.007,52.787],[10.305,52.908],[10.607,53.047],[10.911,53.185],[11.221,53.342],[11.523,53.497],[11.806,53.654],[12.071,53.811],[12.316,53.968],[12.564,54.126],[12.814,54.282],[13.066,54.439],[13.343,54.593],[13.643,54.738],[13.964,54.868],[14.255,55.0],[14.506,55.142],[14.717,55.299],[14.919,55.457],[15.135,55.614],[15.392,55.747],[15.696,55.875],[15.981,56.005],[16.148,56.165],[16.179,56.339],[16.096,56.524],[15.976,56.713],[15.832,56.904],[15.709,57.092],[15.621,57.278],[15.531,57.463],[15.465,57.647],[15.395,57.824],[15.353,58.012]]}},{"type":"Feature","properties":{"kind":"occl","line":2,"px_len":217},"geometry":{"type":"LineString","coordinates":[[15.353,58.012],[15.335,58.199],[15.3,58.373],[15.193,58.561],[14.997,58.755],[14.724,58.955],[14.472,59.153],[14.242,59.348],[14.048,59.541],[13.863,59.732],[13.677,59.924],[13.461,60.117],[13.185,60.293],[12.873,60.444],[12.532,60.543],[12.184,60.614],[11.831,60.672],[11.479,60.741],[11.125,60.809],[10.771,60.883],[10.418,60.983],[10.067,61.107],[9.717,61.264],[9.362,61.413],[9.004,61.561],[8.639,61.682],[8.27,61.788],[7.897,61.88],[7.52,61.957],[7.143,62.047],[6.762,62.142],[6.394,62.276],[6.065,62.429],[5.775,62.608],[5.554,62.787],[5.344,62.965],[5.146,63.144],[4.901,63.322],[4.623,63.499],[4.296,63.675],[3.964,63.85],[3.703,64.026],[3.532,64.203],[3.419,64.382],[3.274,64.56],[3.096,64.737],[2.851,64.913],[2.555,65.087],[2.175,65.258],[1.757,65.427],[1.333,65.595],[0.903,65.762],[0.484,65.928],[0.091,66.095],[-0.257,66.262],[-0.593,66.43],[-0.994,66.567],[-1.436,66.66],[-1.918,66.709],[-2.395,66.736],[-2.876,66.768],[-3.363,66.812],[-3.862,66.874],[-4.366,66.941],[-4.874,67.006],[-5.373,67.05],[-5.853,67.052],[-6.303,67.0],[-6.732,66.914],[-7.149,66.813],[-7.559,66.705],[-7.943,66.59],[-8.353,66.465]]}},{"type":"Feature","properties":{"kind":"warm","line":3,"px_len":101},"geometry":{"type":"LineString","coordinates":[[17.931,50.093],[18.044,50.256],[18.154,50.407],[18.276,50.563],[18.428,50.715],[18.582,50.866],[18.727,51.019],[18.863,51.173],[18.962,51.333],[19.003,51.501],[18.964,51.68],[18.906,51.862],[18.837,52.046],[18.787,52.227],[18.737,52.409],[18.706,52.588],[18.686,52.765],[18.675,52.942],[18.665,53.118],[18.654,53.295],[18.633,53.474],[18.601,53.654],[18.569,53.834],[18.536,54.014],[18.482,54.197],[18.384,54.386],[18.253,54.579],[18.077,54.777],[17.872,54.965],[17.625,55.138],[17.374,55.304],[17.124,55.482],[16.878,55.679],[16.686,55.836],[16.547,55.949]]}},{"type":"Feature","properties":{"kind":"warm","line":4,"px_len":110},"geometry":{"type":"LineString","coordinates":[[16.59,44.281],[16.809,44.404],[17.033,44.508],[17.289,44.6],[17.549,44.698],[17.806,44.784],[18.062,44.863],[18.318,44.935],[18.571,44.994],[18.827,45.059],[19.083,45.123],[19.346,45.204],[19.588,45.293],[19.836,45.4],[20.085,45.507],[20.355,45.59],[20.613,45.638],[20.856,45.643],[21.088,45.619],[21.313,45.577],[21.543,45.546],[21.774,45.52],[22.005,45.493],[22.233,45.46],[22.463,45.432],[22.703,45.427],[22.947,45.432],[23.194,45.443],[23.439,45.447],[23.684,45.45],[23.928,45.453],[24.176,45.46],[24.423,45.467],[24.671,45.473],[24.919,45.478],[25.169,45.488],[25.368,45.504],[25.513,45.52]]}},{"type":"Feature","properties":{"kind":"cold","line":4,"px_len":439},"geometry":{"type":"LineString","coordinates":[[25.513,45.52],[25.763,45.509],[26.003,45.513],[26.257,45.525],[26.514,45.543],[26.771,45.559],[27.032,45.581],[27.289,45.596],[27.55,45.616],[27.812,45.635],[28.077,45.658],[28.345,45.687],[28.617,45.72],[28.893,45.758],[29.162,45.784],[29.425,45.798],[29.678,45.794],[29.927,45.784],[30.17,45.762],[30.403,45.742],[30.619,45.767],[30.813,45.845],[30.998,45.966],[31.185,46.086],[31.404,46.196],[31.664,46.292],[31.941,46.382],[32.235,46.466],[32.53,46.549],[32.827,46.631],[33.125,46.712],[33.4,46.8],[33.693,46.881],[33.97,46.968],[34.249,47.053],[34.522,47.141],[34.787,47.231],[35.054,47.32],[35.307,47.414],[35.56,47.507],[35.799,47.606],[36.055,47.698],[36.289,47.798],[36.532,47.895],[36.752,48.001],[36.989,48.099],[37.219,48.201],[37.443,48.305],[37.66,48.412],[37.879,48.518],[38.098,48.623],[38.311,48.732],[38.517,48.843],[38.717,48.958],[38.918,49.072],[39.127,49.182],[39.347,49.288],[39.575,49.391],[39.812,49.489],[40.067,49.58],[40.323,49.671],[40.54,49.778],[40.711,49.906],[40.851,50.047],[40.977,50.196],[41.103,50.345],[41.255,50.483],[41.423,50.614],[41.601,50.741],[41.772,50.871],[41.953,50.997],[42.159,51.112],[42.35,51.234],[42.559,51.348],[42.745,51.474],[42.956,51.587],[43.144,51.712],[43.35,51.828],[43.541,51.952],[43.733,52.076],[43.927,52.199],[44.122,52.322],[44.319,52.444],[44.5,52.575],[44.675,52.708],[44.851,52.842],[45.045,52.967],[45.248,53.088],[45.453,53.209],[45.643,53.338],[45.826,53.47],[46.002,53.606],[46.163,53.75],[46.326,53.894],[46.498,54.034],[46.689,54.165],[46.88,54.296],[47.049,54.439],[47.227,54.577],[47.423,54.707],[47.646,54.824],[47.862,54.945],[48.063,55.074],[48.24,55.216],[48.361,55.388],[48.424,55.59],[48.47,55.8],[48.526,56.007],[48.608,56.201],[48.709,56.386],[48.819,56.567],[48.922,56.752],[49.008,56.946],[49.096,57.141],[49.194,57.331],[49.284,57.525],[49.366,57.724],[49.432,57.933],[49.498,58.141],[49.556,58.354],[49.615,58.567],[49.648,58.794],[49.662,59.03],[49.649,59.28],[49.636,59.53],[49.604,59.771],[49.554,60.003],[49.467,60.216],[49.351,60.414],[49.215,60.603],[49.059,60.782],[48.891,60.956],[48.703,61.121],[48.504,61.28],[48.283,61.43],[48.051,61.574],[47.808,61.712],[47.58,61.861],[47.349,62.009],[47.135,62.166],[46.919,62.324],[46.681,62.471],[46.44,62.618],[46.197,62.764],[45.96,62.915],[45.722,63.056],[45.45,63.2]]}},{"type":"Feature","properties":{"kind":"warm","line":4,"px_len":115},"geometry":{"type":"LineString","coordinates":[[45.45,63.2],[45.345,63.385],[45.36,63.552],[45.514,63.72],[45.774,63.859],[46.13,63.964],[46.547,64.046],[46.99,64.118],[47.413,64.197],[47.827,64.28],[48.232,64.365],[48.662,64.441],[49.13,64.501],[49.622,64.55],[50.139,64.589],[50.669,64.62],[51.2,64.65],[51.743,64.672],[52.309,64.683],[52.897,64.682],[53.495,64.673],[54.082,64.657],[54.644,64.629],[55.204,64.599],[55.776,64.571],[56.369,64.55],[56.932,64.541],[57.466,64.545],[57.999,64.548],[58.561,64.532],[59.101,64.482],[59.576,64.409],[59.937,64.3],[60.269,64.181],[60.548,64.046],[60.837,63.915],[61.11,63.779],[61.397,63.656],[61.747,63.536]]}},{"type":"Feature","properties":{"kind":"cold","line":5,"px_len":224},"geometry":{"type":"LineString","coordinates":[[-61.474,40.787],[-61.356,40.927],[-61.244,41.056],[-61.12,41.188],[-60.982,41.316],[-60.821,41.436],[-60.645,41.552],[-60.453,41.662],[-60.268,41.775],[-60.132,41.904],[-60.039,42.047],[-59.974,42.199],[-59.894,42.347],[-59.807,42.493],[-59.719,42.639],[-59.63,42.784],[-59.526,42.925],[-59.413,43.064],[-59.286,43.197],[-59.164,43.333],[-59.042,43.469],[-58.92,43.605],[-58.803,43.743],[-58.672,43.876],[-58.554,44.014],[-58.42,44.147],[-58.301,44.285],[-58.173,44.421],[-58.045,44.556],[-57.923,44.694],[-57.792,44.829],[-57.669,44.967],[-57.545,45.105],[-57.427,45.245],[-57.301,45.383],[-57.174,45.521],[-57.054,45.661],[-56.925,45.798],[-56.796,45.936],[-56.665,46.073],[-56.557,46.219],[-56.433,46.359],[-56.3,46.496],[-56.166,46.633],[-56.047,46.776],[-55.934,46.921],[-55.814,47.064],[-55.676,47.201],[-55.537,47.337],[-55.405,47.477],[-55.265,47.614],[-55.107,47.744],[-54.924,47.866],[-54.757,47.993],[-54.612,48.129],[-54.522,48.286],[-54.473,48.458],[-54.439,48.636],[-54.372,48.802],[-54.296,48.966],[-54.195,49.12],[-54.118,49.284],[-54.015,49.438],[-53.92,49.596],[-53.816,49.75],[-53.719,49.908],[-53.63,50.069],[-53.531,50.227],[-53.44,50.388],[-53.34,50.546],[-53.248,50.707],[-53.154,50.868],[-53.06,51.029],[-52.965,51.191],[-52.892,51.317],[-52.849,51.41]]}},{"type":"Feature","properties":{"kind":"occl","line":5,"px_len":186},"geometry":{"type":"LineString","coordinates":[[-52.849,51.41],[-52.738,51.574],[-52.636,51.727],[-52.538,51.888],[-52.438,52.05],[-52.346,52.215],[-52.253,52.38],[-52.159,52.545],[-52.056,52.707],[-51.961,52.872],[-51.864,53.037],[-51.74,53.193],[-51.614,53.348],[-51.47,53.496],[-51.342,53.651],[-51.186,53.796],[-51.065,53.955],[-50.979,54.127],[-50.929,54.313],[-50.87,54.496],[-50.791,54.672],[-50.711,54.849],[-50.612,55.018],[-50.521,55.191],[-50.43,55.364],[-50.375,55.551],[-50.367,55.756],[-50.42,55.969],[-50.525,56.185],[-50.653,56.393],[-50.761,56.61],[-50.838,56.83],[-50.883,57.054],[-50.909,57.271],[-50.944,57.492],[-51.008,57.715],[-51.116,57.938],[-51.25,58.154],[-51.4,58.358],[-51.564,58.552],[-51.744,58.734],[-51.933,58.91],[-52.124,59.087],[-52.318,59.263],[-52.507,59.445],[-52.712,59.615],[-52.933,59.774],[-53.209,59.887],[-53.508,59.983],[-53.829,60.06],[-54.138,60.149],[-54.449,60.236],[-54.762,60.323],[-55.083,60.403],[-55.419,60.471],[-55.756,60.537],[-56.101,60.597],[-56.473,60.633],[-56.881,60.632],[-57.296,60.594],[-57.667,60.522],[-57.976,60.435],[-58.242,60.345]]}}]}