{"type":"FeatureCollection","properties":{"chart":"fc","src":"Z__C_EDZW_20261010055137_nwv01,ico_tkb_na_N_000108_000000_202610100000_WV12.png","valid_time":"2026-10-14T12:00:00+00:00"},"features":[{"type":"Feature","properties":{"kind":"cold","line":0,"px_len":77},"geometry":{"type":"LineString","coordinates":[[31.075,32.343],[31.203,32.46],[31.326,32.567],[31.435,32.686],[31.544,32.804],[31.637,32.93],[31.73,33.056],[31.805,33.188],[31.882,33.321],[31.958,33.454],[32.029,33.589],[32.089,33.729],[32.149,33.87],[32.222,34.005],[32.318,34.131],[32.415,34.257],[32.468,34.396],[32.449,34.551],[32.37,34.719],[32.272,34.894],[32.176,35.074],[32.079,35.254],[31.979,35.43],[31.872,35.595],[31.767,35.766],[31.687,35.902],[31.635,36.009]]}},{"type":"Feature","properties":{"kind":"cold","line":1,"px_len":101},"geometry":{"type":"LineString","coordinates":[[20.668,54.07],[20.723,54.246],[20.827,54.401],[20.944,54.562],[21.085,54.719],[21.205,54.879],[21.348,55.036],[21.46,55.198],[21.605,55.355],[21.72,55.517],[21.846,55.678],[21.963,55.84],[22.081,56.002],[22.222,56.16],[22.353,56.32],[22.508,56.477],[22.665,56.633],[22.801,56.794],[22.859,56.967],[22.837,57.153],[22.757,57.348],[22.699,57.54],[22.641,57.733],[22.617,57.919],[22.604,58.105],[22.604,58.288],[22.603,58.472],[22.59,58.657],[22.578,58.843],[22.565,59.029],[22.551,59.215],[22.55,59.4],[22.587,59.579],[22.639,59.715],[22.694,59.809]]}},{"type":"Feature","properties":{"kind":"warm","line":2,"px_len":433},"geometry":{"type":"LineString","coordinates":[[31.279,36.703],[31.184,36.912],[31.107,37.103],[31.059,37.289],[31.037,37.465],[31.033,37.635],[31.037,37.803],[31.053,37.966],[31.076,38.127],[31.099,38.288],[31.122,38.45],[31.139,38.614],[31.156,38.778],[31.18,38.94],[31.238,39.091],[31.336,39.226],[31.469,39.35],[31.636,39.461],[31.803,39.571],[31.986,39.677],[32.155,39.787],[32.326,39.896],[32.476,40.014],[32.621,40.133],[32.76,40.255],[32.907,40.374],[33.054,40.493],[33.209,40.61],[33.365,40.726],[33.521,40.841],[33.679,40.957],[33.837,41.072],[33.996,41.187],[34.156,41.302],[34.317,41.417],[34.479,41.531],[34.641,41.646],[34.798,41.762],[34.941,41.885],[35.065,42.015],[35.196,42.143],[35.321,42.273],[35.447,42.404],[35.532,42.551],[35.617,42.699],[35.689,42.853],[35.776,43.0],[35.884,43.14],[36.029,43.264],[36.202,43.376],[36.356,43.497],[36.488,43.627],[36.622,43.757],[36.735,43.896],[36.849,44.034],[36.935,44.185],[37.022,44.336],[37.088,44.496],[37.132,44.666],[37.177,44.836],[37.208,45.012],[37.239,45.189],[37.255,45.372],[37.279,45.552],[37.296,45.735],[37.306,45.922],[37.308,46.112],[37.303,46.305],[37.297,46.499],[37.269,46.703],[37.233,46.909],[37.164,47.116],[37.077,47.314],[36.956,47.499],[36.829,47.678],[36.705,47.863],[36.614,48.062],[36.56,48.268],[36.567,48.458],[36.606,48.636],[36.677,48.802],[36.741,48.971],[36.806,49.139],[36.846,49.318],[36.863,49.506],[36.855,49.704],[36.838,49.905],[36.821,50.107],[36.804,50.309],[36.787,50.511],[36.778,50.71],[36.778,50.906],[36.777,51.103],[36.777,51.3],[36.785,51.493],[36.802,51.684],[36.828,51.872],[36.846,52.063],[36.855,52.258],[36.837,52.462],[36.801,52.674],[36.765,52.885],[36.719,53.1],[36.681,53.312],[36.671,53.515],[36.744,53.688],[36.892,53.836],[37.088,53.968],[37.276,54.102],[37.475,54.233],[37.657,54.37],[37.84,54.507],[37.997,54.654],[38.155,54.801],[38.314,54.947],[38.475,55.094],[38.637,55.24],[38.801,55.386],[38.966,55.532],[39.142,55.674],[39.339,55.809],[39.538,55.944],[39.738,56.079],[39.94,56.213],[40.154,56.343],[40.378,56.47],[40.586,56.603],[40.785,56.739],[40.986,56.876],[41.179,57.015],[41.364,57.159],[41.531,57.309],[41.71,57.456],[41.87,57.61],[42.072,57.748],[42.315,57.871],[42.649,57.959],[43.015,58.034],[43.421,58.092],[43.829,58.149],[44.22,58.212],[44.572,58.289],[44.908,58.374],[45.217,58.461],[45.535,58.562]]}},{"type":"Feature","properties":{"kind":"cold","line":3,"px_len":749},"geometry":{"type":"LineString","coordinates":[[-51.908,36.965],[-51.707,36.925],[-51.518,36.89],[-51.319,36.856],[-51.12,36.854],[-50.933,36.899],[-50.75,36.979],[-50.587,37.075],[-50.405,37.163],[-50.216,37.246],[-49.997,37.314],[-49.772,37.377],[-49.54,37.437],[-49.313,37.499],[-49.086,37.561],[-48.864,37.625],[-48.642,37.689],[-48.424,37.755],[-48.206,37.82],[-47.982,37.882],[-47.751,37.94],[-47.507,37.99],[-47.265,38.019],[-47.011,38.04],[-46.768,38.067],[-46.557,38.135],[-46.387,38.226],[-46.239,38.331],[-46.09,38.435],[-45.934,38.536],[-45.784,38.64],[-45.616,38.734],[-45.441,38.823],[-45.248,38.902],[-45.06,38.983],[-44.872,39.064],[-44.688,39.149],[-44.504,39.233],[-44.325,39.32],[-44.146,39.407],[-43.965,39.493],[-43.784,39.579],[-43.602,39.665],[-43.42,39.75],[-43.242,39.839],[-43.07,39.931],[-42.896,40.023],[-42.711,40.107],[-42.519,40.186],[-42.321,40.261],[-42.116,40.332],[-41.9,40.395],[-41.677,40.453],[-41.493,40.538],[-41.342,40.646],[-41.231,40.782],[-41.107,40.91],[-40.976,41.033],[-40.834,41.149],[-40.691,41.264],[-40.53,41.367],[-40.368,41.47],[-40.206,41.572],[-40.043,41.675],[-39.879,41.777],[-39.714,41.879],[-39.56,41.988],[-39.393,42.09],[-39.226,42.191],[-39.064,42.296],[-38.912,42.408],[-38.759,42.521],[-38.589,42.621],[-38.418,42.721],[-38.246,42.82],[-38.09,42.932],[-37.933,43.043],[-37.775,43.155],[-37.617,43.266],[-37.458,43.377],[-37.298,43.487],[-37.137,43.598],[-36.975,43.708],[-36.795,43.805],[-36.615,43.901],[-36.417,43.984],[-36.218,44.067],[-36.012,44.145],[-35.84,44.248],[-35.711,44.388],[-35.598,44.54],[-35.485,44.693],[-35.342,44.823],[-35.187,44.944],[-35.026,45.06],[-34.869,45.18],[-34.712,45.301],[-34.553,45.421],[-34.394,45.541],[-34.234,45.66],[-34.067,45.775],[-33.904,45.895],[-33.741,46.014],[-33.577,46.132],[-33.412,46.251],[-33.245,46.369],[-33.078,46.488],[-32.91,46.605],[-32.741,46.723],[-32.571,46.84],[-32.399,46.958],[-32.227,47.074],[-32.059,47.196],[-31.885,47.312],[-31.709,47.428],[-31.522,47.534],[-31.328,47.635],[-31.133,47.736],[-30.936,47.836],[-30.734,47.931],[-30.519,48.016],[-30.303,48.1],[-30.092,48.188],[-29.918,48.311],[-29.76,48.449],[-29.627,48.611],[-29.482,48.764],[-29.331,48.911],[-29.167,49.048],[-28.986,49.17],[-28.81,49.296],[-28.616,49.407],[-28.436,49.533],[-28.24,49.643],[-28.058,49.769],[-27.865,49.883],[-27.681,50.008],[-27.49,50.128],[-27.298,50.247],[-27.105,50.365],[-26.905,50.478],[-26.715,50.602],[-26.523,50.725],[-26.331,50.847],[-26.136,50.969],[-25.936,51.086],[-25.739,51.208],[-25.541,51.329],[-25.346,51.455],[-25.146,51.576],[-24.938,51.691],[-24.724,51.8],[-24.514,51.914],[-24.287,52.011],[-24.064,52.114],[-23.829,52.205],[-23.598,52.3],[-23.356,52.385],[-23.137,52.496],[-22.948,52.64],[-22.783,52.812],[-22.621,52.988],[-22.447,53.154],[-22.272,53.32],[-22.08,53.468],[-21.881,53.611],[-21.67,53.742],[-21.458,53.873],[-21.244,54.003],[-21.028,54.133],[-20.816,54.268],[-20.602,54.403],[-20.386,54.538],[-20.168,54.672],[-19.954,54.812],[-19.737,54.951],[-19.519,55.09],[-19.294,55.222],[-19.073,55.361],[-18.849,55.498],[-18.628,55.641],[-18.405,55.784],[-18.181,55.926],[-17.949,56.063],[-17.706,56.186],[-17.461,56.31],[-17.21,56.427],[-16.957,56.543],[-16.688,56.641],[-16.409,56.727],[-16.137,56.823],[-15.894,56.961],[-15.701,57.151],[-15.541,57.353],[-15.374,57.549],[-15.185,57.736],[-14.962,57.915],[-14.727,58.081],[-14.481,58.235],[-14.233,58.388],[-13.982,58.541],[-13.733,58.7],[-13.481,58.858],[-13.23,59.022],[-12.973,59.179],[-12.717,59.342],[-12.462,59.511],[-12.209,59.685],[-11.952,59.859],[-11.692,60.033],[-11.437,60.219],[-11.175,60.398],[-10.905,60.57],[-10.613,60.71],[-10.318,60.85],[-10.008,60.97],[-9.696,61.089],[-9.458,61.217],[-9.32,61.373],[-9.296,61.555],[-9.289,61.741],[-9.282,61.928],[-9.248,62.118],[-9.171,62.314],[-9.066,62.513],[-8.959,62.713],[-8.879,62.909],[-8.797,63.105],[-8.729,63.3],[-8.66,63.494],[-8.618,63.686],[-8.547,63.881],[-8.475,64.076],[-8.356,64.276],[-8.236,64.476],[-8.114,64.676],[-8.051,64.87],[-8.095,65.052],[-8.233,65.225],[-8.467,65.387],[-8.719,65.547],[-8.976,65.707],[-9.219,65.868],[-9.466,66.029],[-9.733,66.188],[-10.019,66.344],[-10.31,66.5],[-10.457,66.673],[-10.475,66.861],[-10.363,67.023],[-10.271,67.139]]}},{"type":"Feature","properties":{"kind":"warm","line":3,"px_len":129},"geometry":{"type":"LineString","coordinates":[[-10.271,67.139],[-9.928,67.361],[-9.588,67.547],[-9.211,67.713],[-8.824,67.873],[-8.43,68.031],[-8.027,68.182],[-7.622,68.339],[-7.198,68.474],[-6.764,68.602],[-6.293,68.676],[-5.795,68.708],[-5.273,68.699],[-4.744,68.675],[-4.217,68.648],[-3.694,68.627],[-3.176,68.611],[-2.658,68.593],[-2.144,68.58],[-1.631,68.566],[-1.118,68.549],[-0.602,68.518],[-0.083,68.471],[0.432,68.43],[0.944,68.387],[1.453,68.348],[1.957,68.322],[2.458,68.308],[2.956,68.299],[3.458,68.261],[3.961,68.194],[4.465,68.078],[4.928,67.927],[5.315,67.746],[5.589,67.564],[5.788,67.382],[5.983,67.2],[6.21,67.017],[6.468,66.834],[6.756,66.651],[7.056,66.467],[7.368,66.282],[7.643,66.118],[7.899,65.974]]}},{"type":"Feature","properties":{"kind":"occl","line":4,"px_len":81},"geometry":{"type":"LineString","coordinates":[[-19.999,62.993],[-19.739,63.177],[-19.508,63.36],[-19.248,63.535],[-18.971,63.696],[-18.671,63.839],[-18.362,63.975],[-18.037,64.099],[-17.739,64.252],[-17.463,64.429],[-17.208,64.63],[-16.93,64.813],[-16.63,64.976],[-16.294,65.108],[-15.949,65.233],[-15.607,65.363],[-15.278,65.512],[-14.952,65.665],[-14.615,65.812],[-14.25,65.933],[-13.865,66.034],[-13.466,66.121],[-13.058,66.201],[-12.647,66.28],[-12.233,66.357],[-11.816,66.433],[-11.435,66.489],[-11.096,66.532]]}},{"type":"Feature","properties":{"kind":"warm","line":5,"px_len":72},"geometry":{"type":"LineString","coordinates":[[22.629,60.746],[22.594,60.943],[22.602,61.121],[22.641,61.302],[22.68,61.482],[22.694,61.667],[22.68,61.855],[22.639,62.048],[22.611,62.238],[22.583,62.429],[22.541,62.622],[22.526,62.811],[22.581,62.991],[22.75,63.156],[22.978,63.313],[23.209,63.47],[23.428,63.629],[23.621,63.791],[23.788,63.957],[23.957,64.123],[24.128,64.289],[24.287,64.457],[24.388,64.633],[24.462,64.792],[24.536,64.93]]}},{"type":"Feature","properties":{"kind":"cold","line":5,"px_len":78},"geometry":{"type":"LineString","coordinates":[[24.536,64.93],[24.676,65.109],[24.809,65.274],[24.948,65.446],[25.09,65.618],[25.233,65.79],[25.379,65.962],[25.527,66.134],[25.709,66.301],[25.909,66.466],[26.128,66.629],[26.35,66.791],[26.511,66.962],[26.56,67.15],[26.511,67.352],[26.411,67.561],[26.343,67.766],[26.256,67.973],[26.219,68.173],[26.199,68.371],[26.214,68.564],[26.228,68.758],[26.243,68.952],[26.259,69.145],[26.292,69.337],[26.307,69.509],[26.301,69.663]]}},{"type":"Feature","properties":{"kind":"occl","line":5,"px_len":183},"geometry":{"type":"LineString","coordinates":[[26.301,69.663],[26.399,69.854],[26.466,70.035],[26.522,70.225],[26.618,70.41],[26.754,70.59],[26.931,70.765],[27.132,70.938],[27.395,71.103],[27.663,71.268],[27.917,71.436],[28.073,71.615],[28.233,71.795],[28.417,71.972],[28.646,72.144],[28.838,72.321],[29.012,72.5],[29.19,72.679],[29.437,72.85],[29.688,73.021],[29.923,73.194],[30.074,73.379],[30.207,73.566],[30.32,73.755],[30.527,73.934],[30.739,74.112],[31.049,74.279],[31.365,74.445],[31.758,74.602],[32.16,74.759],[32.594,74.911],[33.037,75.063],[33.513,75.21],[33.999,75.357],[34.519,75.499],[35.123,75.63],[35.811,75.75],[36.585,75.856],[37.395,75.957],[38.266,76.047],[39.123,76.138],[39.846,76.249],[40.459,76.378],[41.109,76.501],[41.843,76.61],[42.638,76.708],[43.494,76.796],[44.408,76.872],[45.334,76.945],[46.127,77.041],[46.79,77.162],[47.37,77.299],[47.963,77.435],[48.616,77.561],[49.283,77.685],[50.011,77.797],[50.729,77.913],[51.532,78.012],[52.348,78.108],[53.201,78.197],[53.99,78.269],[54.711,78.325]]}}]}