{"type":"FeatureCollection","properties":{"chart":"fc","src":"Z__C_EDZW_20261003055117_nwv01,ico_tkb_na_N_000108_000000_202610030000_WV12.png","valid_time":"2026-10-07T12:00:00+00:00"},"features":[{"type":"Feature","properties":{"kind":"cold","line":0,"px_len":214},"geometry":{"type":"LineString","coordinates":[[-9.78,43.335],[-9.571,43.409],[-9.372,43.468],[-9.161,43.516],[-8.948,43.559],[-8.733,43.6],[-8.515,43.63],[-8.293,43.653],[-8.072,43.676],[-7.86,43.727],[-7.66,43.812],[-7.469,43.925],[-7.278,44.045],[-7.087,44.163],[-6.89,44.27],[-6.689,44.365],[-6.483,44.447],[-6.276,44.529],[-6.071,44.616],[-5.864,44.703],[-5.657,44.79],[-5.443,44.858],[-5.229,44.926],[-5.009,44.975],[-4.793,45.042],[-4.572,45.09],[-4.351,45.138],[-4.129,45.186],[-3.92,45.286],[-3.723,45.439],[-3.53,45.615],[-3.333,45.779],[-3.13,45.926],[-2.923,46.059],[-2.711,46.175],[-2.497,46.29],[-2.282,46.404],[-2.067,46.524],[-1.85,46.644],[-1.632,46.763],[-1.413,46.882],[-1.19,46.982],[-0.962,47.069],[-0.732,47.144],[-0.5,47.212],[-0.267,47.28],[-0.083,47.38],[0.067,47.52],[0.167,47.693],[0.287,47.868],[0.419,48.032],[0.598,48.192],[0.807,48.353],[1.034,48.528],[1.263,48.709],[1.494,48.889],[1.729,49.05],[1.97,49.18],[2.216,49.278],[2.464,49.364],[2.714,49.448],[2.924,49.556],[3.075,49.692],[3.158,49.857],[3.231,50.027],[3.324,50.199],[3.477,50.372],[3.68,50.546],[3.925,50.722],[4.182,50.897],[4.402,51.064],[4.613,51.244]]}},{"type":"Feature","properties":{"kind":"warm","line":1,"px_len":167},"geometry":{"type":"LineString","coordinates":[[5.685,51.934],[5.929,52.112],[6.103,52.276],[6.227,52.447],[6.342,52.617],[6.468,52.788],[6.627,52.958],[6.84,53.128],[7.098,53.284],[7.389,53.415],[7.681,53.512],[7.974,53.596],[8.268,53.673],[8.565,53.762],[8.864,53.869],[9.168,54.007],[9.477,54.163],[9.756,54.326],[10.027,54.488],[10.267,54.652],[10.499,54.815],[10.7,54.98],[10.869,55.146],[11.018,55.313],[11.179,55.479],[11.376,55.643],[11.641,55.791],[11.941,55.923],[12.271,56.02],[12.599,56.091],[12.921,56.129],[13.242,56.159],[13.565,56.195],[13.893,56.243],[14.226,56.308],[14.562,56.379],[14.903,56.462],[15.246,56.544],[15.599,56.65],[15.955,56.761],[16.284,56.887],[16.615,57.012],[16.918,57.153],[17.261,57.296],[17.608,57.437],[17.983,57.548],[18.349,57.626],[18.692,57.646],[19.031,57.652],[19.358,57.631],[19.688,57.616],[20.018,57.6],[20.353,57.595],[20.697,57.609],[21.045,57.627],[21.32,57.648],[21.515,57.66]]}},{"type":"Feature","properties":{"kind":"warm","line":2,"px_len":129},"geometry":{"type":"LineString","coordinates":[[28.994,57.45],[29.271,57.338],[29.563,57.277],[29.874,57.225],[30.184,57.172],[30.488,57.112],[30.801,57.064],[31.128,57.031],[31.46,57.004],[31.79,56.976],[32.1,56.923],[32.377,56.835],[32.621,56.711],[32.852,56.575],[33.071,56.428],[33.299,56.291],[33.524,56.154],[33.758,56.028],[34.002,55.913],[34.243,55.797],[34.499,55.698],[34.748,55.593],[35.001,55.493],[35.252,55.392],[35.507,55.296],[35.772,55.211],[36.046,55.137],[36.325,55.067],[36.614,55.007],[36.896,54.941],[37.189,54.886],[37.481,54.829],[37.771,54.772],[38.032,54.686],[38.261,54.573],[38.472,54.444],[38.681,54.314],[38.906,54.199],[39.141,54.095],[39.387,54.001],[39.631,53.907],[39.874,53.812],[40.107,53.743],[40.33,53.7]]}},{"type":"Feature","properties":{"kind":"cold","line":2,"px_len":217},"geometry":{"type":"LineString","coordinates":[[40.33,53.7],[40.596,53.615],[40.856,53.548],[41.13,53.481],[41.396,53.408],[41.655,53.33],[41.907,53.246],[42.157,53.161],[42.406,53.076],[42.654,52.99],[42.895,52.898],[43.165,52.831],[43.486,52.803],[43.844,52.805],[44.208,52.81],[44.566,52.809],[44.911,52.796],[45.243,52.773],[45.567,52.743],[45.905,52.723],[46.255,52.71],[46.605,52.696],[46.968,52.691],[47.325,52.679],[47.667,52.657],[47.974,52.61],[48.273,52.557],[48.571,52.512],[48.865,52.511],[49.134,52.557],[49.387,52.647],[49.626,52.746],[49.881,52.835],[50.153,52.914],[50.433,52.989],[50.738,53.049],[51.043,53.108],[51.357,53.162],[51.657,53.224],[51.98,53.271],[52.312,53.313],[52.659,53.344],[53.007,53.374],[53.376,53.389],[53.718,53.421],[53.996,53.494],[54.217,53.604],[54.419,53.728],[54.636,53.843],[54.862,53.952],[55.103,54.051],[55.346,54.149],[55.584,54.252],[55.823,54.354],[56.07,54.451],[56.333,54.537],[56.597,54.623],[56.877,54.698],[57.165,54.768],[57.461,54.831],[57.772,54.884],[58.105,54.921],[58.472,54.931],[58.813,54.96],[59.101,55.029],[59.329,55.144],[59.552,55.263],[59.79,55.371],[60.036,55.474],[60.271,55.586],[60.5,55.704],[60.722,55.817],[60.977,55.926]]}},{"type":"Feature","properties":{"kind":"stat","line":2,"px_len":42},"geometry":{"type":"LineString","coordinates":[[60.977,55.926],[61.175,56.083],[61.342,56.242],[61.481,56.437],[61.559,56.648],[61.611,56.879],[61.664,57.112],[61.761,57.344],[61.887,57.556],[62.042,57.746],[62.205,57.931],[62.385,58.104],[62.573,58.272],[62.753,58.413],[62.903,58.543]]}},{"type":"Feature","properties":{"kind":"occl","line":2,"px_len":229},"geometry":{"type":"LineString","coordinates":[[62.903,58.543],[63.149,58.681],[63.383,58.807],[63.622,58.941],[63.844,59.091],[64.026,59.274],[64.177,59.484],[64.337,59.689],[64.513,59.883],[64.712,60.06],[64.92,60.231],[65.131,60.402],[65.337,60.578],[65.512,60.783],[65.614,60.996],[65.638,61.21],[65.615,61.411],[65.568,61.605],[65.532,61.803],[65.531,62.011],[65.605,62.24],[65.729,62.482],[65.868,62.728],[66.025,62.962],[66.206,63.179],[66.428,63.367],[66.667,63.543],[66.843,63.718],[66.917,63.905],[66.87,64.093],[66.813,64.286],[66.77,64.483],[66.781,64.694],[66.805,64.907],[66.858,65.128],[66.911,65.349],[66.938,65.563],[66.836,65.748],[66.646,65.913],[66.396,66.065],[66.186,66.226],[66.002,66.394],[65.815,66.561],[65.611,66.725],[65.389,66.886],[65.194,67.053],[65.011,67.223],[64.84,67.397],[64.651,67.567],[64.474,67.741],[64.279,67.911],[64.097,68.084],[63.927,68.261],[63.738,68.434],[63.562,68.611],[63.383,68.788],[63.249,68.976],[63.08,69.156],[62.844,69.321],[62.555,69.474],[62.246,69.624],[61.948,69.776],[61.645,69.928],[61.289,70.068],[60.96,70.216],[60.61,70.358],[60.288,70.508],[59.86,70.633],[59.361,70.741],[58.756,70.822],[58.081,70.884],[57.335,70.927],[56.57,70.962],[55.819,70.998],[55.128,71.048],[54.558,71.123],[54.05,71.234]]}},{"type":"Feature","properties":{"kind":"warm","line":3,"px_len":199},"geometry":{"type":"LineString","coordinates":[[48.781,46.536],[49.033,46.608],[49.249,46.686],[49.465,46.773],[49.681,46.859],[49.906,46.94],[50.137,47.017],[50.389,47.08],[50.648,47.138],[50.92,47.187],[51.219,47.218],[51.512,47.252],[51.78,47.302],[51.992,47.391],[52.18,47.498],[52.356,47.612],[52.534,47.727],[52.712,47.841],[52.898,47.95],[53.098,48.05],[53.298,48.15],[53.493,48.254],[53.677,48.366],[53.862,48.478],[54.048,48.59],[54.235,48.702],[54.424,48.813],[54.613,48.924],[54.803,49.034],[54.995,49.145],[55.188,49.255],[55.381,49.364],[55.564,49.483],[55.741,49.606],[55.92,49.728],[56.112,49.841],[56.312,49.949],[56.488,50.076],[56.599,50.224],[56.668,50.406],[56.731,50.593],[56.83,50.782],[56.95,50.957],[57.076,51.126],[57.21,51.291],[57.358,51.447],[57.533,51.582],[57.721,51.708],[57.918,51.828],[58.115,51.948],[58.327,52.057],[58.546,52.162],[58.766,52.265],[59.0,52.359],[59.198,52.482],[59.366,52.63],[59.45,52.826],[59.483,53.022],[59.464,53.227],[59.429,53.426],[59.385,53.62],[59.314,53.803],[59.233,53.983],[59.152,54.163],[59.088,54.35],[59.029,54.533],[58.983,54.737]]}},{"type":"Feature","properties":{"kind":"warm","line":4,"px_len":61},"geometry":{"type":"LineString","coordinates":[[-54.799,38.311],[-54.681,38.443],[-54.582,38.57],[-54.472,38.699],[-54.381,38.836],[-54.29,38.974],[-54.204,39.115],[-54.131,39.261],[-54.064,39.41],[-53.996,39.559],[-53.902,39.697],[-53.762,39.815],[-53.594,39.921],[-53.42,40.024],[-53.244,40.126],[-53.075,40.232],[-52.917,40.342],[-52.772,40.459],[-52.646,40.584],[-52.53,40.708],[-52.418,40.847]]}},{"type":"Feature","properties":{"kind":"cold","line":4,"px_len":72},"geometry":{"type":"LineString","coordinates":[[-52.418,40.847],[-52.305,40.986],[-52.193,41.112],[-52.063,41.237],[-51.933,41.362],[-51.808,41.49],[-51.676,41.615],[-51.53,41.733],[-51.363,41.842],[-51.215,41.96],[-51.1,42.094],[-51.024,42.247],[-50.961,42.406],[-50.897,42.565],[-50.813,42.715],[-50.715,42.859],[-50.609,42.999],[-50.509,43.143],[-50.409,43.287],[-50.294,43.424],[-50.171,43.558],[-50.048,43.691],[-49.924,43.825],[-49.813,43.944],[-49.716,44.048]]}},{"type":"Feature","properties":{"kind":"warm","line":4,"px_len":83},"geometry":{"type":"LineString","coordinates":[[-49.716,44.048],[-49.633,44.21],[-49.525,44.345],[-49.397,44.478],[-49.269,44.612],[-49.139,44.745],[-49.009,44.878],[-48.878,45.012],[-48.753,45.148],[-48.642,45.292],[-48.529,45.435],[-48.409,45.575],[-48.294,45.718],[-48.193,45.869],[-48.113,46.03],[-48.032,46.191],[-47.957,46.356],[-47.868,46.514],[-47.742,46.654],[-47.572,46.772],[-47.372,46.876],[-47.178,46.983],[-46.991,47.093],[-46.824,47.214],[-46.67,47.342],[-46.515,47.469],[-46.359,47.597],[-46.229,47.692],[-46.145,47.764]]}},{"type":"Feature","properties":{"kind":"cold","line":4,"px_len":215},"geometry":{"type":"LineString","coordinates":[[-46.145,47.764],[-46.039,47.927],[-45.922,48.068],[-45.791,48.21],[-45.659,48.352],[-45.511,48.487],[-45.355,48.617],[-45.183,48.74],[-45.003,48.858],[-44.822,48.976],[-44.691,49.122],[-44.603,49.29],[-44.543,49.475],[-44.484,49.659],[-44.416,49.84],[-44.347,50.021],[-44.263,50.194],[-44.163,50.36],[-44.054,50.521],[-43.944,50.683],[-43.841,50.848],[-43.738,51.014],[-43.633,51.18],[-43.512,51.337],[-43.389,51.495],[-43.266,51.653],[-43.134,51.806],[-42.977,51.947],[-42.812,52.084],[-42.653,52.225],[-42.5,52.369],[-42.414,52.525],[-42.373,52.706],[-42.388,52.916],[-42.366,53.132],[-42.335,53.345],[-42.28,53.545],[-42.216,53.741],[-42.136,53.928],[-42.054,54.116],[-41.964,54.3],[-41.872,54.484],[-41.771,54.663],[-41.678,54.847],[-41.583,55.031],[-41.479,55.211],[-41.357,55.383],[-41.217,55.545],[-41.076,55.708],[-40.908,55.857],[-40.738,56.006],[-40.609,56.168],[-40.578,56.356],[-40.631,56.561],[-40.71,56.77],[-40.766,56.993],[-40.798,57.231],[-40.814,57.478],[-40.83,57.726],[-40.847,57.975],[-40.889,58.209],[-40.974,58.419],[-41.086,58.616],[-41.2,58.812],[-41.298,59.018],[-41.397,59.224],[-41.488,59.436],[-41.573,59.652],[-41.659,59.868],[-41.728,60.094],[-41.771,60.326],[-41.762,60.508],[-41.726,60.626]]}},{"type":"Feature","properties":{"kind":"warm","line":4,"px_len":235},"geometry":{"type":"LineString","coordinates":[[-41.726,60.626],[-41.473,60.763],[-41.206,60.876],[-40.917,60.989],[-40.605,61.092],[-40.272,61.186],[-39.896,61.241],[-39.478,61.249],[-39.079,61.208],[-38.701,61.139],[-38.354,61.054],[-38.009,60.968],[-37.657,60.886],[-37.296,60.807],[-36.928,60.732],[-36.572,60.651],[-36.227,60.564],[-35.905,60.468],[-35.585,60.371],[-35.277,60.269],[-34.981,60.161],[-34.687,60.053],[-34.396,59.945],[-34.097,59.84],[-33.8,59.734],[-33.495,59.631],[-33.152,59.545],[-32.822,59.453],[-32.493,59.36],[-32.227,59.243],[-32.013,59.104],[-31.861,58.941],[-31.741,58.765],[-31.631,58.586],[-31.524,58.407],[-31.407,58.232],[-31.263,58.068],[-31.11,57.909],[-30.94,57.757],[-30.791,57.598],[-30.633,57.442],[-30.497,57.278],[-30.352,57.118],[-30.218,56.955],[-30.095,56.787],[-29.974,56.619],[-29.844,56.456],[-29.706,56.296],[-29.561,56.139],[-29.426,55.979],[-29.273,55.826],[-29.113,55.677],[-28.955,55.528],[-28.844,55.36],[-28.807,55.163],[-28.815,54.957],[-28.877,54.752],[-28.967,54.559],[-29.089,54.36],[-29.182,54.15],[-29.237,53.931],[-29.261,53.71],[-29.268,53.496],[-29.266,53.287],[-29.247,53.084],[-29.202,52.894],[-29.132,52.714],[-29.046,52.542],[-28.961,52.37],[-28.894,52.19],[-28.861,51.997],[-28.878,51.782],[-28.951,51.573],[-29.063,51.378],[-29.203,51.208],[-29.341,51.039],[-29.472,50.864],[-29.589,50.688],[-29.72,50.505]]}},{"type":"Feature","properties":{"kind":"occl","line":5,"px_len":212},"geometry":{"type":"LineString","coordinates":[[-42.239,60.612],[-42.663,60.655],[-43.043,60.702],[-43.425,60.758],[-43.791,60.823],[-44.167,60.881],[-44.571,60.923],[-45.001,60.948],[-45.441,60.966],[-45.898,60.972],[-46.369,60.957],[-46.832,60.912],[-47.279,60.852],[-47.735,60.794],[-48.223,60.747],[-48.699,60.726],[-49.16,60.714],[-49.62,60.7],[-50.11,60.663],[-50.59,60.605],[-51.035,60.535],[-51.445,60.476],[-51.833,60.456],[-52.206,60.485],[-52.57,60.533],[-52.929,60.585],[-53.309,60.619],[-53.704,60.641],[-54.119,60.644],[-54.528,60.651],[-54.937,60.657],[-55.34,60.667],[-55.749,60.67],[-56.152,60.677],[-56.562,60.677],[-56.965,60.682],[-57.375,60.679],[-57.778,60.681],[-58.193,60.669],[-58.608,60.656],[-59.034,60.63],[-59.464,60.596],[-59.904,60.548],[-60.359,60.481],[-60.822,60.4],[-61.287,60.311],[-61.74,60.232],[-62.19,60.151],[-62.605,60.056],[-62.916,59.926],[-63.127,59.776],[-63.287,59.617],[-63.482,59.465],[-63.662,59.31],[-63.853,59.158],[-64.018,59.0],[-64.216,58.849],[-64.401,58.696],[-64.584,58.543],[-64.671,58.372],[-64.676,58.186],[-64.599,57.986],[-64.499,57.782],[-64.367,57.591],[-64.224,57.399],[-64.061,57.202],[-63.89,56.983],[-63.695,56.765],[-63.486,56.571],[-63.264,56.401],[-63.076,56.293],[-62.933,56.228]]}}]}