{"type":"FeatureCollection","properties":{"chart":"fc","src":"Z__C_EDZW_20261006031709_nwv01,ico_tkb_na_N_000036_000000_202610060000_WV12.png","valid_time":"2026-10-07T12:00:00+00:00"},"features":[{"type":"Feature","properties":{"kind":"cold","line":0,"px_len":345},"geometry":{"type":"LineString","coordinates":[[-18.501,42.97],[-18.308,43.061],[-18.126,43.141],[-17.932,43.217],[-17.738,43.294],[-17.546,43.375],[-17.353,43.455],[-17.15,43.519],[-16.937,43.566],[-16.717,43.602],[-16.503,43.648],[-16.304,43.72],[-16.126,43.831],[-15.954,43.953],[-15.786,44.086],[-15.606,44.196],[-15.421,44.3],[-15.229,44.393],[-15.034,44.479],[-14.84,44.571],[-14.637,44.646],[-14.441,44.737],[-14.24,44.816],[-14.043,44.906],[-13.842,44.99],[-13.64,45.074],[-13.441,45.163],[-13.241,45.251],[-13.042,45.345],[-12.84,45.433],[-12.64,45.526],[-12.433,45.607],[-12.228,45.693],[-12.02,45.773],[-11.808,45.847],[-11.593,45.914],[-11.371,45.969],[-11.152,46.03],[-10.93,46.084],[-10.727,46.184],[-10.543,46.331],[-10.371,46.506],[-10.189,46.663],[-10.002,46.809],[-9.805,46.936],[-9.605,47.057],[-9.396,47.161],[-9.191,47.276],[-8.982,47.384],[-8.774,47.498],[-8.566,47.611],[-8.356,47.724],[-8.144,47.837],[-7.932,47.949],[-7.72,48.066],[-7.507,48.184],[-7.287,48.283],[-7.065,48.381],[-6.838,48.467],[-6.608,48.546],[-6.369,48.6],[-6.133,48.666],[-5.928,48.772],[-5.749,48.929],[-5.606,49.113],[-5.444,49.306],[-5.268,49.487],[-5.06,49.666],[-4.842,49.821],[-4.623,49.975],[-4.399,50.116],[-4.176,50.269],[-3.951,50.422],[-3.726,50.58],[-3.501,50.744],[-3.273,50.908],[-3.047,51.084],[-2.816,51.247],[-2.579,51.397],[-2.334,51.522],[-2.085,51.634],[-1.831,51.732],[-1.599,51.841],[-1.433,51.976],[-1.335,52.143],[-1.279,52.319],[-1.213,52.496],[-1.104,52.677],[-0.964,52.86],[-0.779,53.046],[-0.593,53.232],[-0.394,53.418],[-0.204,53.604],[-0.022,53.789],[0.161,53.973],[0.336,54.157],[0.513,54.341],[0.692,54.524],[0.894,54.709],[1.134,54.888],[1.401,55.049],[1.684,55.191],[1.974,55.307],[2.231,55.42],[2.42,55.55],[2.539,55.709],[2.645,55.887],[2.787,56.066],[2.977,56.247],[3.217,56.415],[3.497,56.565],[3.804,56.696],[4.115,56.8],[4.429,56.89],[4.71,56.965],[4.956,57.046]]}},{"type":"Feature","properties":{"kind":"warm","line":0,"px_len":299},"geometry":{"type":"LineString","coordinates":[[4.956,57.046],[5.289,57.095],[5.598,57.142],[5.92,57.189],[6.243,57.228],[6.567,57.26],[6.892,57.298],[7.217,57.34],[7.545,57.402],[7.874,57.468],[8.204,57.534],[8.536,57.599],[8.869,57.656],[9.199,57.68],[9.526,57.657],[9.847,57.595],[10.166,57.525],[10.483,57.454],[10.801,57.395],[11.119,57.342],[11.438,57.3],[11.757,57.264],[12.074,57.221],[12.392,57.183],[12.709,57.145],[13.029,57.124],[13.345,57.084],[13.659,57.042],[13.973,57.0],[14.291,56.976],[14.608,56.951],[14.925,56.925],[15.241,56.898],[15.561,56.882],[15.882,56.873],[16.208,56.875],[16.531,56.869],[16.849,56.85],[17.154,56.792],[17.442,56.689],[17.718,56.559],[17.992,56.429],[18.268,56.311],[18.545,56.198],[18.826,56.098],[19.107,56.003],[19.388,55.913],[19.669,55.823],[19.947,55.732],[20.225,55.641],[20.5,55.548],[20.777,55.461],[21.053,55.374],[21.332,55.298],[21.617,55.234],[21.909,55.187],[22.195,55.128],[22.485,55.08],[22.775,55.031],[23.071,54.993],[23.359,54.942],[23.643,54.885],[23.905,54.79],[24.153,54.67],[24.381,54.519],[24.615,54.38],[24.846,54.241],[25.083,54.113],[25.328,54.002],[25.576,53.898],[25.836,53.816],[26.095,53.734],[26.357,53.657],[26.617,53.58],[26.872,53.496],[27.13,53.417],[27.387,53.338],[27.65,53.27],[27.924,53.218],[28.19,53.155],[28.462,53.102],[28.729,53.043],[29.012,53.006],[29.298,52.974],[29.592,52.953],[29.886,52.931],[30.162,52.885],[30.417,52.81],[30.639,52.693],[30.852,52.565],[31.063,52.436],[31.281,52.318],[31.511,52.217],[31.748,52.127],[31.989,52.042],[32.229,51.957],[32.476,51.882],[32.731,51.817],[32.986,51.752],[33.176,51.693],[33.311,51.65]]}},{"type":"Feature","properties":{"kind":"cold","line":0,"px_len":269},"geometry":{"type":"LineString","coordinates":[[33.311,51.65],[33.563,51.569],[33.801,51.499],[34.056,51.437],[34.31,51.374],[34.558,51.305],[34.796,51.225],[35.033,51.143],[35.269,51.061],[35.503,50.979],[35.727,50.885],[35.945,50.785],[36.161,50.685],[36.411,50.622],[36.685,50.585],[36.979,50.569],[37.277,50.558],[37.57,50.54],[37.858,50.515],[38.129,50.474],[38.4,50.433],[38.671,50.39],[38.941,50.347],[39.21,50.302],[39.478,50.257],[39.746,50.211],[40.013,50.165],[40.285,50.123],[40.556,50.08],[40.827,50.036],[41.097,49.991],[41.366,49.946],[41.629,49.894],[41.891,49.842],[42.136,49.774],[42.368,49.696],[42.594,49.611],[42.824,49.532],[43.1,49.491],[43.386,49.491],[43.719,49.528],[44.058,49.57],[44.403,49.584],[44.725,49.577],[45.028,49.555],[45.325,49.527],[45.627,49.502],[45.923,49.472],[46.225,49.446],[46.526,49.418],[46.833,49.395],[47.139,49.37],[47.439,49.339],[47.732,49.303],[48.006,49.252],[48.278,49.2],[48.531,49.134],[48.783,49.067],[49.04,49.012],[49.314,49.005],[49.585,49.05],[49.836,49.124],[50.095,49.194],[50.368,49.254],[50.683,49.287],[50.998,49.319],[51.334,49.336],[51.657,49.361],[51.981,49.385],[52.298,49.413],[52.609,49.443],[52.921,49.473],[53.226,49.506],[53.539,49.533],[53.851,49.551],[54.169,49.545],[54.485,49.521],[54.806,49.482],[55.114,49.451],[55.405,49.451],[55.66,49.495],[55.894,49.576],[56.116,49.665],[56.333,49.758],[56.564,49.842],[56.783,49.934],[57.01,50.021],[57.231,50.113],[57.454,50.204],[57.626,50.276],[57.741,50.334]]}},{"type":"Feature","properties":{"kind":"occl","line":0,"px_len":355},"geometry":{"type":"LineString","coordinates":[[57.741,50.334],[57.955,50.442],[58.156,50.542],[58.365,50.646],[58.576,50.749],[58.788,50.852],[59.001,50.955],[59.215,51.056],[59.431,51.158],[59.636,51.269],[59.836,51.385],[60.031,51.505],[60.228,51.626],[60.426,51.745],[60.619,51.87],[60.814,51.994],[61.005,52.123],[61.136,52.272],[61.201,52.447],[61.19,52.643],[61.165,52.841],[61.131,53.035],[61.097,53.23],[61.08,53.433],[61.097,53.65],[61.124,53.871],[61.169,54.099],[61.214,54.328],[61.307,54.553],[61.413,54.767],[61.539,54.966],[61.686,55.148],[61.841,55.326],[61.939,55.495],[61.951,55.679],[61.907,55.864],[61.864,56.059],[61.841,56.261],[61.837,56.47],[61.861,56.691],[61.916,56.923],[61.951,57.148],[61.927,57.351],[61.834,57.529],[61.688,57.688],[61.542,57.847],[61.393,58.006],[61.274,58.177],[61.153,58.347],[61.041,58.521],[60.938,58.699],[60.855,58.885],[60.791,59.078],[60.716,59.268],[60.65,59.461],[60.594,59.659],[60.569,59.868],[60.555,60.081],[60.572,60.306],[60.623,60.542],[60.675,60.779],[60.638,60.986],[60.535,61.169],[60.385,61.337],[60.255,61.513],[60.136,61.693],[60.06,61.888],[60.006,62.091],[59.963,62.299],[59.896,62.498],[59.769,62.678],[59.582,62.839],[59.369,62.991],[59.166,63.146],[58.96,63.302],[58.752,63.457],[58.553,63.617],[58.375,63.784],[58.195,63.951],[58.037,64.126],[57.889,64.305],[57.762,64.493],[57.622,64.676],[57.479,64.86],[57.322,65.039],[57.176,65.222],[57.026,65.405],[56.875,65.589],[56.746,65.78],[56.641,65.981],[56.599,66.203],[56.568,66.429],[56.563,66.664],[56.466,66.87],[56.313,67.057],[56.091,67.224],[55.865,67.389],[55.623,67.551],[55.39,67.716],[55.208,67.899],[55.064,68.095],[54.932,68.296],[54.741,68.478],[54.449,68.629],[54.097,68.761],[53.727,68.888],[53.38,69.023],[53.029,69.158],[52.673,69.292],[52.312,69.425],[51.96,69.562],[51.631,69.708],[51.312,69.858],[51.002,70.013],[50.687,70.167],[50.367,70.32],[50.056,70.478],[49.726,70.621],[49.347,70.767]]}},{"type":"Feature","properties":{"kind":"warm","line":1,"px_len":66},"geometry":{"type":"LineString","coordinates":[[-55.548,38.632],[-55.657,38.8],[-55.731,38.961],[-55.745,39.123],[-55.71,39.285],[-55.641,39.432],[-55.585,39.586],[-55.509,39.731],[-55.406,39.866],[-55.27,39.987],[-55.132,40.107],[-55.0,40.231],[-54.881,40.359],[-54.768,40.491],[-54.648,40.62],[-54.526,40.748],[-54.425,40.885],[-54.342,41.031],[-54.26,41.177],[-54.156,41.314],[-54.052,41.451],[-53.958,41.573],[-53.876,41.68]]}},{"type":"Feature","properties":{"kind":"cold","line":1,"px_len":353},"geometry":{"type":"LineString","coordinates":[[-53.876,41.68],[-53.766,41.822],[-53.663,41.955],[-53.556,42.092],[-53.448,42.229],[-53.339,42.366],[-53.229,42.504],[-53.119,42.641],[-53.008,42.778],[-52.889,42.912],[-52.749,43.037],[-52.594,43.156],[-52.424,43.268],[-52.253,43.38],[-52.089,43.495],[-51.965,43.628],[-51.882,43.781],[-51.813,43.939],[-51.737,44.095],[-51.645,44.244],[-51.546,44.391],[-51.432,44.53],[-51.31,44.667],[-51.187,44.804],[-51.064,44.94],[-50.939,45.077],[-50.814,45.213],[-50.688,45.35],[-50.561,45.486],[-50.433,45.622],[-50.305,45.758],[-50.175,45.894],[-50.045,46.03],[-49.913,46.166],[-49.781,46.302],[-49.648,46.438],[-49.514,46.574],[-49.357,46.699],[-49.199,46.824],[-49.018,46.939],[-48.836,47.053],[-48.638,47.16],[-48.483,47.287],[-48.371,47.436],[-48.289,47.599],[-48.19,47.755],[-48.083,47.907],[-47.961,48.053],[-47.83,48.194],[-47.683,48.329],[-47.535,48.463],[-47.386,48.597],[-47.237,48.731],[-47.108,48.875],[-46.979,49.02],[-46.848,49.165],[-46.694,49.298],[-46.554,49.439],[-46.421,49.584],[-46.286,49.728],[-46.15,49.872],[-46.014,50.017],[-45.876,50.161],[-45.729,50.301],[-45.574,50.437],[-45.41,50.569],[-45.252,50.705],[-45.078,50.833],[-44.91,50.965],[-44.733,51.092],[-44.617,51.251],[-44.547,51.434],[-44.499,51.629],[-44.451,51.824],[-44.379,52.007],[-44.306,52.191],[-44.208,52.362],[-44.101,52.53],[-43.986,52.694],[-43.869,52.857],[-43.759,53.025],[-43.648,53.193],[-43.536,53.36],[-43.423,53.528],[-43.317,53.7],[-43.209,53.872],[-43.109,54.048],[-43.0,54.22],[-42.898,54.396],[-42.786,54.569],[-42.665,54.737],[-42.543,54.905],[-42.402,55.064],[-42.269,55.228],[-42.101,55.375],[-41.931,55.521],[-41.776,55.676],[-41.72,55.855],[-41.746,56.06],[-41.816,56.277],[-41.845,56.5],[-41.842,56.724],[-41.804,56.941],[-41.766,57.158],[-41.719,57.37],[-41.697,57.596],[-41.675,57.822],[-41.672,58.057],[-41.684,58.283],[-41.715,58.508],[-41.727,58.725],[-41.695,58.939],[-41.634,59.149],[-41.582,59.364],[-41.558,59.592],[-41.553,59.829],[-41.548,60.066],[-41.537,60.248],[-41.531,60.379]]}},{"type":"Feature","properties":{"kind":"warm","line":1,"px_len":234},"geometry":{"type":"LineString","coordinates":[[-41.531,60.379],[-41.299,60.524],[-41.043,60.641],[-40.746,60.749],[-40.407,60.838],[-39.997,60.885],[-39.556,60.889],[-39.124,60.849],[-38.741,60.784],[-38.388,60.704],[-38.038,60.623],[-37.689,60.541],[-37.343,60.458],[-37.009,60.369],[-36.676,60.28],[-36.336,60.194],[-36.007,60.103],[-35.662,60.019],[-35.318,59.935],[-34.966,59.854],[-34.607,59.776],[-34.259,59.692],[-33.923,59.604],[-33.649,59.489],[-33.437,59.349],[-33.276,59.188],[-33.146,59.014],[-33.017,58.84],[-32.871,58.674],[-32.717,58.512],[-32.535,58.363],[-32.345,58.217],[-32.138,58.08],[-31.932,57.941],[-31.758,57.791],[-31.585,57.641],[-31.414,57.49],[-31.235,57.343],[-31.067,57.192],[-30.9,57.041],[-30.717,56.897],[-30.554,56.746],[-30.364,56.606],[-30.176,56.465],[-29.961,56.336],[-29.767,56.199],[-29.556,56.07],[-29.347,55.939],[-29.195,55.787],[-29.101,55.612],[-29.09,55.403],[-29.108,55.184],[-29.143,54.957],[-29.142,54.746],[-29.122,54.542],[-29.085,54.346],[-29.049,54.15],[-28.995,53.962],[-28.942,53.773],[-28.898,53.582],[-28.863,53.386],[-28.838,53.188],[-28.795,52.997],[-28.728,52.817],[-28.643,52.644],[-28.543,52.479],[-28.46,52.306],[-28.387,52.13],[-28.357,51.937],[-28.38,51.736],[-28.456,51.527],[-28.576,51.338],[-28.707,51.159],[-28.847,50.99],[-28.964,50.801],[-29.056,50.591],[-29.101,50.372],[-29.133,50.175],[-29.157,50.003]]}},{"type":"Feature","properties":{"kind":"stat","line":2,"px_len":23},"geometry":{"type":"LineString","coordinates":[[-41.968,60.494],[-42.435,60.513],[-42.83,60.551],[-43.209,60.607],[-43.564,60.678],[-43.921,60.747],[-44.288,60.81],[-44.576,60.857],[-44.786,60.889]]}},{"type":"Feature","properties":{"kind":"occl","line":2,"px_len":140},"geometry":{"type":"LineString","coordinates":[[-44.786,60.889],[-45.158,60.958],[-45.512,61.018],[-45.861,61.092],[-46.203,61.17],[-46.547,61.247],[-46.919,61.307],[-47.318,61.326],[-47.756,61.308],[-48.233,61.262],[-48.731,61.221],[-49.216,61.198],[-49.661,61.2],[-50.083,61.218],[-50.514,61.228],[-50.959,61.226],[-51.405,61.222],[-51.843,61.222],[-52.267,61.231],[-52.676,61.251],[-53.059,61.291],[-53.421,61.348],[-53.764,61.421],[-54.095,61.504],[-54.422,61.592],[-54.75,61.679],[-55.081,61.766],[-55.414,61.851],[-55.782,61.907],[-56.19,61.926],[-56.638,61.908],[-57.098,61.877],[-57.563,61.838],[-58.02,61.803],[-58.459,61.785],[-58.877,61.753],[-59.292,61.69],[-59.67,61.583],[-59.974,61.452],[-60.187,61.301],[-60.373,61.146],[-60.544,60.987],[-60.713,60.828],[-60.881,60.67],[-61.058,60.513],[-61.271,60.364],[-61.464,60.254],[-61.649,60.185]]}}]}