{"type":"FeatureCollection","properties":{"chart":"fc","src":"Z__C_EDZW_20261010034646_nwv01,ico_tkb_na_N_000036_000000_202610100000_WV12.png","valid_time":"2026-10-11T12:00:00+00:00"},"features":[{"type":"Feature","properties":{"kind":"cold","line":0,"px_len":181},"geometry":{"type":"LineString","coordinates":[[18.777,31.718],[18.976,31.834],[19.151,31.927],[19.332,32.019],[19.522,32.091],[19.708,32.17],[19.853,32.263],[19.947,32.383],[20.013,32.52],[20.073,32.658],[20.153,32.792],[20.227,32.928],[20.313,33.061],[20.4,33.195],[20.501,33.325],[20.601,33.456],[20.696,33.588],[20.792,33.72],[20.875,33.855],[20.959,33.99],[21.03,34.128],[21.109,34.264],[21.174,34.404],[21.234,34.545],[21.281,34.689],[21.328,34.833],[21.376,34.977],[21.424,35.122],[21.472,35.266],[21.521,35.411],[21.57,35.556],[21.625,35.7],[21.695,35.841],[21.765,35.982],[21.788,36.133],[21.738,36.301],[21.641,36.48],[21.542,36.66],[21.45,36.837],[21.357,37.015],[21.263,37.194],[21.169,37.372],[21.081,37.549],[20.971,37.73],[20.853,37.913],[20.713,38.101],[20.571,38.283],[20.423,38.453],[20.275,38.624],[20.127,38.801],[19.989,38.987],[19.871,39.169],[19.781,39.345],[19.705,39.519],[19.603,39.663],[19.461,39.778],[19.288,39.868],[19.106,39.96],[18.926,40.056],[18.755,40.163],[18.579,40.305]]}},{"type":"Feature","properties":{"kind":"occl","line":1,"px_len":73},"geometry":{"type":"LineString","coordinates":[[-38.329,49.257],[-38.278,49.047],[-38.215,48.863],[-38.145,48.675],[-38.062,48.495],[-38.014,48.295],[-37.999,48.081],[-38.029,47.865],[-38.097,47.674],[-38.197,47.506],[-38.307,47.347],[-38.405,47.179],[-38.483,46.998],[-38.541,46.804],[-38.58,46.598],[-38.649,46.413],[-38.755,46.254],[-38.898,46.122],[-39.033,45.984],[-39.167,45.847],[-39.294,45.705],[-39.421,45.563],[-39.534,45.413],[-39.634,45.263],[-39.733,45.095]]}},{"type":"Feature","properties":{"kind":"cold","line":1,"px_len":233},"geometry":{"type":"LineString","coordinates":[[-39.733,45.095],[-39.856,44.945],[-39.96,44.799],[-40.069,44.649],[-40.183,44.503],[-40.303,44.361],[-40.427,44.223],[-40.545,44.081],[-40.662,43.939],[-40.773,43.793],[-40.882,43.647],[-40.973,43.489],[-41.057,43.326],[-41.158,43.176],[-41.301,43.054],[-41.478,42.956],[-41.661,42.862],[-41.842,42.767],[-42.011,42.664],[-42.174,42.557],[-42.323,42.441],[-42.484,42.334],[-42.643,42.226],[-42.802,42.117],[-42.942,41.997],[-43.094,41.885],[-43.25,41.776],[-43.412,41.671],[-43.573,41.565],[-43.733,41.459],[-43.898,41.357],[-44.057,41.251],[-44.22,41.148],[-44.371,41.038],[-44.515,40.923],[-44.647,40.801],[-44.778,40.679],[-44.908,40.557],[-45.019,40.424],[-45.148,40.302],[-45.323,40.208],[-45.546,40.143],[-45.785,40.088],[-46.0,40.018],[-46.208,39.944],[-46.398,39.859],[-46.581,39.77],[-46.757,39.677],[-46.939,39.587],[-47.12,39.497],[-47.299,39.406],[-47.473,39.312],[-47.651,39.221],[-47.829,39.129],[-48.012,39.04],[-48.194,38.951],[-48.376,38.862],[-48.545,38.766],[-48.713,38.669],[-48.874,38.569],[-49.023,38.462],[-49.153,38.345],[-49.282,38.228],[-49.411,38.11],[-49.561,38.018],[-49.748,37.953],[-49.988,37.916],[-50.254,37.878],[-50.505,37.825],[-50.75,37.768],[-50.97,37.698],[-51.189,37.628],[-51.389,37.547],[-51.583,37.464],[-51.764,37.373],[-51.938,37.28],[-52.127,37.22],[-52.279,37.195],[-52.396,37.205]]}},{"type":"Feature","properties":{"kind":"warm","line":2,"px_len":171},"geometry":{"type":"LineString","coordinates":[[29.044,49.562],[29.086,49.739],[29.113,49.907],[29.134,50.083],[29.156,50.26],[29.178,50.437],[29.209,50.612],[29.295,50.772],[29.437,50.917],[29.635,51.048],[29.843,51.175],[30.062,51.3],[30.273,51.427],[30.486,51.553],[30.691,51.682],[30.879,51.815],[31.059,51.951],[31.231,52.089],[31.423,52.222],[31.626,52.352],[31.84,52.478],[32.065,52.602],[32.263,52.733],[32.454,52.867],[32.617,53.009],[32.801,53.145],[32.967,53.287],[33.126,53.431],[33.266,53.581],[33.465,53.713],[33.742,53.822],[34.098,53.906],[34.458,53.952],[34.813,53.976],[35.163,53.994],[35.512,54.048],[35.878,54.117],[36.204,54.206],[36.541,54.29],[36.824,54.394],[37.117,54.493],[37.393,54.598],[37.652,54.709],[37.885,54.829],[38.09,54.959],[38.298,55.089],[38.516,55.215],[38.717,55.348],[38.911,55.483],[39.134,55.608],[39.417,55.712],[39.768,55.789],[40.14,55.859],[40.523,55.923],[40.889,55.994],[41.218,56.077],[41.482,56.163],[41.699,56.244]]}},{"type":"Feature","properties":{"kind":"occl","line":3,"px_len":85},"geometry":{"type":"LineString","coordinates":[[48.814,47.86],[49.135,47.894],[49.452,47.914],[49.788,47.912],[50.106,47.895],[50.392,47.863],[50.67,47.853],[50.954,47.863],[51.252,47.898],[51.569,47.918],[51.893,47.925],[52.203,47.896],[52.475,47.892],[52.715,47.919],[52.939,48.001],[53.158,48.088],[53.371,48.179],[53.586,48.269],[53.808,48.354],[54.024,48.443],[54.248,48.527],[54.46,48.619],[54.679,48.707],[54.894,48.799],[55.115,48.885],[55.332,48.976],[55.555,49.061],[55.76,49.152],[55.975,49.255]]}},{"type":"Feature","properties":{"kind":"occl","line":4,"px_len":132},"geometry":{"type":"LineString","coordinates":[[19.651,58.036],[19.888,58.193],[20.073,58.344],[20.299,58.496],[20.567,58.622],[20.919,58.73],[21.298,58.806],[21.683,58.867],[22.06,58.907],[22.434,58.94],[22.82,58.99],[23.223,59.064],[23.646,59.168],[24.068,59.264],[24.457,59.303],[24.814,59.291],[25.154,59.252],[25.51,59.238],[25.871,59.228],[26.235,59.223],[26.594,59.211],[26.958,59.205],[27.322,59.196],[27.681,59.181],[28.029,59.152],[28.363,59.104],[28.696,59.055],[29.032,59.011],[29.398,59.003],[29.783,59.016],[30.174,59.035],[30.55,59.034],[30.91,59.015],[31.264,58.988],[31.617,58.96],[31.975,58.937],[32.349,58.93],[32.746,58.945],[33.143,58.988],[33.531,59.063],[33.888,59.159],[34.253,59.26],[34.643,59.354],[34.995,59.436],[35.284,59.512]]}},{"type":"Feature","properties":{"kind":"warm","line":5,"px_len":160},"geometry":{"type":"LineString","coordinates":[[44.193,58.819],[44.556,58.762],[44.89,58.708],[45.241,58.653],[45.599,58.602],[45.963,58.555],[46.294,58.487],[46.575,58.388],[46.798,58.254],[46.987,58.1],[47.181,57.95],[47.398,57.815],[47.637,57.695],[47.874,57.573],[48.094,57.442],[48.335,57.325],[48.583,57.212],[48.845,57.108],[49.081,56.989],[49.324,56.875],[49.58,56.769],[49.836,56.663],[50.081,56.551],[50.308,56.43],[50.558,56.323],[50.831,56.228],[51.126,56.147],[51.412,56.06],[51.656,55.95],[51.848,55.812],[51.99,55.647],[52.114,55.474],[52.237,55.3],[52.382,55.139],[52.543,54.988],[52.702,54.836],[52.859,54.684],[53.031,54.541],[53.218,54.406],[53.395,54.267],[53.595,54.14],[53.801,54.017],[54.022,53.903],[54.217,53.775],[54.427,53.656],[54.659,53.549],[54.914,53.454],[55.152,53.35],[55.347,53.225],[55.486,53.07],[55.575,52.891],[55.64,52.699],[55.681,52.505],[55.736,52.3]]}},{"type":"Feature","properties":{"kind":"cold","line":6,"px_len":553},"geometry":{"type":"LineString","coordinates":[[-46.515,34.057],[-46.386,34.17],[-46.254,34.267],[-46.102,34.357],[-45.939,34.441],[-45.764,34.518],[-45.579,34.588],[-45.408,34.667],[-45.274,34.77],[-45.166,34.89],[-45.068,35.018],[-44.953,35.134],[-44.838,35.251],[-44.722,35.368],[-44.606,35.484],[-44.484,35.597],[-44.35,35.703],[-44.211,35.805],[-44.065,35.903],[-43.93,36.008],[-43.784,36.106],[-43.647,36.211],[-43.494,36.305],[-43.356,36.409],[-43.207,36.506],[-43.068,36.611],[-42.928,36.715],[-42.783,36.815],[-42.642,36.918],[-42.484,37.01],[-42.342,37.114],[-42.183,37.205],[-42.029,37.301],[-41.853,37.38],[-41.671,37.456],[-41.484,37.527],[-41.322,37.618],[-41.186,37.727],[-41.075,37.855],[-40.964,37.983],[-40.858,38.115],[-40.74,38.239],[-40.617,38.359],[-40.482,38.472],[-40.33,38.572],[-40.178,38.672],[-40.025,38.772],[-39.888,38.884],[-39.749,38.995],[-39.61,39.107],[-39.471,39.218],[-39.325,39.325],[-39.168,39.423],[-39.01,39.522],[-38.857,39.624],[-38.73,39.746],[-38.602,39.869],[-38.473,39.991],[-38.328,40.101],[-38.182,40.21],[-38.035,40.32],[-37.871,40.416],[-37.707,40.513],[-37.526,40.596],[-37.345,40.679],[-37.168,40.766],[-37.027,40.883],[-36.917,41.024],[-36.817,41.175],[-36.717,41.325],[-36.599,41.463],[-36.476,41.596],[-36.336,41.716],[-36.206,41.844],[-36.07,41.969],[-35.927,42.088],[-35.789,42.212],[-35.645,42.332],[-35.511,42.46],[-35.365,42.579],[-35.23,42.707],[-35.088,42.83],[-34.95,42.958],[-34.806,43.081],[-34.673,43.213],[-34.533,43.34],[-34.397,43.471],[-34.245,43.589],[-34.091,43.707],[-33.937,43.825],[-33.782,43.942],[-33.621,44.055],[-33.448,44.158],[-33.275,44.26],[-33.105,44.368],[-32.967,44.502],[-32.86,44.665],[-32.773,44.846],[-32.68,45.023],[-32.57,45.186],[-32.454,45.344],[-32.326,45.493],[-32.192,45.637],[-32.052,45.776],[-31.905,45.91],[-31.763,46.049],[-31.614,46.183],[-31.469,46.322],[-31.319,46.455],[-31.172,46.594],[-31.019,46.727],[-30.866,46.861],[-30.705,46.989],[-30.539,47.112],[-30.371,47.235],[-30.197,47.353],[-30.016,47.465],[-29.824,47.567],[-29.641,47.679],[-29.441,47.776],[-29.241,47.872],[-29.023,47.953],[-28.842,48.069],[-28.68,48.204],[-28.544,48.365],[-28.406,48.525],[-28.268,48.685],[-28.117,48.836],[-27.96,48.98],[-27.786,49.11],[-27.606,49.234],[-27.414,49.347],[-27.225,49.465],[-27.036,49.583],[-26.846,49.701],[-26.654,49.818],[-26.456,49.93],[-26.262,50.047],[-26.061,50.158],[-25.865,50.274],[-25.661,50.384],[-25.462,50.499],[-25.257,50.608],[-25.045,50.712],[-24.822,50.805],[-24.592,50.892],[-24.362,50.978],[-24.13,51.063],[-23.882,51.132],[-23.648,51.217],[-23.443,51.334],[-23.276,51.494],[-23.123,51.67],[-22.963,51.841],[-22.802,52.011],[-22.629,52.171],[-22.444,52.319],[-22.253,52.461],[-22.07,52.615],[-21.896,52.779],[-21.725,52.949],[-21.552,53.118],[-21.397,53.31],[-21.26,53.525],[-21.184,53.742],[-21.126,53.953],[-21.116,54.15],[-21.077,54.355],[-21.056,54.556],[-21.016,54.762],[-20.985,54.965],[-20.909,55.175],[-20.791,55.382],[-20.641,55.598],[-20.566,55.8],[-20.644,55.972],[-20.868,56.104],[-21.144,56.221],[-21.403,56.343],[-21.642,56.47],[-21.863,56.603],[-22.086,56.735],[-22.279,56.877],[-22.458,57.015],[-22.618,57.174]]}},{"type":"Feature","properties":{"kind":"occl","line":6,"px_len":219},"geometry":{"type":"LineString","coordinates":[[-22.618,57.174],[-22.812,57.324],[-22.996,57.462],[-23.187,57.605],[-23.349,57.758],[-23.523,57.907],[-23.751,58.041],[-24.014,58.163],[-24.301,58.279],[-24.568,58.401],[-24.805,58.532],[-25.033,58.666],[-25.242,58.806],[-25.475,58.939],[-25.731,59.065],[-26.022,59.18],[-26.348,59.284],[-26.676,59.387],[-27.006,59.489],[-27.317,59.597],[-27.598,59.716],[-27.86,59.841],[-28.102,59.973],[-28.336,60.108],[-28.528,60.258],[-28.7,60.415],[-28.874,60.572],[-29.061,60.725],[-29.24,60.882],[-29.398,61.046],[-29.524,61.222],[-29.641,61.402],[-29.748,61.585],[-29.868,61.765],[-30.024,61.933],[-30.216,62.089],[-30.444,62.233],[-30.675,62.377],[-30.908,62.52],[-31.144,62.663],[-31.383,62.806],[-31.624,62.948],[-31.868,63.09],[-32.114,63.231],[-32.41,63.356],[-32.755,63.463],[-33.184,63.539],[-33.651,63.601],[-34.142,63.653],[-34.624,63.708],[-35.12,63.756],[-35.617,63.802],[-36.127,63.842],[-36.639,63.88],[-37.163,63.911],[-37.689,63.94],[-38.194,63.977],[-38.69,64.016],[-39.176,64.049],[-39.608,64.028],[-39.972,63.949],[-40.277,63.828],[-40.59,63.711],[-40.901,63.593],[-41.219,63.478],[-41.524,63.359],[-41.859,63.252],[-42.191,63.144],[-42.52,63.036],[-42.791,62.905],[-42.983,62.743],[-43.107,62.555],[-43.19,62.378],[-43.265,62.224]]}},{"type":"Feature","properties":{"kind":"warm","line":7,"px_len":171},"geometry":{"type":"LineString","coordinates":[[-11.044,48.008],[-11.041,48.189],[-11.024,48.36],[-11.0,48.539],[-10.986,48.716],[-10.998,48.888],[-11.064,49.049],[-11.176,49.201],[-11.326,49.346],[-11.485,49.488],[-11.637,49.633],[-11.771,49.781],[-11.898,49.931],[-12.016,50.083],[-12.126,50.237],[-12.218,50.394],[-12.302,50.554],[-12.387,50.714],[-12.5,50.868],[-12.615,51.022],[-12.73,51.176],[-12.818,51.336],[-12.907,51.496],[-13.025,51.65],[-13.144,51.804],[-13.245,51.962],[-13.318,52.127],[-13.382,52.294],[-13.456,52.459],[-13.512,52.628],[-13.558,52.799],[-13.654,52.96],[-13.82,53.106],[-14.058,53.236],[-14.337,53.357],[-14.608,53.479],[-14.881,53.601],[-15.126,53.729],[-15.372,53.856],[-15.601,53.988],[-15.811,54.123],[-16.013,54.261],[-16.216,54.399],[-16.421,54.536],[-16.638,54.671],[-16.867,54.803],[-17.098,54.934],[-17.331,55.065],[-17.576,55.192],[-17.833,55.317],[-18.081,55.444],[-18.311,55.575],[-18.564,55.701],[-18.86,55.815],[-19.215,55.906],[-19.579,55.958],[-19.903,55.978],[-20.17,55.976]]}},{"type":"Feature","properties":{"kind":"occl","line":8,"px_len":45},"geometry":{"type":"LineString","coordinates":[[79.124,56.958],[79.432,57.03],[79.715,57.103],[80.005,57.189],[80.299,57.269],[80.592,57.354],[80.886,57.438],[81.179,57.528],[81.473,57.617],[81.73,57.733],[81.9,57.877],[81.991,58.058],[82.029,58.244],[82.068,58.431],[82.116,58.599],[82.186,58.749]]}}]}