{"type":"FeatureCollection","properties":{"chart":"fc","src":"Z__C_EDZW_20261009034442_nwv01,ico_tkb_na_N_000036_000000_202610090000_WV12.png","valid_time":"2026-10-10T12:00:00+00:00"},"features":[{"type":"Feature","properties":{"kind":"warm","line":0,"px_len":232},"geometry":{"type":"LineString","coordinates":[[-13.919,44.51],[-14.111,44.639],[-14.258,44.766],[-14.402,44.901],[-14.547,45.036],[-14.692,45.171],[-14.839,45.306],[-14.986,45.44],[-15.135,45.575],[-15.268,45.713],[-15.395,45.854],[-15.514,45.997],[-15.625,46.142],[-15.746,46.285],[-15.86,46.43],[-15.958,46.58],[-16.023,46.739],[-16.09,46.898],[-16.206,47.043],[-16.365,47.177],[-16.575,47.296],[-16.811,47.408],[-17.074,47.512],[-17.346,47.612],[-17.603,47.717],[-17.836,47.829],[-18.046,47.947],[-18.248,48.068],[-18.443,48.191],[-18.64,48.313],[-18.83,48.438],[-19.037,48.557],[-19.238,48.679],[-19.448,48.797],[-19.651,48.918],[-19.839,49.043],[-20.01,49.174],[-20.166,49.31],[-20.323,49.446],[-20.464,49.588],[-20.589,49.735],[-20.733,49.876],[-20.929,50.0],[-21.178,50.107],[-21.466,50.179],[-21.773,50.23],[-22.101,50.266],[-22.445,50.318],[-22.798,50.379],[-23.141,50.45],[-23.459,50.529],[-23.753,50.616],[-24.048,50.702],[-24.354,50.785],[-24.669,50.863],[-24.994,50.937],[-25.329,51.006],[-25.665,51.074],[-26.011,51.138],[-26.341,51.207],[-26.681,51.271],[-26.997,51.345],[-27.297,51.424],[-27.557,51.52],[-27.818,51.616],[-28.123,51.692],[-28.479,51.747],[-28.832,51.763],[-29.144,51.743],[-29.402,51.675],[-29.636,51.586],[-29.857,51.486],[-30.076,51.386],[-30.294,51.286],[-30.512,51.185],[-30.727,51.084],[-30.922,50.976],[-31.101,50.835]]}},{"type":"Feature","properties":{"kind":"cold","line":0,"px_len":90},"geometry":{"type":"LineString","coordinates":[[-31.101,50.835],[-31.114,50.608],[-31.108,50.407],[-31.08,50.209],[-31.053,50.012],[-31.041,49.806],[-31.045,49.594],[-31.064,49.374],[-31.095,49.156],[-31.17,48.956],[-31.303,48.795],[-31.48,48.674],[-31.679,48.572],[-31.877,48.47],[-32.074,48.367],[-32.27,48.264],[-32.465,48.16],[-32.653,48.052],[-32.828,47.933],[-33.003,47.814],[-33.182,47.7],[-33.371,47.595],[-33.56,47.489],[-33.747,47.384],[-33.934,47.277],[-34.119,47.171],[-34.309,47.069],[-34.51,46.975],[-34.71,46.882],[-34.901,46.809],[-35.076,46.752]]}},{"type":"Feature","properties":{"kind":"warm","line":0,"px_len":104},"geometry":{"type":"LineString","coordinates":[[-35.076,46.752],[-35.28,46.653],[-35.482,46.571],[-35.707,46.498],[-35.943,46.433],[-36.19,46.377],[-36.436,46.32],[-36.682,46.262],[-36.939,46.212],[-37.207,46.171],[-37.481,46.132],[-37.76,46.098],[-38.051,46.08],[-38.348,46.082],[-38.644,46.1],[-38.947,46.121],[-39.263,46.133],[-39.578,46.126],[-39.862,46.089],[-40.1,46.021],[-40.294,45.924],[-40.487,45.826],[-40.673,45.723],[-40.87,45.629],[-41.066,45.534],[-41.268,45.443],[-41.475,45.355],[-41.681,45.267],[-41.88,45.174],[-42.079,45.081],[-42.257,44.976],[-42.447,44.878],[-42.616,44.768],[-42.785,44.658],[-42.901,44.563],[-42.984,44.495]]}},{"type":"Feature","properties":{"kind":"cold","line":0,"px_len":192},"geometry":{"type":"LineString","coordinates":[[-42.984,44.495],[-43.182,44.395],[-43.336,44.285],[-43.482,44.162],[-43.608,44.027],[-43.733,43.892],[-43.858,43.757],[-43.981,43.623],[-44.104,43.488],[-44.207,43.341],[-44.303,43.191],[-44.38,43.03],[-44.437,42.858],[-44.519,42.7],[-44.638,42.565],[-44.799,42.457],[-44.959,42.348],[-45.119,42.238],[-45.271,42.125],[-45.423,42.012],[-45.555,41.887],[-45.687,41.762],[-45.817,41.638],[-45.947,41.513],[-46.076,41.388],[-46.205,41.263],[-46.345,41.145],[-46.49,41.03],[-46.635,40.916],[-46.767,40.794],[-46.891,40.668],[-47.022,40.546],[-47.163,40.43],[-47.304,40.315],[-47.438,40.196],[-47.572,40.077],[-47.71,39.961],[-47.848,39.845],[-47.985,39.728],[-48.122,39.612],[-48.264,39.499],[-48.405,39.386],[-48.545,39.272],[-48.691,39.162],[-48.824,39.045],[-48.95,38.924],[-49.064,38.797],[-49.177,38.67],[-49.289,38.543],[-49.4,38.416],[-49.511,38.288],[-49.651,38.177],[-49.827,38.085],[-50.032,38.008],[-50.236,37.93],[-50.433,37.849],[-50.624,37.765],[-50.802,37.674],[-50.967,37.576],[-51.126,37.475],[-51.284,37.373],[-51.441,37.272],[-51.585,37.164],[-51.712,37.067],[-51.82,36.981]]}},{"type":"Feature","properties":{"kind":"cold","line":1,"px_len":411},"geometry":{"type":"LineString","coordinates":[[-5.45,45.152],[-5.216,45.185],[-4.993,45.198],[-4.759,45.2],[-4.519,45.183],[-4.281,45.172],[-4.05,45.183],[-3.827,45.23],[-3.611,45.305],[-3.395,45.38],[-3.177,45.455],[-2.955,45.511],[-2.729,45.554],[-2.499,45.579],[-2.27,45.609],[-2.043,45.651],[-1.815,45.692],[-1.586,45.727],[-1.354,45.748],[-1.125,45.781],[-0.896,45.82],[-0.666,45.858],[-0.435,45.889],[-0.205,45.926],[0.026,45.962],[0.257,46.003],[0.488,46.038],[0.72,46.072],[0.953,46.105],[1.188,46.12],[1.422,46.14],[1.659,46.147],[1.894,46.16],[2.131,46.165],[2.366,46.177],[2.599,46.23],[2.829,46.312],[3.058,46.419],[3.289,46.512],[3.523,46.593],[3.758,46.661],[3.994,46.717],[4.231,46.771],[4.469,46.819],[4.708,46.873],[4.947,46.925],[5.186,46.983],[5.427,47.041],[5.667,47.098],[5.909,47.154],[6.151,47.209],[6.394,47.264],[6.638,47.318],[6.883,47.371],[7.128,47.424],[7.373,47.47],[7.619,47.509],[7.865,47.541],[8.112,47.573],[8.358,47.592],[8.604,47.597],[8.849,47.602],[9.095,47.606],[9.344,47.647],[9.596,47.717],[9.853,47.829],[10.112,47.94],[10.371,48.045],[10.631,48.143],[10.891,48.222],[11.149,48.287],[11.408,48.346],[11.668,48.411],[11.93,48.48],[12.193,48.543],[12.457,48.611],[12.72,48.672],[12.986,48.738],[13.254,48.81],[13.524,48.887],[13.796,48.964],[14.068,49.039],[14.34,49.108],[14.611,49.164],[14.879,49.206],[15.145,49.235],[15.411,49.264],[15.678,49.292],[15.927,49.359],[16.139,49.467],[16.333,49.608],[16.511,49.758],[16.719,49.904],[16.958,50.046],[17.226,50.184],[17.507,50.32],[17.789,50.455],[18.084,50.589],[18.37,50.722],[18.649,50.857],[18.921,50.992],[19.195,51.126],[19.46,51.261],[19.699,51.399],[19.939,51.537],[20.162,51.678],[20.386,51.818],[20.612,51.958],[20.85,52.096],[21.12,52.228],[21.401,52.358],[21.695,52.486],[21.951,52.62],[22.128,52.767],[22.236,52.926],[22.315,53.09],[22.415,53.251],[22.526,53.41],[22.638,53.57],[22.761,53.727],[22.896,53.883],[23.043,54.036],[23.16,54.195],[23.288,54.353],[23.407,54.512],[23.527,54.671],[23.627,54.834],[23.749,54.993],[23.872,55.152],[24.019,55.308],[24.177,55.461],[24.369,55.608],[24.574,55.753],[24.803,55.893],[25.066,56.027],[25.375,56.151],[25.599,56.272],[25.724,56.391]]}},{"type":"Feature","properties":{"kind":"stat","line":1,"px_len":51},"geometry":{"type":"LineString","coordinates":[[25.724,56.391],[25.594,56.595],[25.405,56.768],[25.169,56.929],[24.93,57.09],[24.693,57.256],[24.453,57.422],[24.207,57.582],[23.954,57.735],[23.695,57.881],[23.431,58.02],[23.152,58.14],[22.869,58.253],[22.572,58.347],[22.27,58.434],[21.957,58.501],[21.681,58.569],[21.447,58.643]]}},{"type":"Feature","properties":{"kind":"occl","line":1,"px_len":154},"geometry":{"type":"LineString","coordinates":[[21.447,58.643],[21.101,58.678],[20.775,58.702],[20.434,58.72],[20.092,58.738],[19.744,58.742],[19.393,58.738],[19.033,58.714],[18.666,58.67],[18.293,58.605],[17.915,58.527],[17.543,58.453],[17.174,58.385],[16.821,58.354],[16.482,58.36],[16.147,58.378],[15.814,58.402],[15.478,58.418],[15.146,58.445],[14.813,58.472],[14.48,58.498],[14.146,58.523],[13.811,58.547],[13.481,58.589],[13.154,58.65],[12.83,58.729],[12.505,58.808],[12.175,58.872],[11.843,58.929],[11.508,58.978],[11.173,59.033],[10.839,59.1],[10.506,59.179],[10.173,59.277],[9.84,59.387],[9.506,59.515],[9.172,59.669],[8.836,59.829],[8.496,59.994],[8.152,60.158],[7.804,60.335],[7.467,60.517],[7.178,60.697],[6.927,60.877],[6.672,61.057],[6.359,61.223],[6.029,61.382],[5.708,61.54],[5.426,61.71],[5.167,61.887],[4.948,62.058],[4.711,62.241]]}},{"type":"Feature","properties":{"kind":"warm","line":2,"px_len":91},"geometry":{"type":"LineString","coordinates":[[27.296,50.679],[27.223,50.837],[27.235,50.995],[27.285,51.164],[27.354,51.329],[27.424,51.494],[27.523,51.652],[27.652,51.803],[27.781,51.954],[27.931,52.101],[28.062,52.252],[28.166,52.41],[28.204,52.584],[28.184,52.774],[28.114,52.975],[28.005,53.185],[27.904,53.394],[27.812,53.6],[27.749,53.8],[27.695,53.997],[27.651,54.192],[27.585,54.393],[27.489,54.6],[27.366,54.806],[27.208,54.999],[27.016,55.178],[26.808,55.353],[26.608,55.546],[26.415,55.751],[26.218,55.936],[25.977,56.094]]}},{"type":"Feature","properties":{"kind":"cold","line":3,"px_len":191},"geometry":{"type":"LineString","coordinates":[[-55.75,38.774],[-55.561,38.832],[-55.405,38.923],[-55.265,39.04],[-55.098,39.146],[-54.917,39.246],[-54.709,39.334],[-54.494,39.42],[-54.304,39.515],[-54.159,39.631],[-54.052,39.763],[-53.931,39.89],[-53.81,40.017],[-53.688,40.144],[-53.578,40.276],[-53.455,40.403],[-53.324,40.526],[-53.186,40.646],[-53.054,40.77],[-52.915,40.89],[-52.787,41.016],[-52.646,41.136],[-52.518,41.262],[-52.382,41.384],[-52.252,41.51],[-52.121,41.636],[-51.996,41.764],[-51.87,41.892],[-51.737,42.018],[-51.603,42.143],[-51.482,42.274],[-51.366,42.409],[-51.25,42.543],[-51.133,42.677],[-51.016,42.812],[-50.877,42.936],[-50.738,43.061],[-50.597,43.185],[-50.477,43.319],[-50.348,43.45],[-50.206,43.574],[-50.055,43.695],[-49.89,43.808],[-49.717,43.918],[-49.557,44.035],[-49.437,44.172],[-49.365,44.332],[-49.306,44.499],[-49.24,44.663],[-49.152,44.817],[-49.056,44.967],[-48.953,45.115],[-48.856,45.265],[-48.744,45.409],[-48.646,45.559],[-48.533,45.703],[-48.44,45.857],[-48.325,46.001],[-48.231,46.155],[-48.121,46.303],[-48.025,46.457],[-47.921,46.608],[-47.817,46.759],[-47.728,46.873],[-47.657,46.95]]}},{"type":"Feature","properties":{"kind":"occl","line":3,"px_len":194},"geometry":{"type":"LineString","coordinates":[[-47.657,46.95],[-47.574,47.121],[-47.486,47.274],[-47.393,47.432],[-47.291,47.587],[-47.203,47.749],[-47.115,47.911],[-47.033,48.077],[-46.943,48.24],[-46.852,48.402],[-46.745,48.557],[-46.623,48.705],[-46.492,48.849],[-46.361,48.992],[-46.251,49.148],[-46.192,49.329],[-46.194,49.541],[-46.241,49.776],[-46.266,50.0],[-46.26,50.209],[-46.231,50.407],[-46.209,50.609],[-46.225,50.822],[-46.283,51.031],[-46.387,51.224],[-46.523,51.391],[-46.685,51.539],[-46.855,51.681],[-47.025,51.823],[-47.179,51.98],[-47.322,52.148],[-47.43,52.345],[-47.514,52.563],[-47.566,52.798],[-47.593,53.022],[-47.604,53.239],[-47.606,53.452],[-47.608,53.666],[-47.584,53.868],[-47.542,54.064],[-47.5,54.259],[-47.475,54.462],[-47.476,54.677],[-47.504,54.903],[-47.56,55.142],[-47.599,55.372],[-47.601,55.588],[-47.557,55.785],[-47.485,55.971],[-47.365,56.138],[-47.234,56.301],[-47.103,56.464],[-46.988,56.635],[-46.873,56.806],[-46.775,56.984],[-46.705,57.175],[-46.605,57.353],[-46.456,57.512],[-46.257,57.652],[-46.056,57.791],[-45.882,57.941],[-45.727,58.1],[-45.579,58.262],[-45.439,58.429],[-45.345,58.565],[-45.306,58.674]]}},{"type":"Feature","properties":{"kind":"cold","line":4,"px_len":138},"geometry":{"type":"LineString","coordinates":[[35.927,45.853],[36.177,45.949],[36.419,46.034],[36.674,46.12],[36.967,46.19],[37.256,46.24],[37.554,46.264],[37.831,46.275],[38.078,46.319],[38.286,46.401],[38.466,46.517],[38.646,46.633],[38.819,46.752],[39.009,46.864],[39.207,46.972],[39.429,47.07],[39.66,47.164],[39.899,47.254],[40.154,47.337],[40.396,47.426],[40.638,47.514],[40.867,47.609],[41.111,47.695],[41.35,47.785],[41.596,47.871],[41.837,47.959],[42.094,48.04],[42.351,48.12],[42.625,48.192],[42.899,48.263],[43.173,48.311],[43.447,48.358],[43.685,48.424],[43.89,48.529],[44.051,48.657],[44.207,48.788],[44.378,48.912],[44.557,49.031],[44.753,49.143],[44.957,49.25],[45.177,49.349],[45.406,49.444],[45.628,49.542],[45.844,49.644],[46.062,49.745],[46.269,49.827],[46.466,49.891]]}},{"type":"Feature","properties":{"kind":"occl","line":4,"px_len":325},"geometry":{"type":"LineString","coordinates":[[46.466,49.891],[46.685,49.999],[46.901,50.094],[47.124,50.193],[47.37,50.278],[47.625,50.36],[47.895,50.432],[48.166,50.503],[48.446,50.57],[48.705,50.648],[48.951,50.734],[49.162,50.841],[49.366,50.951],[49.55,51.075],[49.758,51.184],[49.988,51.281],[50.226,51.372],[50.473,51.459],[50.707,51.554],[50.913,51.666],[51.07,51.808],[51.2,51.969],[51.338,52.125],[51.492,52.271],[51.654,52.414],[51.825,52.551],[52.004,52.684],[52.199,52.807],[52.404,52.926],[52.609,53.044],[52.816,53.162],[53.024,53.279],[53.234,53.396],[53.445,53.513],[53.658,53.629],[53.872,53.745],[54.065,53.875],[54.261,54.004],[54.457,54.133],[54.677,54.248],[54.899,54.362],[55.144,54.461],[55.39,54.559],[55.652,54.648],[55.894,54.75],[56.109,54.871],[56.296,55.012],[56.471,55.162],[56.676,55.292],[56.898,55.412],[57.113,55.537],[57.331,55.661],[57.543,55.79],[57.756,55.918],[57.929,56.077],[58.074,56.255],[58.178,56.465],[58.284,56.674],[58.39,56.883],[58.52,57.077],[58.667,57.261],[58.822,57.44],[59.001,57.603],[59.182,57.766],[59.373,57.923],[59.55,58.091],[59.73,58.259],[59.912,58.426],[60.103,58.588],[60.303,58.745],[60.521,58.89],[60.755,59.025],[60.999,59.154],[61.238,59.287],[61.456,59.437],[61.626,59.624],[61.746,59.849],[61.846,60.09],[61.962,60.321],[62.11,60.53],[62.268,60.733],[62.436,60.931],[62.565,61.147],[62.645,61.363],[62.612,61.567],[62.484,61.742],[62.285,61.894],[62.072,62.042],[61.868,62.194],[61.686,62.353],[61.501,62.512],[61.326,62.675],[61.137,62.834],[60.969,63.0],[60.787,63.162],[60.603,63.324],[60.417,63.486],[60.216,63.644],[59.964,63.786],[59.684,63.919],[59.389,64.048],[59.104,64.18],[58.791,64.304],[58.462,64.423],[58.131,64.541],[57.783,64.654],[57.433,64.766],[57.102,64.877],[56.772,65.005]]}}]}