{"type":"FeatureCollection","properties":{"chart":"fc","src":"Z__C_EDZW_20261004044644_nwv01,ico_tkb_na_N_000048_000000_202610040000_WV12.png","valid_time":"2026-10-06T00:00:00+00:00"},"features":[{"type":"Feature","properties":{"kind":"cold","line":0,"px_len":348},"geometry":{"type":"LineString","coordinates":[[-32.177,45.099],[-31.984,45.199],[-31.793,45.281],[-31.584,45.357],[-31.374,45.433],[-31.159,45.503],[-30.947,45.578],[-30.73,45.647],[-30.517,45.721],[-30.304,45.794],[-30.084,45.862],[-29.869,45.934],[-29.648,46.0],[-29.441,46.081],[-29.224,46.151],[-29.015,46.231],[-28.791,46.296],[-28.581,46.375],[-28.356,46.438],[-28.134,46.506],[-27.897,46.558],[-27.66,46.609],[-27.441,46.68],[-27.251,46.781],[-27.089,46.912],[-26.931,47.048],[-26.772,47.184],[-26.607,47.315],[-26.432,47.435],[-26.25,47.55],[-26.062,47.659],[-25.883,47.778],[-25.698,47.892],[-25.517,48.011],[-25.334,48.129],[-25.155,48.252],[-24.975,48.375],[-24.79,48.493],[-24.607,48.615],[-24.429,48.743],[-24.249,48.87],[-24.063,48.992],[-23.876,49.113],[-23.688,49.234],[-23.503,49.36],[-23.312,49.48],[-23.125,49.606],[-22.932,49.726],[-22.737,49.845],[-22.541,49.964],[-22.335,50.072],[-22.132,50.185],[-21.914,50.281],[-21.709,50.393],[-21.475,50.472],[-21.254,50.566],[-21.018,50.644],[-20.79,50.732],[-20.538,50.791],[-20.308,50.878],[-20.103,50.998],[-19.924,51.151],[-19.747,51.31],[-19.564,51.463],[-19.375,51.61],[-19.171,51.74],[-18.958,51.858],[-18.738,51.97],[-18.513,52.075],[-18.291,52.186],[-18.068,52.297],[-17.843,52.407],[-17.612,52.511],[-17.38,52.614],[-17.147,52.717],[-16.912,52.819],[-16.68,52.927],[-16.446,53.034],[-16.212,53.14],[-15.971,53.241],[-15.733,53.346],[-15.49,53.445],[-15.245,53.544],[-14.999,53.642],[-14.752,53.739],[-14.503,53.836],[-14.245,53.92],[-13.99,54.01],[-13.726,54.087],[-13.456,54.157],[-13.183,54.221],[-12.908,54.283],[-12.628,54.339],[-12.345,54.389],[-12.063,54.443],[-11.802,54.533],[-11.555,54.653],[-11.317,54.791],[-11.071,54.916],[-10.815,55.028],[-10.555,55.134],[-10.284,55.22],[-10.011,55.306],[-9.728,55.372],[-9.452,55.456],[-9.166,55.521],[-8.888,55.604],[-8.6,55.668],[-8.316,55.743],[-8.025,55.805],[-7.739,55.878],[-7.448,55.945],[-7.157,56.01],[-6.864,56.075],[-6.568,56.133],[-6.309,56.198],[-6.086,56.265]]}},{"type":"Feature","properties":{"kind":"warm","line":0,"px_len":122},"geometry":{"type":"LineString","coordinates":[[-6.086,56.265],[-5.77,56.309],[-5.481,56.363],[-5.18,56.416],[-4.877,56.469],[-4.573,56.521],[-4.269,56.573],[-3.965,56.629],[-3.659,56.679],[-3.351,56.727],[-3.043,56.775],[-2.733,56.822],[-2.423,56.868],[-2.11,56.906],[-1.798,56.95],[-1.486,57.0],[-1.176,57.055],[-0.862,57.102],[-0.554,57.175],[-0.245,57.253],[0.063,57.343],[0.375,57.42],[0.689,57.495],[1.01,57.531],[1.339,57.527],[1.673,57.483],[2.006,57.438],[2.338,57.392],[2.668,57.358],[2.996,57.329],[3.322,57.319],[3.649,57.295],[3.974,57.283],[4.299,57.27],[4.623,57.275],[4.947,57.279],[5.271,57.283],[5.595,57.285],[5.919,57.286],[6.243,57.287],[6.495,57.286],[6.675,57.286]]}},{"type":"Feature","properties":{"kind":"cold","line":0,"px_len":289},"geometry":{"type":"LineString","coordinates":[[6.675,57.286],[7.011,57.284],[7.323,57.281],[7.647,57.277],[7.972,57.285],[8.297,57.299],[8.622,57.311],[8.948,57.323],[9.274,57.333],[9.601,57.356],[9.929,57.371],[10.255,57.378],[10.58,57.372],[10.904,57.358],[11.228,57.343],[11.551,57.327],[11.874,57.31],[12.198,57.299],[12.529,57.325],[12.867,57.376],[13.212,57.452],[13.555,57.514],[13.899,57.575],[14.242,57.622],[14.584,57.661],[14.925,57.693],[15.264,57.717],[15.604,57.74],[15.945,57.762],[16.288,57.79],[16.632,57.816],[16.979,57.847],[17.326,57.878],[17.677,57.914],[18.026,57.942],[18.378,57.975],[18.733,58.014],[19.092,58.058],[19.455,58.107],[19.816,58.149],[20.185,58.202],[20.554,58.253],[20.931,58.316],[21.303,58.366],[21.67,58.401],[22.031,58.422],[22.389,58.437],[22.75,58.456],[23.079,58.506],[23.359,58.605],[23.576,58.748],[23.775,58.9],[23.976,59.053],[24.203,59.201],[24.457,59.345],[24.726,59.486],[25.009,59.624],[25.283,59.764],[25.547,59.905],[25.79,60.051],[26.034,60.196],[26.294,60.338],[26.543,60.482],[26.783,60.628],[27.0,60.778],[27.231,60.926],[27.44,61.078],[27.664,61.227],[27.891,61.376],[28.145,61.52],[28.39,61.666],[28.663,61.806],[28.938,61.946],[29.256,62.077],[29.564,62.211],[29.875,62.343],[30.176,62.478],[30.453,62.617],[30.734,62.756],[31.004,62.897],[31.29,63.035],[31.607,63.167],[31.966,63.289],[32.302,63.416],[32.481,63.577],[32.512,63.772],[32.462,63.984],[32.467,64.184],[32.499,64.379],[32.546,64.571],[32.593,64.763],[32.642,64.955],[32.676,65.15],[32.712,65.346],[32.748,65.541],[32.821,65.722],[32.925,65.912]]}},{"type":"Feature","properties":{"kind":"occl","line":0,"px_len":159},"geometry":{"type":"LineString","coordinates":[[32.925,65.912],[33.06,66.095],[33.197,66.264],[33.344,66.438],[33.493,66.613],[33.629,66.791],[33.783,66.965],[33.923,67.143],[34.066,67.32],[34.211,67.498],[34.359,67.675],[34.525,67.849],[34.709,68.02],[34.929,68.184],[35.168,68.345],[35.41,68.505],[35.657,68.665],[35.874,68.832],[36.013,69.015],[36.087,69.212],[36.13,69.416],[36.207,69.613],[36.32,69.803],[36.487,69.983],[36.674,70.16],[36.812,70.347],[36.882,70.547],[36.883,70.762],[36.779,70.974],[36.567,71.181],[36.251,71.375],[35.917,71.563],[35.566,71.744],[35.219,71.93],[34.886,72.128],[34.555,72.331],[34.196,72.522],[33.796,72.694],[33.367,72.853],[32.919,73.005],[32.442,73.143],[31.946,73.275],[31.432,73.398],[30.911,73.521],[30.371,73.636],[29.824,73.749],[29.269,73.861],[28.707,73.971],[28.136,74.08],[27.558,74.188],[26.971,74.293],[26.386,74.404],[25.848,74.493],[25.36,74.561]]}},{"type":"Feature","properties":{"kind":"warm","line":1,"px_len":161},"geometry":{"type":"LineString","coordinates":[[31.686,54.169],[31.788,54.338],[31.882,54.496],[31.982,54.66],[32.102,54.818],[32.204,54.982],[32.306,55.146],[32.42,55.307],[32.535,55.469],[32.641,55.633],[32.748,55.797],[32.876,55.955],[33.016,56.11],[33.137,56.271],[33.249,56.436],[33.382,56.594],[33.549,56.743],[33.728,56.889],[33.908,57.035],[34.09,57.181],[34.295,57.32],[34.469,57.469],[34.592,57.632],[34.631,57.821],[34.605,58.028],[34.568,58.238],[34.542,58.446],[34.548,58.644],[34.565,58.84],[34.605,59.029],[34.657,59.216],[34.721,59.4],[34.786,59.583],[34.851,59.767],[34.917,59.951],[34.984,60.135],[35.052,60.32],[35.11,60.507],[35.167,60.695],[35.202,60.889],[35.226,61.086],[35.214,61.294],[35.189,61.505],[35.164,61.715],[35.126,61.93],[35.088,62.144],[34.999,62.372],[34.855,62.583],[34.636,62.774],[34.366,62.923],[34.064,63.049],[33.753,63.168],[33.426,63.275],[33.168,63.356],[32.969,63.401]]}},{"type":"Feature","properties":{"kind":"occl","line":2,"px_len":507},"geometry":{"type":"LineString","coordinates":[[41.986,48.024],[42.136,48.163],[42.278,48.293],[42.448,48.416],[42.619,48.539],[42.791,48.662],[42.942,48.796],[43.094,48.929],[43.247,49.062],[43.416,49.188],[43.594,49.31],[43.773,49.431],[43.938,49.56],[44.111,49.685],[44.294,49.805],[44.485,49.922],[44.678,50.038],[44.887,50.146],[45.066,50.27],[45.209,50.412],[45.33,50.567],[45.453,50.721],[45.599,50.864],[45.746,51.006],[45.91,51.14],[46.06,51.282],[46.211,51.424],[46.333,51.582],[46.439,51.748],[46.501,51.939],[46.531,52.146],[46.538,52.366],[46.546,52.586],[46.585,52.79],[46.641,52.986],[46.714,53.173],[46.795,53.357],[46.886,53.537],[46.969,53.721],[47.053,53.905],[47.13,54.094],[47.216,54.278],[47.295,54.467],[47.382,54.651],[47.463,54.84],[47.553,55.025],[47.652,55.206],[47.786,55.37],[47.93,55.529],[48.093,55.68],[48.248,55.835],[48.422,55.981],[48.555,56.149],[48.646,56.339],[48.696,56.55],[48.754,56.758],[48.84,56.952],[48.971,57.124],[49.111,57.292],[49.254,57.46],[49.344,57.655],[49.419,57.859],[49.423,58.071],[49.402,58.287],[49.336,58.507],[49.322,58.729],[49.344,58.942],[49.403,59.156],[49.481,59.361],[49.561,59.566],[49.66,59.763],[49.761,59.959],[49.873,60.151],[49.996,60.339],[50.111,60.531],[50.237,60.718],[50.365,60.906],[50.504,61.089],[50.646,61.272],[50.779,61.46],[50.924,61.643],[51.071,61.826],[51.23,62.004],[51.381,62.187],[51.534,62.37],[51.7,62.548],[51.888,62.716],[52.098,62.875],[52.332,63.024],[52.568,63.172],[52.828,63.31],[53.1,63.444],[53.396,63.566],[53.674,63.698],[53.914,63.85],[54.127,64.016],[54.332,64.186],[54.581,64.336],[54.843,64.481],[55.129,64.616],[55.419,64.75],[55.711,64.883],[55.976,65.031],[56.202,65.199],[56.37,65.398],[56.531,65.602],[56.684,65.812],[56.871,66.005],[57.071,66.193],[57.297,66.371],[57.547,66.538],[57.811,66.699],[58.079,66.86],[58.361,67.015],[58.648,67.169],[58.949,67.318],[59.243,67.472],[59.542,67.625],[59.834,67.783],[60.13,67.94],[60.421,68.103],[60.715,68.265],[61.004,68.432],[61.297,68.599],[61.573,68.776],[61.844,68.959],[62.109,69.147],[62.367,69.34],[62.62,69.539],[62.868,69.743],[63.109,69.952],[63.356,70.162],[63.575,70.388],[63.81,70.609],[64.018,70.846],[64.231,71.084],[64.416,71.339],[64.639,71.576],[64.904,71.796],[65.186,72.01],[65.444,72.225],[65.615,72.448],[65.699,72.663],[65.762,72.889],[65.826,73.116],[65.788,73.326],[65.581,73.507],[65.244,73.667],[64.857,73.82],[64.314,73.946],[63.657,74.052],[62.927,74.145],[62.273,74.251],[61.652,74.362],[61.064,74.48],[60.447,74.592],[59.862,74.71],[59.269,74.827],[58.751,74.96],[58.181,75.082],[57.665,75.216],[57.14,75.349],[56.626,75.485],[56.081,75.615],[55.527,75.744],[55.004,75.881],[54.493,76.022],[53.972,76.161],[53.435,76.27],[52.886,76.348]]}},{"type":"Feature","properties":{"kind":"warm","line":3,"px_len":197},"geometry":{"type":"LineString","coordinates":[[-56.87,39.227],[-56.776,39.371],[-56.694,39.507],[-56.649,39.664],[-56.657,39.842],[-56.718,40.042],[-56.801,40.25],[-56.877,40.455],[-56.927,40.65],[-56.943,40.833],[-56.938,41.007],[-56.92,41.177],[-56.908,41.349],[-56.924,41.533],[-56.986,41.727],[-57.091,41.911],[-57.218,42.077],[-57.364,42.216],[-57.517,42.345],[-57.672,42.474],[-57.817,42.618],[-57.949,42.783],[-58.068,42.97],[-58.189,43.157],[-58.306,43.349],[-58.432,43.531],[-58.559,43.713],[-58.694,43.884],[-58.83,44.055],[-58.968,44.225],[-59.102,44.402],[-59.239,44.578],[-59.35,44.766],[-59.432,44.957],[-59.485,45.152],[-59.546,45.35],[-59.635,45.55],[-59.762,45.736],[-59.923,45.885],[-60.114,45.99],[-60.312,46.083],[-60.515,46.17],[-60.712,46.268],[-60.913,46.36],[-61.112,46.457],[-61.309,46.559],[-61.499,46.673],[-61.688,46.791],[-61.871,46.921],[-62.058,47.044],[-62.243,47.173],[-62.437,47.29],[-62.631,47.407],[-62.823,47.529],[-63.017,47.651],[-63.211,47.773],[-63.414,47.882],[-63.617,47.991],[-63.818,48.106],[-64.018,48.226],[-64.228,48.328],[-64.461,48.39],[-64.725,48.392],[-65.004,48.364],[-65.285,48.311],[-65.487,48.258],[-65.612,48.201]]}},{"type":"Feature","properties":{"kind":"cold","line":3,"px_len":110},"geometry":{"type":"LineString","coordinates":[[-65.612,48.201],[-65.692,48.038],[-65.766,47.886],[-65.842,47.729],[-65.918,47.571],[-65.993,47.414],[-66.067,47.257],[-66.141,47.1],[-66.214,46.943],[-66.286,46.786],[-66.358,46.629],[-66.421,46.471],[-66.467,46.309],[-66.512,46.147],[-66.566,45.987],[-66.61,45.826],[-66.655,45.664],[-66.698,45.503],[-66.767,45.347],[-66.834,45.192],[-66.901,45.036],[-66.968,44.881],[-67.034,44.726],[-67.099,44.571],[-67.164,44.416],[-67.213,44.258],[-67.245,44.096],[-67.261,43.931],[-67.293,43.77],[-67.38,43.621],[-67.513,43.482],[-67.677,43.349],[-67.824,43.213],[-67.962,43.076],[-68.084,42.935],[-68.19,42.79],[-68.274,42.679],[-68.345,42.601]]}},{"type":"Feature","properties":{"kind":"occl","line":4,"px_len":91},"geometry":{"type":"LineString","coordinates":[[-65.772,48.411],[-65.993,48.517],[-66.199,48.618],[-66.417,48.715],[-66.639,48.806],[-66.862,48.896],[-67.075,49.01],[-67.281,49.14],[-67.481,49.289],[-67.685,49.43],[-67.888,49.578],[-68.098,49.713],[-68.315,49.836],[-68.548,49.923],[-68.79,49.99],[-69.033,50.058],[-69.269,50.142],[-69.501,50.238],[-69.728,50.352],[-69.954,50.472],[-70.174,50.609],[-70.408,50.715],[-70.651,50.796],[-70.91,50.84],[-71.171,50.878],[-71.43,50.92],[-71.686,50.974],[-71.942,51.028],[-72.202,51.075],[-72.426,51.135],[-72.607,51.241]]}}]}