{"type":"FeatureCollection","properties":{"chart":"fc","src":"Z__C_EDZW_20261008033627_nwv01,ico_tkb_na_N_000036_000000_202610080000_WV12.png","valid_time":"2026-10-09T12:00:00+00:00"},"features":[{"type":"Feature","properties":{"kind":"cold","line":0,"px_len":201},"geometry":{"type":"LineString","coordinates":[[5.11,35.761],[5.302,35.814],[5.481,35.849],[5.666,35.885],[5.852,35.903],[6.038,35.926],[6.225,35.937],[6.411,35.948],[6.598,35.941],[6.784,35.935],[6.971,35.966],[7.159,36.037],[7.348,36.124],[7.537,36.199],[7.727,36.262],[7.917,36.319],[8.107,36.36],[8.297,36.399],[8.487,36.433],[8.677,36.466],[8.868,36.498],[9.059,36.536],[9.251,36.573],[9.442,36.609],[9.634,36.634],[9.826,36.664],[10.018,36.688],[10.209,36.706],[10.4,36.712],[10.59,36.717],[10.781,36.728],[10.956,36.778],[11.114,36.869],[11.256,37.007],[11.407,37.149],[11.573,37.29],[11.762,37.429],[11.951,37.568],[12.142,37.707],[12.313,37.847],[12.477,37.987],[12.628,38.128],[12.78,38.27],[12.955,38.409],[13.15,38.534],[13.361,38.652],[13.514,38.776],[13.619,38.915],[13.659,39.068],[13.707,39.219],[13.741,39.372],[13.804,39.523],[13.854,39.675],[13.925,39.825],[13.998,39.975],[14.085,40.123],[14.166,40.273],[14.24,40.423],[14.315,40.573],[14.397,40.723],[14.472,40.874],[14.571,41.022],[14.671,41.17],[14.787,41.317],[14.888,41.465],[14.966,41.616],[15.003,41.754],[14.997,41.88]]}},{"type":"Feature","properties":{"kind":"cold","line":1,"px_len":151},"geometry":{"type":"LineString","coordinates":[[19.249,43.006],[19.479,42.997],[19.69,42.978],[19.91,42.964],[20.128,42.943],[20.346,42.921],[20.557,42.882],[20.768,42.842],[20.979,42.801],[21.202,42.795],[21.439,42.827],[21.692,42.899],[21.946,42.97],[22.199,43.035],[22.448,43.087],[22.692,43.127],[22.935,43.161],[23.174,43.183],[23.413,43.204],[23.647,43.213],[23.881,43.221],[24.11,43.217],[24.337,43.207],[24.563,43.196],[24.785,43.23],[25.002,43.308],[25.213,43.425],[25.432,43.54],[25.66,43.633],[25.913,43.72],[26.182,43.802],[26.453,43.902],[26.694,44.009],[26.897,44.127],[27.079,44.25],[27.261,44.373],[27.436,44.498],[27.597,44.627],[27.712,44.769],[27.78,44.924],[27.802,45.093],[27.807,45.266],[27.829,45.435],[27.866,45.6],[27.921,45.76],[27.983,45.919],[28.038,46.08],[28.102,46.238],[28.166,46.397],[28.252,46.544],[28.346,46.702]]}},{"type":"Feature","properties":{"kind":"warm","line":2,"px_len":172},"geometry":{"type":"LineString","coordinates":[[2.096,49.59],[2.354,49.688],[2.594,49.798],[2.844,49.907],[3.096,50.016],[3.35,50.118],[3.606,50.213],[3.864,50.289],[4.124,50.358],[4.385,50.42],[4.647,50.474],[4.911,50.504],[5.175,50.538],[5.439,50.566],[5.704,50.63],[5.969,50.725],[6.226,50.869],[6.445,51.031],[6.606,51.2],[6.719,51.369],[6.832,51.538],[6.967,51.706],[7.134,51.875],[7.292,52.043],[7.472,52.211],[7.654,52.379],[7.859,52.546],[8.065,52.713],[8.283,52.866],[8.524,53.013],[8.756,53.159],[8.981,53.318],[9.134,53.485],[9.213,53.655],[9.206,53.827],[9.168,54.0],[9.128,54.174],[9.078,54.348],[9.049,54.522],[9.031,54.695],[9.045,54.868],[9.027,55.041],[8.997,55.215],[8.921,55.391],[8.845,55.567],[8.757,55.743],[8.69,55.918],[8.634,56.094],[8.566,56.27],[8.509,56.446],[8.428,56.622],[8.323,56.799],[8.119,56.952],[7.852,57.073],[7.534,57.155],[7.213,57.204],[6.902,57.226],[6.567,57.228]]}},{"type":"Feature","properties":{"kind":"cold","line":2,"px_len":404},"geometry":{"type":"LineString","coordinates":[[6.567,57.228],[6.231,57.254],[5.92,57.215],[5.634,57.104],[5.353,56.933],[5.074,56.756],[4.764,56.578],[4.492,56.399],[4.246,56.22],[4.014,56.041],[3.75,55.874],[3.465,55.712],[3.172,55.55],[2.883,55.373],[2.62,55.191],[2.393,55.009],[2.177,54.853],[1.934,54.746],[1.652,54.695],[1.358,54.655],[1.065,54.615],[0.775,54.554],[0.488,54.487],[0.204,54.406],[-0.076,54.311],[-0.355,54.216],[-0.629,54.107],[-0.9,53.991],[-1.171,53.881],[-1.441,53.777],[-1.71,53.671],[-1.973,53.547],[-2.229,53.402],[-2.482,53.258],[-2.729,53.093],[-2.975,52.935],[-3.229,52.814],[-3.497,52.748],[-3.775,52.719],[-4.053,52.689],[-4.326,52.646],[-4.595,52.589],[-4.858,52.52],[-5.121,52.449],[-5.38,52.372],[-5.639,52.294],[-5.894,52.21],[-6.15,52.13],[-6.403,52.044],[-6.656,51.964],[-6.909,51.883],[-7.16,51.801],[-7.408,51.713],[-7.652,51.617],[-7.893,51.515],[-8.127,51.401],[-8.357,51.28],[-8.58,51.146],[-8.812,51.036],[-9.061,50.967],[-9.325,50.935],[-9.591,50.907],[-9.848,50.861],[-10.105,50.814],[-10.361,50.766],[-10.617,50.717],[-10.863,50.65],[-11.108,50.583],[-11.346,50.502],[-11.59,50.433],[-11.832,50.364],[-12.073,50.294],[-12.314,50.223],[-12.553,50.151],[-12.795,50.085],[-13.033,50.013],[-13.27,49.939],[-13.509,49.871],[-13.744,49.797],[-13.974,49.716],[-14.194,49.617],[-14.412,49.518],[-14.633,49.424],[-14.873,49.364],[-15.133,49.338],[-15.403,49.329],[-15.666,49.307],[-15.929,49.285],[-16.18,49.244],[-16.435,49.209],[-16.682,49.161],[-16.932,49.119],[-17.181,49.076],[-17.429,49.032],[-17.681,48.993],[-17.933,48.953],[-18.184,48.913],[-18.434,48.872],[-18.68,48.824],[-18.921,48.771],[-19.153,48.705],[-19.393,48.65],[-19.624,48.584],[-19.854,48.516],[-20.079,48.443],[-20.341,48.419],[-20.632,48.432],[-20.939,48.466],[-21.239,48.489],[-21.539,48.51],[-21.826,48.514],[-22.113,48.517],[-22.387,48.502],[-22.67,48.498],[-22.944,48.482],[-23.222,48.471],[-23.499,48.458],[-23.781,48.45],[-24.054,48.431],[-24.317,48.4],[-24.575,48.363],[-24.832,48.325],[-25.075,48.271],[-25.307,48.205],[-25.538,48.139],[-25.784,48.124],[-26.046,48.159],[-26.338,48.225],[-26.659,48.285],[-26.99,48.318],[-27.315,48.345],[-27.621,48.35],[-27.927,48.355],[-28.222,48.347],[-28.456,48.345],[-28.623,48.343]]}},{"type":"Feature","properties":{"kind":"warm","line":2,"px_len":252},"geometry":{"type":"LineString","coordinates":[[-28.623,48.343],[-28.936,48.34],[-29.223,48.333],[-29.54,48.341],[-29.873,48.364],[-30.2,48.41],[-30.506,48.467],[-30.791,48.534],[-31.098,48.588],[-31.429,48.63],[-31.76,48.64],[-32.061,48.625],[-32.322,48.575],[-32.571,48.514],[-32.807,48.443],[-33.06,48.386],[-33.312,48.328],[-33.587,48.288],[-33.867,48.253],[-34.171,48.235],[-34.481,48.22],[-34.796,48.209],[-35.111,48.197],[-35.432,48.189],[-35.765,48.188],[-36.09,48.208],[-36.401,48.243],[-36.679,48.298],[-36.972,48.344],[-37.278,48.372],[-37.6,48.364],[-37.889,48.324],[-38.139,48.256],[-38.362,48.171],[-38.584,48.085],[-38.805,47.998],[-39.038,47.92],[-39.264,47.836],[-39.508,47.765],[-39.758,47.698],[-40.033,47.647],[-40.314,47.599],[-40.601,47.554],[-40.894,47.513],[-41.194,47.483],[-41.501,47.474],[-41.808,47.464],[-42.114,47.444],[-42.397,47.393],[-42.633,47.313],[-42.82,47.205],[-42.978,47.08],[-43.143,46.96],[-43.32,46.847],[-43.496,46.733],[-43.664,46.616],[-43.831,46.498],[-44.011,46.387],[-44.21,46.288],[-44.408,46.189],[-44.611,46.093],[-44.807,45.993],[-45.009,45.896],[-45.23,45.81],[-45.464,45.731],[-45.718,45.663],[-45.97,45.594],[-46.235,45.531],[-46.486,45.46],[-46.701,45.371],[-46.861,45.252],[-46.993,45.118],[-47.117,44.981],[-47.253,44.85],[-47.389,44.72],[-47.524,44.59],[-47.665,44.463],[-47.819,44.342],[-47.991,44.233],[-48.17,44.126],[-48.355,44.023],[-48.538,43.919],[-48.728,43.818],[-48.889,43.725],[-49.021,43.639]]}},{"type":"Feature","properties":{"kind":"cold","line":2,"px_len":72},"geometry":{"type":"LineString","coordinates":[[-49.021,43.639],[-49.227,43.539],[-49.408,43.442],[-49.6,43.343],[-49.784,43.24],[-49.968,43.137],[-50.144,43.03],[-50.305,42.917],[-50.459,42.8],[-50.598,42.676],[-50.744,42.555],[-50.881,42.431],[-51.018,42.307],[-51.141,42.177],[-51.277,42.052],[-51.451,41.947],[-51.659,41.856],[-51.885,41.775],[-52.104,41.69],[-52.315,41.601],[-52.505,41.502],[-52.681,41.398],[-52.85,41.289],[-52.992,41.19],[-53.109,41.1]]}},{"type":"Feature","properties":{"kind":"warm","line":2,"px_len":61},"geometry":{"type":"LineString","coordinates":[[-53.109,41.1],[-53.286,40.989],[-53.441,40.882],[-53.619,40.778],[-53.816,40.683],[-54.025,40.593],[-54.254,40.511],[-54.501,40.437],[-54.755,40.366],[-54.987,40.285],[-55.186,40.189],[-55.343,40.077],[-55.474,39.953],[-55.59,39.824],[-55.706,39.694],[-55.814,39.562],[-55.928,39.433],[-56.042,39.303],[-56.174,39.182],[-56.309,39.081],[-56.486,39.016]]}},{"type":"Feature","properties":{"kind":"occl","line":3,"px_len":135},"geometry":{"type":"LineString","coordinates":[[5.809,57.461],[5.637,57.642],[5.511,57.811],[5.397,57.986],[5.306,58.161],[5.214,58.336],[5.158,58.512],[5.114,58.688],[5.082,58.864],[5.037,59.04],[4.992,59.216],[4.972,59.393],[4.964,59.57],[4.918,59.747],[4.818,59.923],[4.677,60.099],[4.535,60.274],[4.418,60.451],[4.326,60.627],[4.247,60.804],[4.18,60.981],[4.084,61.158],[3.974,61.335],[3.793,61.51],[3.568,61.684],[3.312,61.857],[3.067,62.031],[2.833,62.204],[2.61,62.377],[2.398,62.551],[2.242,62.726],[2.112,62.902],[1.996,63.078],[1.76,63.251],[1.446,63.42],[1.053,63.586],[0.716,63.753],[0.404,63.921],[0.134,64.09],[-0.125,64.26],[-0.387,64.429],[-0.715,64.594],[-1.125,64.755],[-1.591,64.871],[-2.0,64.948],[-2.351,64.987]]}},{"type":"Feature","properties":{"kind":"cold","line":4,"px_len":224},"geometry":{"type":"LineString","coordinates":[[31.591,49.433],[31.792,49.563],[31.995,49.678],[32.221,49.794],[32.457,49.906],[32.703,50.015],[32.915,50.135],[33.086,50.268],[33.188,50.424],[33.282,50.582],[33.36,50.747],[33.482,50.897],[33.605,51.047],[33.747,51.191],[33.873,51.341],[33.999,51.491],[34.127,51.641],[34.255,51.791],[34.385,51.941],[34.516,52.091],[34.657,52.238],[34.817,52.378],[34.997,52.513],[35.196,52.641],[35.388,52.772],[35.517,52.924],[35.592,53.095],[35.613,53.284],[35.643,53.471],[35.673,53.658],[35.713,53.842],[35.763,54.023],[35.823,54.201],[35.893,54.376],[35.964,54.551],[36.026,54.73],[36.088,54.908],[36.142,55.09],[36.196,55.272],[36.251,55.455],[36.326,55.631],[36.422,55.8],[36.529,55.967],[36.646,56.13],[36.775,56.29],[36.896,56.453],[36.936,56.642],[36.886,56.862],[36.784,57.098],[36.7,57.328],[36.637,57.551],[36.614,57.762],[36.613,57.966],[36.643,58.161],[36.663,58.359],[36.694,58.553],[36.715,58.752],[36.725,58.954],[36.735,59.156],[36.767,59.351],[36.834,59.537],[36.923,59.716],[37.025,59.892],[37.139,60.065],[37.255,60.237],[37.331,60.414],[37.3,60.593],[37.153,60.767],[36.929,60.932],[36.709,61.103],[36.522,61.301],[36.353,61.517],[36.181,61.733],[35.992,61.937],[35.832,62.086],[35.71,62.187]]}},{"type":"Feature","properties":{"kind":"warm","line":4,"px_len":127},"geometry":{"type":"LineString","coordinates":[[35.71,62.187],[35.82,62.372],[35.98,62.529],[36.175,62.685],[36.371,62.84],[36.57,62.995],[36.81,63.14],[37.103,63.271],[37.501,63.374],[37.955,63.437],[38.435,63.452],[38.879,63.429],[39.306,63.393],[39.723,63.349],[40.156,63.316],[40.588,63.281],[41.052,63.267],[41.524,63.256],[42.014,63.254],[42.512,63.256],[43.018,63.261],[43.534,63.27],[44.015,63.288],[44.497,63.305],[44.98,63.32],[45.478,63.311],[45.948,63.283],[46.321,63.204],[46.635,63.092],[46.907,62.96],[47.196,62.838],[47.463,62.704],[47.756,62.586],[48.028,62.456],[48.315,62.336],[48.572,62.201],[48.874,62.09],[49.183,61.982],[49.489,61.875],[49.774,61.756],[50.047,61.633],[50.326,61.523],[50.672,61.426]]}},{"type":"Feature","properties":{"kind":"cold","line":5,"px_len":227},"geometry":{"type":"LineString","coordinates":[[-67.306,42.382],[-67.064,42.402],[-66.835,42.431],[-66.619,42.487],[-66.452,42.585],[-66.344,42.721],[-66.255,42.868],[-66.182,43.019],[-66.092,43.166],[-66.017,43.317],[-65.934,43.466],[-65.842,43.613],[-65.734,43.757],[-65.618,43.899],[-65.508,44.042],[-65.39,44.184],[-65.263,44.324],[-65.136,44.464],[-65.007,44.604],[-64.886,44.745],[-64.763,44.887],[-64.648,45.031],[-64.532,45.174],[-64.415,45.318],[-64.306,45.463],[-64.195,45.609],[-64.084,45.754],[-63.98,45.902],[-63.868,46.047],[-63.762,46.195],[-63.64,46.338],[-63.524,46.484],[-63.408,46.629],[-63.291,46.775],[-63.14,46.912],[-62.971,47.044],[-62.809,47.178],[-62.705,47.328],[-62.642,47.489],[-62.605,47.656],[-62.558,47.821],[-62.511,47.987],[-62.446,48.148],[-62.373,48.307],[-62.281,48.462],[-62.189,48.617],[-62.096,48.772],[-62.002,48.926],[-61.907,49.081],[-61.812,49.236],[-61.715,49.391],[-61.618,49.546],[-61.52,49.701],[-61.422,49.857],[-61.322,50.012],[-61.222,50.167],[-61.121,50.322],[-61.037,50.482],[-60.961,50.645],[-60.885,50.808],[-60.798,50.968],[-60.721,51.131],[-60.642,51.294],[-60.554,51.455],[-60.437,51.608],[-60.319,51.761],[-60.181,51.91],[-60.032,52.055],[-59.873,52.198],[-59.722,52.344],[-59.57,52.489],[-59.407,52.631],[-59.224,52.768],[-59.039,52.905],[-58.834,53.036],[-58.673,53.138],[-58.548,53.208]]}},{"type":"Feature","properties":{"kind":"stat","line":5,"px_len":103},"geometry":{"type":"LineString","coordinates":[[-58.548,53.208],[-58.306,53.336],[-58.157,53.477],[-58.051,53.637],[-57.964,53.803],[-57.885,53.971],[-57.874,54.159],[-57.942,54.37],[-58.085,54.581],[-58.239,54.794],[-58.385,55.004],[-58.489,55.224],[-58.573,55.438],[-58.638,55.647],[-58.714,55.859],[-58.801,56.074],[-58.911,56.294],[-59.011,56.512],[-59.092,56.725],[-59.141,56.93],[-59.181,57.132],[-59.268,57.325],[-59.445,57.475],[-59.723,57.571],[-60.037,57.624],[-60.352,57.676],[-60.669,57.728],[-60.986,57.778],[-61.309,57.822],[-61.632,57.865],[-61.966,57.894],[-62.305,57.917],[-62.645,57.938],[-62.982,57.944],[-63.355,57.935]]}}]}