{"type":"FeatureCollection","properties":{"chart":"fc","src":"Z__C_EDZW_20261005051300_nwv01,ico_tkb_na_N_000048_000000_202610050000_WV12.png","valid_time":"2026-10-07T00:00:00+00:00"},"features":[{"type":"Feature","properties":{"kind":"cold","line":0,"px_len":314},"geometry":{"type":"LineString","coordinates":[[-21.894,44.875],[-21.684,44.954],[-21.489,45.027],[-21.285,45.102],[-21.08,45.177],[-20.875,45.251],[-20.669,45.325],[-20.462,45.399],[-20.254,45.471],[-20.046,45.544],[-19.841,45.621],[-19.642,45.709],[-19.443,45.796],[-19.231,45.866],[-19.019,45.936],[-18.802,46.0],[-18.585,46.063],[-18.356,46.11],[-18.119,46.144],[-17.882,46.178],[-17.651,46.223],[-17.449,46.311],[-17.266,46.432],[-17.093,46.57],[-16.915,46.701],[-16.732,46.827],[-16.545,46.947],[-16.349,47.056],[-16.15,47.158],[-15.945,47.255],[-15.744,47.356],[-15.544,47.463],[-15.347,47.575],[-15.148,47.687],[-14.948,47.798],[-14.748,47.909],[-14.546,48.02],[-14.342,48.13],[-14.141,48.246],[-13.936,48.355],[-13.726,48.459],[-13.512,48.556],[-13.293,48.646],[-13.077,48.742],[-12.851,48.82],[-12.623,48.898],[-12.395,48.975],[-12.216,49.092],[-12.06,49.256],[-11.92,49.456],[-11.752,49.661],[-11.572,49.848],[-11.382,50.018],[-11.182,50.169],[-10.98,50.32],[-10.776,50.471],[-10.574,50.628],[-10.372,50.79],[-10.169,50.952],[-9.967,51.119],[-9.76,51.281],[-9.554,51.448],[-9.34,51.602],[-9.12,51.744],[-8.887,51.862],[-8.647,51.966],[-8.4,52.058],[-8.155,52.156],[-7.951,52.279],[-7.794,52.439],[-7.667,52.628],[-7.521,52.825],[-7.338,53.015],[-7.127,53.195],[-6.895,53.352],[-6.657,53.502],[-6.411,53.633],[-6.165,53.769],[-5.914,53.899],[-5.662,54.028],[-5.408,54.157],[-5.152,54.285],[-4.893,54.412],[-4.631,54.533],[-4.363,54.64],[-4.089,54.734],[-3.812,54.822],[-3.531,54.902],[-3.249,54.981],[-2.96,55.041],[-2.667,55.087],[-2.371,55.126],[-2.085,55.202],[-1.83,55.32],[-1.592,55.468],[-1.349,55.604],[-1.08,55.734],[-0.796,55.857],[-0.508,55.968],[-0.213,56.058],[0.086,56.135],[0.386,56.21],[0.689,56.279],[0.993,56.347],[1.232,56.391],[1.403,56.418]]}},{"type":"Feature","properties":{"kind":"warm","line":0,"px_len":161},"geometry":{"type":"LineString","coordinates":[[1.403,56.418],[1.722,56.484],[2.019,56.542],[2.33,56.593],[2.642,56.643],[2.956,56.686],[3.27,56.728],[3.585,56.775],[3.899,56.847],[4.214,56.925],[4.529,57.021],[4.847,57.11],[5.166,57.191],[5.488,57.233],[5.812,57.228],[6.135,57.19],[6.458,57.144],[6.78,57.104],[7.101,57.076],[7.422,57.053],[7.743,57.036],[8.063,57.011],[8.383,56.985],[8.703,56.965],[9.023,56.957],[9.343,56.948],[9.663,56.938],[9.982,56.921],[10.299,56.889],[10.615,56.857],[10.932,56.83],[11.251,56.822],[11.572,56.825],[11.891,56.815],[12.211,56.81],[12.528,56.791],[12.852,56.803],[13.177,56.821],[13.503,56.838],[13.826,56.841],[14.137,56.798],[14.441,56.729],[14.737,56.633],[15.029,56.53],[15.319,56.426],[15.607,56.321],[15.899,56.235],[16.193,56.161],[16.491,56.099],[16.791,56.048],[17.091,55.997],[17.389,55.944],[17.686,55.891],[17.92,55.858],[18.089,55.838]]}},{"type":"Feature","properties":{"kind":"cold","line":0,"px_len":289},"geometry":{"type":"LineString","coordinates":[[18.089,55.838],[18.388,55.763],[18.668,55.702],[18.961,55.645],[19.253,55.587],[19.542,55.523],[19.832,55.464],[20.115,55.391],[20.4,55.324],[20.678,55.244],[20.949,55.15],[21.213,55.044],[21.472,54.931],[21.738,54.835],[22.02,54.776],[22.317,54.747],[22.623,54.736],[22.92,54.705],[23.212,54.667],[23.497,54.616],[23.781,54.564],[24.065,54.512],[24.347,54.459],[24.625,54.398],[24.895,54.325],[25.164,54.252],[25.435,54.183],[25.713,54.126],[25.989,54.068],[26.265,54.009],[26.539,53.95],[26.813,53.89],[27.074,53.811],[27.334,53.732],[27.593,53.652],[27.862,53.589],[28.13,53.525],[28.397,53.46],[28.651,53.378],[28.896,53.283],[29.135,53.181],[29.402,53.12],[29.689,53.087],[29.996,53.082],[30.304,53.076],[30.607,53.064],[30.901,53.039],[31.186,53.002],[31.47,52.963],[31.749,52.919],[32.031,52.879],[32.309,52.832],[32.59,52.791],[32.871,52.748],[33.155,52.711],[33.439,52.673],[33.723,52.633],[34.011,52.599],[34.303,52.569],[34.594,52.538],[34.88,52.501],[35.16,52.458],[35.435,52.408],[35.709,52.357],[35.971,52.295],[36.228,52.227],[36.484,52.157],[36.738,52.088],[37.001,52.051],[37.291,52.054],[37.629,52.105],[37.985,52.148],[38.34,52.175],[38.685,52.191],[39.024,52.2],[39.352,52.197],[39.675,52.188],[39.997,52.178],[40.325,52.171],[40.647,52.159],[40.963,52.14],[41.255,52.099],[41.528,52.043],[41.795,51.98],[42.067,51.921],[42.337,51.862],[42.595,51.792],[42.852,51.721],[43.095,51.64],[43.368,51.583],[43.645,51.57],[43.954,51.613],[44.241,51.689],[44.531,51.764],[44.821,51.839],[45.122,51.899],[45.469,51.953]]}},{"type":"Feature","properties":{"kind":"stat","line":0,"px_len":53},"geometry":{"type":"LineString","coordinates":[[45.469,51.953],[45.816,52.005],[46.138,52.045],[46.468,52.072],[46.776,52.109],[47.014,52.192],[47.212,52.312],[47.372,52.453],[47.557,52.581],[47.743,52.709],[47.954,52.824],[48.167,52.939],[48.388,53.049],[48.604,53.163],[48.828,53.272],[49.062,53.376],[49.297,53.48],[49.49,53.555],[49.631,53.607]]}},{"type":"Feature","properties":{"kind":"occl","line":0,"px_len":317},"geometry":{"type":"LineString","coordinates":[[49.631,53.607],[49.846,53.732],[50.063,53.838],[50.289,53.949],[50.524,54.054],[50.753,54.164],[50.984,54.273],[51.2,54.391],[51.395,54.521],[51.591,54.652],[51.804,54.773],[52.035,54.884],[52.274,54.991],[52.515,55.097],[52.743,55.212],[52.925,55.354],[53.071,55.519],[53.21,55.69],[53.366,55.85],[53.531,56.006],[53.714,56.152],[53.906,56.294],[54.085,56.444],[54.241,56.609],[54.36,56.798],[54.44,57.011],[54.455,57.235],[54.455,57.47],[54.478,57.69],[54.546,57.914],[54.63,58.128],[54.708,58.347],[54.796,58.561],[54.867,58.786],[54.94,59.01],[55.015,59.235],[55.132,59.435],[55.268,59.626],[55.432,59.801],[55.589,59.982],[55.674,60.165],[55.687,60.37],[55.666,60.595],[55.686,60.837],[55.727,61.089],[55.795,61.325],[55.892,61.547],[55.99,61.768],[56.03,61.993],[55.999,62.215],[55.914,62.416],[55.816,62.614],[55.694,62.802],[55.582,62.995],[55.502,63.201],[55.488,63.433],[55.519,63.683],[55.593,63.922],[55.688,64.152],[55.824,64.361],[55.994,64.554],[56.206,64.727],[56.432,64.895],[56.585,65.08],[56.63,65.278],[56.624,65.503],[56.632,65.742],[56.692,65.998],[56.764,66.249],[56.881,66.479],[57.01,66.705],[57.091,66.922],[57.076,67.144],[56.967,67.346],[56.802,67.53],[56.62,67.71],[56.448,67.895],[56.302,68.088],[56.181,68.289],[56.101,68.504],[56.047,68.728],[55.978,68.947],[55.907,69.167],[55.85,69.391],[55.851,69.633],[55.882,69.884],[55.97,70.134],[56.028,70.365],[55.945,70.557],[55.723,70.728],[55.404,70.882],[55.112,71.044],[54.799,71.201],[54.464,71.353],[54.123,71.505],[53.793,71.661],[53.49,71.825],[53.181,71.989],[52.768,72.124],[52.252,72.23],[51.6,72.296],[50.911,72.35],[50.171,72.386],[49.459,72.429],[48.79,72.485],[48.311,72.542],[47.978,72.585]]}},{"type":"Feature","properties":{"kind":"warm","line":1,"px_len":126},"geometry":{"type":"LineString","coordinates":[[33.368,47.8],[33.642,47.85],[33.931,47.915],[34.244,47.971],[34.549,48.001],[34.837,48.008],[35.111,47.998],[35.386,47.987],[35.678,47.997],[35.99,48.041],[36.297,48.114],[36.566,48.202],[36.796,48.304],[36.995,48.419],[37.196,48.533],[37.414,48.641],[37.673,48.732],[37.957,48.812],[38.258,48.885],[38.56,48.957],[38.856,49.031],[39.145,49.108],[39.411,49.194],[39.694,49.272],[39.979,49.35],[40.298,49.404],[40.616,49.443],[40.947,49.461],[41.255,49.487],[41.543,49.537],[41.805,49.615],[42.01,49.726],[42.171,49.858],[42.285,50.012],[42.408,50.162],[42.54,50.309],[42.689,50.448],[42.839,50.587],[42.974,50.734],[43.095,50.888],[43.201,51.049],[43.297,51.192],[43.384,51.315]]}},{"type":"Feature","properties":{"kind":"cold","line":2,"px_len":331},"geometry":{"type":"LineString","coordinates":[[-59.084,39.995],[-58.873,40.054],[-58.707,40.148],[-58.558,40.268],[-58.408,40.387],[-58.244,40.501],[-58.072,40.612],[-57.905,40.726],[-57.745,40.842],[-57.591,40.96],[-57.437,41.078],[-57.281,41.196],[-57.124,41.313],[-56.974,41.433],[-56.829,41.556],[-56.684,41.678],[-56.538,41.8],[-56.391,41.922],[-56.251,42.047],[-56.102,42.169],[-55.953,42.29],[-55.789,42.406],[-55.616,42.519],[-55.429,42.625],[-55.241,42.732],[-55.059,42.841],[-54.925,42.97],[-54.833,43.115],[-54.77,43.273],[-54.684,43.422],[-54.583,43.565],[-54.475,43.705],[-54.365,43.845],[-54.255,43.985],[-54.144,44.126],[-54.033,44.266],[-53.92,44.406],[-53.807,44.546],[-53.693,44.686],[-53.579,44.826],[-53.463,44.967],[-53.347,45.107],[-53.23,45.247],[-53.127,45.393],[-53.03,45.542],[-52.933,45.692],[-52.835,45.841],[-52.736,45.99],[-52.637,46.14],[-52.522,46.283],[-52.398,46.423],[-52.274,46.563],[-52.141,46.7],[-51.992,46.83],[-51.835,46.957],[-51.691,47.09],[-51.6,47.246],[-51.554,47.421],[-51.531,47.607],[-51.492,47.786],[-51.429,47.955],[-51.359,48.122],[-51.279,48.285],[-51.207,48.451],[-51.127,48.615],[-51.045,48.778],[-50.963,48.942],[-50.888,49.109],[-50.813,49.276],[-50.737,49.443],[-50.66,49.611],[-50.59,49.782],[-50.52,49.953],[-50.457,50.127],[-50.394,50.302],[-50.322,50.473],[-50.233,50.638],[-50.143,50.803],[-50.044,50.964],[-49.927,51.119],[-49.801,51.269],[-49.674,51.42],[-49.572,51.582],[-49.526,51.768],[-49.56,51.973],[-49.625,52.183],[-49.682,52.389],[-49.712,52.6],[-49.727,52.812],[-49.724,53.018],[-49.722,53.223],[-49.728,53.433],[-49.744,53.646],[-49.769,53.863],[-49.82,54.092],[-49.891,54.327],[-49.972,54.566],[-50.061,54.801],[-50.163,55.025],[-50.272,55.243],[-50.371,55.45],[-50.439,55.66],[-50.463,55.861],[-50.465,56.07],[-50.458,56.276],[-50.489,56.473],[-50.531,56.674],[-50.573,56.874],[-50.576,57.085],[-50.576,57.286],[-50.593,57.509]]}},{"type":"Feature","properties":{"kind":"warm","line":2,"px_len":191},"geometry":{"type":"LineString","coordinates":[[-50.593,57.509],[-50.539,57.708],[-50.395,57.86],[-50.09,57.963],[-49.68,58.029],[-49.232,58.064],[-48.819,58.071],[-48.441,58.049],[-48.092,58.005],[-47.737,57.966],[-47.383,57.925],[-47.03,57.883],[-46.7,57.824],[-46.386,57.754],[-46.081,57.678],[-45.77,57.606],[-45.461,57.533],[-45.153,57.46],[-44.854,57.38],[-44.556,57.3],[-44.253,57.224],[-43.935,57.157],[-43.604,57.099],[-43.266,57.045],[-42.937,56.985],[-42.61,56.924],[-42.322,56.838],[-42.084,56.722],[-41.902,56.572],[-41.738,56.412],[-41.567,56.256],[-41.391,56.106],[-41.2,55.965],[-40.995,55.832],[-40.777,55.709],[-40.568,55.581],[-40.368,55.448],[-40.17,55.315],[-39.959,55.19],[-39.756,55.061],[-39.563,54.927],[-39.379,54.788],[-39.197,54.648],[-39.009,54.513],[-38.822,54.378],[-38.636,54.242],[-38.452,54.107],[-38.262,53.975],[-38.058,53.852],[-37.855,53.729],[-37.654,53.605],[-37.447,53.486],[-37.272,53.348],[-37.144,53.184],[-37.072,52.99],[-37.038,52.775],[-36.997,52.564],[-36.957,52.353],[-36.887,52.16],[-36.81,51.971],[-36.72,51.791],[-36.615,51.619],[-36.504,51.452],[-36.406,51.329],[-36.326,51.247]]}},{"type":"Feature","properties":{"kind":"stat","line":3,"px_len":34},"geometry":{"type":"LineString","coordinates":[[-50.964,57.847],[-51.365,57.853],[-51.738,57.855],[-52.102,57.876],[-52.454,57.907],[-52.795,57.947],[-53.129,57.993],[-53.465,58.037],[-53.796,58.086],[-54.128,58.134],[-54.444,58.184],[-54.782,58.238]]}},{"type":"Feature","properties":{"kind":"occl","line":3,"px_len":98},"geometry":{"type":"LineString","coordinates":[[-54.782,58.238],[-55.128,58.286],[-55.459,58.322],[-55.807,58.353],[-56.162,58.377],[-56.518,58.401],[-56.874,58.423],[-57.214,58.461],[-57.549,58.505],[-57.88,58.553],[-58.211,58.6],[-58.549,58.64],[-58.925,58.638],[-59.338,58.593],[-59.764,58.529],[-60.174,58.48],[-60.557,58.461],[-60.935,58.446],[-61.304,58.441],[-61.691,58.412],[-62.084,58.354],[-62.463,58.257],[-62.779,58.133],[-63.036,57.997],[-63.256,57.853],[-63.485,57.711],[-63.724,57.571],[-63.983,57.435],[-64.262,57.303],[-64.562,57.174],[-64.87,57.047],[-65.176,56.919],[-65.423,56.821],[-65.614,56.753]]}}]}