{"type":"FeatureCollection","properties":{"chart":"fc","src":"Z__C_EDZW_20261003051901_nwv01,ico_tkb_na_N_000048_000000_202610030000_WV12.png","valid_time":"2026-10-05T00:00:00+00:00"},"features":[{"type":"Feature","properties":{"kind":"occl","line":0,"px_len":103},"geometry":{"type":"LineString","coordinates":[[-11.933,68.93],[-11.468,69.034],[-11.012,69.106],[-10.535,69.18],[-10.054,69.251],[-9.564,69.315],[-9.077,69.384],[-8.586,69.452],[-8.101,69.531],[-7.604,69.596],[-7.107,69.665],[-6.603,69.727],[-6.092,69.78],[-5.578,69.832],[-5.057,69.876],[-4.534,69.918],[-4.012,69.965],[-3.509,70.05],[-3.02,70.175],[-2.528,70.305],[-2.023,70.42],[-1.501,70.507],[-0.978,70.599],[-0.444,70.675],[0.087,70.771],[0.622,70.871],[1.149,71.018],[1.636,71.19],[2.039,71.385],[2.343,71.578],[2.654,71.77],[3.016,71.962],[3.453,72.155],[3.9,72.34],[4.424,72.538]]}},{"type":"Feature","properties":{"kind":"cold","line":1,"px_len":569},"geometry":{"type":"LineString","coordinates":[[-51.316,44.159],[-51.043,44.232],[-50.792,44.301],[-50.535,44.374],[-50.27,44.443],[-50.012,44.515],[-49.753,44.585],[-49.479,44.649],[-49.204,44.711],[-48.907,44.762],[-48.619,44.802],[-48.325,44.816],[-48.043,44.828],[-47.784,44.866],[-47.572,44.949],[-47.402,45.063],[-47.237,45.179],[-47.051,45.284],[-46.851,45.382],[-46.649,45.479],[-46.426,45.565],[-46.195,45.647],[-45.95,45.72],[-45.717,45.801],[-45.476,45.877],[-45.242,45.956],[-45.013,46.038],[-44.783,46.12],[-44.553,46.201],[-44.321,46.281],[-44.095,46.365],[-43.868,46.448],[-43.641,46.531],[-43.419,46.617],[-43.189,46.698],[-42.945,46.771],[-42.68,46.831],[-42.414,46.891],[-42.141,46.945],[-41.874,47.003],[-41.639,47.08],[-41.443,47.182],[-41.279,47.303],[-41.114,47.425],[-40.948,47.546],[-40.761,47.655],[-40.573,47.763],[-40.377,47.867],[-40.187,47.974],[-39.982,48.073],[-39.77,48.167],[-39.557,48.26],[-39.342,48.353],[-39.134,48.45],[-38.917,48.542],[-38.706,48.638],[-38.488,48.729],[-38.275,48.824],[-38.061,48.918],[-37.839,49.008],[-37.623,49.102],[-37.399,49.19],[-37.181,49.283],[-36.942,49.361],[-36.689,49.43],[-36.422,49.489],[-36.167,49.557],[-35.957,49.656],[-35.783,49.782],[-35.622,49.917],[-35.453,50.047],[-35.269,50.168],[-35.085,50.289],[-34.887,50.399],[-34.687,50.51],[-34.486,50.62],[-34.284,50.73],[-34.08,50.839],[-33.876,50.948],[-33.67,51.057],[-33.456,51.16],[-33.229,51.253],[-33.0,51.346],[-32.777,51.443],[-32.565,51.55],[-32.352,51.656],[-32.137,51.761],[-31.915,51.861],[-31.679,51.951],[-31.436,52.035],[-31.179,52.109],[-30.914,52.177],[-30.655,52.249],[-30.432,52.351],[-30.244,52.483],[-30.061,52.62],[-29.871,52.751],[-29.667,52.872],[-29.455,52.987],[-29.229,53.092],[-28.997,53.191],[-28.762,53.289],[-28.527,53.387],[-28.29,53.485],[-28.051,53.581],[-27.812,53.678],[-27.571,53.774],[-27.328,53.869],[-27.085,53.964],[-26.839,54.058],[-26.593,54.151],[-26.357,54.255],[-26.125,54.364],[-25.892,54.472],[-25.645,54.569],[-25.392,54.659],[-25.131,54.744],[-24.858,54.817],[-24.583,54.889],[-24.301,54.956],[-24.024,55.026],[-23.768,55.119],[-23.538,55.238],[-23.335,55.385],[-23.13,55.532],[-22.917,55.673],[-22.686,55.797],[-22.442,55.909],[-22.191,56.014],[-21.944,56.125],[-21.69,56.23],[-21.428,56.328],[-21.16,56.42],[-20.895,56.517],[-20.629,56.613],[-20.366,56.715],[-20.097,56.81],[-19.825,56.904],[-19.558,57.004],[-19.283,57.097],[-19.007,57.19],[-18.714,57.264],[-18.419,57.337],[-18.124,57.41],[-17.812,57.464],[-17.499,57.517],[-17.189,57.575],[-16.917,57.68],[-16.667,57.814],[-16.428,57.966],[-16.183,58.112],[-15.93,58.251],[-15.67,58.383],[-15.399,58.503],[-15.117,58.61],[-14.832,58.716],[-14.55,58.828],[-14.271,58.945],[-13.993,59.068],[-13.713,59.19],[-13.435,59.318],[-13.151,59.439],[-12.868,59.565],[-12.575,59.678],[-12.283,59.797],[-11.981,59.903],[-11.672,60.002],[-11.357,60.093],[-11.045,60.19],[-10.824,60.327],[-10.689,60.492],[-10.64,60.685],[-10.577,60.881],[-10.501,61.078],[-10.41,61.278],[-10.331,61.475],[-10.237,61.675],[-10.156,61.873],[-10.087,62.069],[-10.044,62.261],[-10.001,62.454],[-9.971,62.645],[-9.955,62.834],[-9.952,63.021],[-9.936,63.211],[-9.919,63.401],[-9.901,63.59],[-9.884,63.78],[-9.881,63.969],[-9.881,64.115],[-9.886,64.219]]}},{"type":"Feature","properties":{"kind":"stat","line":1,"px_len":251},"geometry":{"type":"LineString","coordinates":[[-9.886,64.219],[-9.526,64.354],[-9.158,64.433],[-8.753,64.48],[-8.339,64.513],[-7.912,64.525],[-7.474,64.517],[-7.021,64.481],[-6.557,64.417],[-6.12,64.308],[-5.678,64.178],[-5.234,64.033],[-4.751,63.891],[-4.273,63.748],[-3.8,63.602],[-3.34,63.475],[-2.885,63.346],[-2.441,63.235],[-2.004,63.13],[-1.579,63.056],[-1.161,62.994],[-0.75,62.95],[-0.342,62.912],[0.058,62.898],[0.457,62.89],[0.854,62.888],[1.251,62.884],[1.651,62.859],[2.054,62.806],[2.462,62.713],[2.867,62.611],[3.269,62.514],[3.666,62.437],[4.06,62.364],[4.45,62.317],[4.838,62.276],[5.224,62.259],[5.61,62.249],[5.995,62.25],[6.38,62.25],[6.765,62.249],[7.15,62.246],[7.536,62.263],[7.921,62.258],[8.307,62.265],[8.69,62.245],[9.076,62.25],[9.46,62.233],[9.851,62.276],[10.25,62.356],[10.659,62.482],[11.069,62.593],[11.481,62.697],[11.894,62.786],[12.308,62.867],[12.724,62.946],[13.145,63.031],[13.569,63.114],[13.995,63.196],[14.424,63.277],[14.851,63.343],[15.278,63.401],[15.702,63.444],[16.127,63.486],[16.548,63.513],[16.965,63.526],[17.382,63.538],[17.802,63.555],[18.223,63.57],[18.644,63.584],[19.044,63.613],[19.427,63.696],[19.776,63.825],[20.11,63.975],[20.373,64.132],[20.565,64.297],[20.684,64.471],[20.79,64.646],[20.897,64.821],[21.052,64.991],[21.209,65.161],[21.4,65.328],[21.562,65.498],[21.699,65.629],[21.781,65.724]]}},{"type":"Feature","properties":{"kind":"occl","line":1,"px_len":246},"geometry":{"type":"LineString","coordinates":[[21.781,65.724],[22.048,65.889],[22.278,66.045],[22.563,66.201],[22.885,66.352],[23.243,66.499],[23.623,66.644],[24.056,66.781],[24.527,66.912],[25.047,67.029],[25.561,67.132],[26.064,67.235],[26.462,67.359],[26.777,67.509],[27.046,67.666],[27.337,67.82],[27.665,67.968],[28.031,68.111],[28.437,68.248],[28.864,68.381],[29.263,68.519],[29.581,68.669],[29.818,68.832],[29.971,69.009],[30.127,69.185],[30.251,69.367],[30.412,69.544],[30.576,69.72],[30.798,69.888],[31.023,70.055],[31.252,70.223],[31.43,70.399],[31.611,70.574],[31.739,70.759],[31.87,70.944],[31.946,71.137],[32.004,71.334],[32.044,71.533],[32.046,71.739],[32.027,71.948],[31.968,72.163],[31.887,72.381],[31.72,72.611],[31.476,72.844],[31.131,73.066],[30.736,73.263],[30.293,73.434],[29.83,73.598],[29.338,73.748],[28.828,73.89],[28.28,74.012],[27.705,74.12],[27.113,74.22],[26.522,74.324],[25.933,74.434],[25.343,74.548],[24.728,74.648],[24.088,74.732],[23.41,74.789],[22.705,74.823],[21.989,74.848],[21.264,74.865],[20.544,74.885],[19.816,74.897],[19.099,74.919],[18.38,74.94],[17.653,74.951],[16.906,74.933],[16.138,74.877],[15.385,74.791],[14.673,74.666],[13.973,74.539],[13.255,74.404],[12.506,74.281],[11.768,74.156],[11.046,74.042],[10.335,73.926],[9.634,73.807],[8.943,73.68],[8.262,73.549],[7.591,73.403],[7.005,73.275],[6.5,73.167]]}},{"type":"Feature","properties":{"kind":"occl","line":2,"px_len":76},"geometry":{"type":"LineString","coordinates":[[-24.015,61.308],[-23.695,61.412],[-23.403,61.515],[-23.096,61.62],[-22.774,61.713],[-22.443,61.799],[-22.103,61.879],[-21.747,61.945],[-21.39,62.011],[-21.032,62.076],[-20.716,62.181],[-20.417,62.304],[-20.141,62.449],[-19.843,62.576],[-19.542,62.702],[-19.239,62.828],[-18.932,62.953],[-18.622,63.077],[-18.328,63.219],[-18.061,63.39],[-17.827,63.598],[-17.601,63.818],[-17.353,64.019],[-17.047,64.164],[-16.703,64.257],[-16.304,64.33]]}},{"type":"Feature","properties":{"kind":"stat","line":2,"px_len":42},"geometry":{"type":"LineString","coordinates":[[-16.304,64.33],[-15.927,64.426],[-15.569,64.509],[-15.189,64.588],[-14.778,64.635],[-14.36,64.674],[-13.931,64.699],[-13.495,64.717],[-13.042,64.714],[-12.565,64.678],[-12.08,64.627],[-11.586,64.562],[-11.101,64.502],[-10.675,64.453],[-10.309,64.416]]}},{"type":"Feature","properties":{"kind":"occl","line":3,"px_len":129},"geometry":{"type":"LineString","coordinates":[[65.626,54.144],[65.527,54.317],[65.504,54.502],[65.523,54.71],[65.532,54.914],[65.513,55.108],[65.532,55.316],[65.596,55.532],[65.74,55.736],[65.937,55.891],[66.165,56.017],[66.418,56.121],[66.673,56.224],[66.946,56.309],[67.221,56.394],[67.497,56.478],[67.758,56.579],[68.015,56.684],[68.285,56.778],[68.589,56.836],[68.917,56.871],[69.255,56.893],[69.589,56.92],[69.924,56.945],[70.248,56.982],[70.569,57.023],[70.884,57.069],[71.191,57.125],[71.504,57.175],[71.813,57.23],[72.123,57.285],[72.419,57.356],[72.713,57.432],[73.026,57.483],[73.378,57.486],[73.767,57.44],[74.178,57.362],[74.595,57.27],[75.014,57.171],[75.422,57.083],[75.824,56.998],[76.211,56.931],[76.559,56.862],[76.864,56.798]]}},{"type":"Feature","properties":{"kind":"occl","line":4,"px_len":428},"geometry":{"type":"LineString","coordinates":[[27.217,55.155],[27.499,55.285],[27.764,55.405],[28.056,55.526],[28.382,55.639],[28.733,55.731],[29.113,55.809],[29.482,55.868],[29.809,55.95],[30.057,56.058],[30.279,56.193],[30.492,56.331],[30.75,56.458],[31.031,56.578],[31.357,56.687],[31.696,56.793],[32.037,56.897],[32.316,57.017],[32.533,57.154],[32.688,57.308],[32.833,57.465],[32.98,57.621],[33.128,57.778],[33.311,57.926],[33.506,58.07],[33.736,58.205],[33.969,58.34],[34.214,58.471],[34.461,58.602],[34.7,58.735],[34.941,58.868],[35.172,59.004],[35.406,59.139],[35.631,59.277],[35.869,59.412],[36.099,59.549],[36.353,59.68],[36.609,59.81],[36.901,59.929],[37.196,60.048],[37.516,60.159],[37.815,60.276],[38.084,60.403],[38.32,60.54],[38.548,60.68],[38.777,60.819],[38.987,60.966],[39.187,61.116],[39.389,61.265],[39.628,61.403],[39.881,61.538],[40.125,61.675],[40.313,61.831],[40.457,62.001],[40.579,62.179],[40.691,62.361],[40.816,62.539],[40.943,62.717],[41.084,62.891],[41.251,63.057],[41.444,63.216],[41.639,63.375],[41.837,63.533],[42.038,63.691],[42.241,63.849],[42.434,64.01],[42.617,64.176],[42.815,64.337],[43.003,64.502],[43.182,64.671],[43.362,64.84],[43.545,65.008],[43.744,65.173],[43.945,65.337],[44.149,65.501],[44.369,65.661],[44.605,65.816],[44.869,65.963],[45.15,66.104],[45.447,66.241],[45.774,66.369],[46.117,66.492],[46.439,66.623],[46.737,66.762],[47.027,66.905],[47.333,67.043],[47.643,67.18],[47.931,67.326],[48.209,67.476],[48.491,67.625],[48.843,67.751],[49.199,67.876],[49.52,68.014],[49.765,68.18],[50.001,68.35],[50.241,68.52],[50.525,68.676],[50.8,68.836],[51.119,68.98],[51.47,69.115],[51.88,69.23],[52.294,69.343],[52.685,69.465],[53.068,69.592],[53.457,69.717],[53.85,69.842],[54.247,69.966],[54.65,70.089],[55.059,70.211],[55.445,70.342],[55.824,70.478],[56.208,70.613],[56.598,70.747],[56.993,70.88],[57.354,71.028],[57.747,71.165],[58.12,71.312],[58.538,71.442],[58.936,71.582],[59.367,71.71],[59.804,71.838],[60.272,71.953],[60.683,72.094],[60.982,72.286],[61.21,72.511],[61.457,72.73],[61.764,72.927],[62.105,73.111],[62.479,73.284],[62.849,73.461],[63.186,73.656],[63.505,73.861],[63.832,74.066],[64.187,74.25],[64.386,74.438],[64.416,74.622],[64.265,74.817],[64.087,75.009],[63.882,75.197],[63.648,75.381],[63.385,75.561],[63.138,75.744],[62.931,75.885],[62.767,75.984]]}}]}