{"type":"FeatureCollection","properties":{"chart":"fc","src":"Z__C_EDZW_20261003055106_nwv01,ico_tkb_na_N_000084_000000_202610030000_WV12.png","valid_time":"2026-10-06T12:00:00+00:00"},"features":[{"type":"Feature","properties":{"kind":"cold","line":0,"px_len":120},"geometry":{"type":"LineString","coordinates":[[8.44,60.799],[8.827,60.883],[9.188,60.961],[9.565,61.036],[9.943,61.098],[10.318,61.132],[10.693,61.165],[11.069,61.19],[11.445,61.213],[11.822,61.236],[12.206,61.284],[12.575,61.384],[12.943,61.524],[13.32,61.682],[13.728,61.831],[14.15,61.964],[14.57,62.077],[14.989,62.175],[15.411,62.271],[15.841,62.38],[16.275,62.486],[16.717,62.605],[17.166,62.728],[17.617,62.844],[18.059,62.931],[18.489,62.985],[18.917,63.03],[19.343,63.068],[19.728,63.136],[20.031,63.247],[20.268,63.399],[20.468,63.563],[20.7,63.723],[20.965,63.879],[21.291,64.027],[21.652,64.171],[22.031,64.313],[22.384,64.457],[22.757,64.599],[23.091,64.724],[23.413,64.829]]}},{"type":"Feature","properties":{"kind":"occl","line":0,"px_len":79},"geometry":{"type":"LineString","coordinates":[[23.413,64.829],[23.757,64.981],[24.141,65.112],[24.58,65.243],[25.064,65.359],[25.573,65.456],[26.101,65.55],[26.563,65.659],[26.918,65.799],[27.184,65.952],[27.454,66.105],[27.758,66.252],[28.098,66.394],[28.473,66.53],[28.884,66.659],[29.332,66.783],[29.689,66.921],[29.956,67.075],[30.13,67.245],[30.308,67.415],[30.504,67.581],[30.703,67.748],[30.921,67.912],[31.176,68.07],[31.451,68.224],[31.739,68.369],[32.047,68.526]]}},{"type":"Feature","properties":{"kind":"cold","line":1,"px_len":430},"geometry":{"type":"LineString","coordinates":[[-27.663,45.731],[-27.377,45.661],[-27.081,45.61],[-26.758,45.562],[-26.458,45.504],[-26.181,45.434],[-25.931,45.36],[-25.696,45.335],[-25.467,45.35],[-25.247,45.409],[-25.022,45.463],[-24.801,45.521],[-24.575,45.574],[-24.339,45.615],[-24.098,45.651],[-23.853,45.681],[-23.612,45.715],[-23.37,45.749],[-23.128,45.782],[-22.89,45.819],[-22.655,45.861],[-22.424,45.908],[-22.197,45.959],[-21.965,46.005],[-21.736,46.055],[-21.495,46.088],[-21.254,46.121],[-21.004,46.143],[-20.757,46.168],[-20.534,46.226],[-20.334,46.316],[-20.153,46.432],[-19.963,46.538],[-19.767,46.637],[-19.564,46.725],[-19.355,46.807],[-19.145,46.889],[-18.939,46.976],[-18.731,47.062],[-18.515,47.137],[-18.306,47.222],[-18.096,47.307],[-17.892,47.403],[-17.68,47.487],[-17.474,47.581],[-17.264,47.67],[-17.056,47.763],[-16.844,47.851],[-16.634,47.944],[-16.42,48.031],[-16.201,48.111],[-15.974,48.18],[-15.743,48.242],[-15.512,48.304],[-15.279,48.365],[-15.046,48.426],[-14.832,48.52],[-14.641,48.654],[-14.461,48.812],[-14.279,48.968],[-14.09,49.114],[-13.899,49.258],[-13.697,49.385],[-13.487,49.5],[-13.279,49.621],[-13.07,49.741],[-12.862,49.866],[-12.653,49.991],[-12.443,50.116],[-12.231,50.241],[-12.017,50.364],[-11.806,50.494],[-11.595,50.629],[-11.378,50.752],[-11.155,50.868],[-10.926,50.972],[-10.692,51.069],[-10.449,51.148],[-10.204,51.226],[-9.989,51.324],[-9.827,51.471],[-9.709,51.649],[-9.588,51.847],[-9.434,52.043],[-9.243,52.233],[-9.031,52.406],[-8.812,52.566],[-8.586,52.714],[-8.358,52.861],[-8.125,53.002],[-7.893,53.149],[-7.656,53.288],[-7.415,53.422],[-7.164,53.536],[-6.907,53.637],[-6.647,53.731],[-6.382,53.819],[-6.109,53.887],[-5.833,53.948],[-5.56,54.021],[-5.305,54.149],[-5.064,54.321],[-4.826,54.511],[-4.581,54.688],[-4.326,54.84],[-4.062,54.972],[-3.79,55.084],[-3.515,55.189],[-3.238,55.294],[-2.957,55.392],[-2.675,55.489],[-2.39,55.585],[-2.106,55.687],[-1.819,55.782],[-1.529,55.876],[-1.239,55.969],[-0.946,56.061],[-0.65,56.146],[-0.35,56.218],[-0.049,56.289],[0.254,56.359],[0.56,56.415],[0.87,56.451],[1.183,56.479],[1.496,56.5],[1.806,56.553],[2.114,56.63],[2.415,56.765],[2.719,56.905],[3.026,57.038],[3.339,57.144],[3.654,57.237],[3.972,57.315],[4.292,57.387],[4.614,57.45],[4.938,57.507],[5.263,57.562],[5.589,57.616],[5.916,57.67],[6.244,57.722],[6.573,57.767],[6.903,57.817],[7.222,57.847],[7.565,57.863]]}},{"type":"Feature","properties":{"kind":"warm","line":1,"px_len":96},"geometry":{"type":"LineString","coordinates":[[7.565,57.863],[7.911,57.93],[8.233,57.976],[8.567,58.008],[8.902,58.04],[9.238,58.07],[9.574,58.099],[9.911,58.127],[10.248,58.148],[10.587,58.18],[10.927,58.218],[11.272,58.275],[11.619,58.336],[11.972,58.417],[12.325,58.489],[12.681,58.567],[13.027,58.592],[13.367,58.59],[13.694,58.535],[14.019,58.473],[14.342,58.41],[14.669,58.365],[15.001,58.339],[15.332,58.311],[15.662,58.283],[15.992,58.253],[16.322,58.223],[16.657,58.211],[16.992,58.197],[17.327,58.183],[17.654,58.149],[17.944,58.117],[18.197,58.089]]}},{"type":"Feature","properties":{"kind":"cold","line":1,"px_len":250},"geometry":{"type":"LineString","coordinates":[[18.197,58.089],[18.553,58.095],[18.871,58.071],[19.195,58.032],[19.518,57.992],[19.84,57.951],[20.161,57.909],[20.482,57.866],[20.801,57.823],[21.12,57.778],[21.438,57.732],[21.745,57.667],[22.05,57.601],[22.345,57.515],[22.637,57.428],[22.928,57.341],[23.239,57.29],[23.569,57.275],[23.907,57.272],[24.238,57.255],[24.556,57.219],[24.874,57.182],[25.191,57.144],[25.507,57.105],[25.815,57.053],[26.125,57.006],[26.439,56.964],[26.752,56.921],[27.064,56.878],[27.375,56.833],[27.694,56.8],[28.008,56.759],[28.325,56.724],[28.637,56.682],[28.944,56.633],[29.245,56.577],[29.541,56.514],[29.84,56.456],[30.128,56.386],[30.422,56.37],[30.743,56.403],[31.093,56.498],[31.482,56.591],[31.868,56.661],[32.278,56.725],[32.673,56.769],[33.086,56.829],[33.5,56.888],[33.932,56.962],[34.36,57.029],[34.768,57.072],[35.159,57.095],[35.539,57.106],[35.896,57.146],[36.199,57.223],[36.449,57.34],[36.686,57.468],[36.915,57.599],[37.145,57.73],[37.378,57.86],[37.644,57.98],[37.923,58.096],[38.214,58.207],[38.518,58.314],[38.824,58.421],[39.154,58.52],[39.496,58.614],[39.861,58.7],[40.259,58.773],[40.684,58.829],[41.137,58.857],[41.569,58.868],[41.916,58.917],[42.156,59.021],[42.317,59.179],[42.46,59.345],[42.604,59.511],[42.759,59.673],[42.907,59.839],[43.087,59.993],[43.27,60.146],[43.454,60.3],[43.632,60.448],[43.829,60.606]]}},{"type":"Feature","properties":{"kind":"occl","line":1,"px_len":166},"geometry":{"type":"LineString","coordinates":[[43.829,60.606],[44.06,60.752],[44.276,60.888],[44.514,61.024],[44.776,61.151],[45.05,61.274],[45.338,61.392],[45.639,61.505],[45.921,61.626],[46.163,61.763],[46.374,61.913],[46.589,62.062],[46.805,62.212],[47.024,62.36],[47.257,62.505],[47.513,62.64],[47.751,62.783],[47.98,62.931],[48.168,63.096],[48.304,63.283],[48.375,63.497],[48.371,63.724],[48.357,63.946],[48.342,64.169],[48.371,64.392],[48.411,64.621],[48.464,64.845],[48.517,65.069],[48.572,65.294],[48.591,65.533],[48.623,65.767],[48.656,66.001],[48.739,66.217],[48.848,66.424],[48.984,66.622],[49.11,66.825],[49.104,67.021],[48.963,67.201],[48.722,67.37],[48.453,67.528],[48.192,67.691],[47.927,67.854],[47.706,68.037],[47.494,68.224],[47.277,68.411],[47.033,68.588],[46.723,68.739],[46.324,68.853],[45.859,68.939],[45.403,69.03],[44.978,69.135],[44.573,69.25],[44.164,69.363],[43.749,69.476],[43.436,69.603],[43.262,69.76]]}},{"type":"Feature","properties":{"kind":"warm","line":2,"px_len":152},"geometry":{"type":"LineString","coordinates":[[36.307,51.406],[36.536,51.526],[36.765,51.632],[37.018,51.737],[37.281,51.837],[37.563,51.93],[37.847,52.022],[38.097,52.127],[38.271,52.262],[38.393,52.416],[38.49,52.58],[38.614,52.735],[38.739,52.889],[38.866,53.043],[38.993,53.198],[39.158,53.338],[39.341,53.472],[39.526,53.605],[39.686,53.748],[39.865,53.884],[40.054,54.017],[40.272,54.138],[40.501,54.255],[40.749,54.365],[40.999,54.474],[41.214,54.597],[41.368,54.746],[41.468,54.917],[41.552,55.095],[41.627,55.277],[41.702,55.459],[41.77,55.645],[41.866,55.82],[41.963,55.995],[42.08,56.163],[42.189,56.334],[42.327,56.494],[42.467,56.654],[42.627,56.806],[42.77,56.966],[42.923,57.122],[43.088,57.274],[43.245,57.429],[43.403,57.585],[43.479,57.766],[43.474,57.956],[43.331,58.137],[43.138,58.295],[42.899,58.421],[42.659,58.547],[42.469,58.644],[42.354,58.728]]}},{"type":"Feature","properties":{"kind":"warm","line":3,"px_len":206},"geometry":{"type":"LineString","coordinates":[[-46.014,47.069],[-46.098,47.275],[-46.159,47.462],[-46.198,47.668],[-46.238,47.874],[-46.304,48.079],[-46.401,48.268],[-46.544,48.417],[-46.716,48.542],[-46.917,48.642],[-47.108,48.752],[-47.294,48.866],[-47.476,48.985],[-47.659,49.104],[-47.843,49.222],[-48.018,49.35],[-48.188,49.483],[-48.342,49.631],[-48.498,49.779],[-48.65,49.931],[-48.802,50.084],[-48.945,50.246],[-49.078,50.419],[-49.212,50.592],[-49.348,50.765],[-49.524,50.902],[-49.74,51.002],[-50.002,51.06],[-50.27,51.112],[-50.523,51.179],[-50.777,51.245],[-51.02,51.321],[-51.265,51.397],[-51.494,51.488],[-51.725,51.578],[-51.957,51.668],[-52.19,51.757],[-52.424,51.846],[-52.66,51.934],[-52.896,52.022],[-53.118,52.125],[-53.342,52.228],[-53.556,52.341],[-53.772,52.454],[-53.973,52.583],[-54.192,52.695],[-54.442,52.774],[-54.74,52.802],[-55.058,52.807],[-55.392,52.794],[-55.715,52.791],[-56.038,52.787],[-56.351,52.794],[-56.665,52.799],[-56.969,52.814],[-57.273,52.829],[-57.573,52.848],[-57.874,52.866],[-58.17,52.889],[-58.466,52.911],[-58.763,52.933],[-59.069,52.941],[-59.389,52.932],[-59.695,52.876],[-59.96,52.781],[-60.179,52.653],[-60.376,52.519],[-60.516,52.37],[-60.582,52.243],[-60.577,52.139]]}},{"type":"Feature","properties":{"kind":"cold","line":3,"px_len":196},"geometry":{"type":"LineString","coordinates":[[-60.577,52.139],[-60.54,51.937],[-60.513,51.752],[-60.454,51.551],[-60.396,51.351],[-60.347,51.153],[-60.317,50.961],[-60.287,50.768],[-60.249,50.574],[-60.184,50.372],[-60.084,50.16],[-59.951,49.939],[-59.836,49.722],[-59.74,49.511],[-59.662,49.305],[-59.594,49.102],[-59.527,48.899],[-59.451,48.694],[-59.352,48.481],[-59.225,48.281],[-59.099,48.08],[-59.041,47.9],[-59.053,47.721],[-59.123,47.561],[-59.2,47.403],[-59.268,47.243],[-59.32,47.077],[-59.363,46.91],[-59.406,46.742],[-59.448,46.575],[-59.474,46.403],[-59.499,46.231],[-59.525,46.06],[-59.542,45.886],[-59.543,45.707],[-59.537,45.526],[-59.515,45.34],[-59.485,45.152],[-59.479,44.972],[-59.519,44.807],[-59.628,44.664],[-59.744,44.524],[-59.859,44.383],[-59.95,44.236],[-60.041,44.088],[-60.131,43.94],[-60.221,43.793],[-60.287,43.638],[-60.353,43.484],[-60.418,43.329],[-60.505,43.182],[-60.592,43.035],[-60.663,42.883],[-60.726,42.73],[-60.781,42.574],[-60.836,42.418],[-60.891,42.262],[-60.93,42.102],[-60.984,41.946],[-61.067,41.8],[-61.192,41.667],[-61.324,41.537],[-61.448,41.404],[-61.556,41.267],[-61.669,41.137],[-61.807,41.003]]}},{"type":"Feature","properties":{"kind":"occl","line":4,"px_len":83},"geometry":{"type":"LineString","coordinates":[[-60.931,52.355],[-61.198,52.423],[-61.455,52.474],[-61.726,52.521],[-61.998,52.567],[-62.263,52.624],[-62.533,52.675],[-62.814,52.707],[-63.104,52.726],[-63.394,52.745],[-63.677,52.774],[-63.96,52.803],[-64.237,52.843],[-64.511,52.887],[-64.779,52.944],[-65.047,52.999],[-65.317,53.054],[-65.587,53.107],[-65.859,53.161],[-66.141,53.195],[-66.439,53.198],[-66.759,53.158],[-67.066,53.074],[-67.333,52.957],[-67.553,52.818],[-67.762,52.677],[-67.977,52.543],[-68.157,52.456],[-68.295,52.414]]}}]}