{"type":"FeatureCollection","properties":{"chart":"fc","src":"Z__C_EDZW_20261008053414_nwv01,ico_tkb_na_N_000108_000000_202610080000_WV12.png","valid_time":"2026-10-12T12:00:00+00:00"},"features":[{"type":"Feature","properties":{"kind":"cold","line":0,"px_len":455},"geometry":{"type":"LineString","coordinates":[[-40.437,31.115],[-40.247,31.116],[-40.062,31.142],[-39.873,31.187],[-39.711,31.254],[-39.584,31.35],[-39.479,31.465],[-39.369,31.576],[-39.25,31.679],[-39.13,31.783],[-39.01,31.886],[-38.884,31.985],[-38.75,32.077],[-38.614,32.168],[-38.469,32.252],[-38.333,32.343],[-38.192,32.429],[-38.054,32.52],[-37.916,32.61],[-37.782,32.704],[-37.648,32.798],[-37.508,32.888],[-37.368,32.977],[-37.237,33.075],[-37.109,33.176],[-36.967,33.265],[-36.825,33.353],[-36.683,33.442],[-36.553,33.542],[-36.422,33.642],[-36.292,33.742],[-36.16,33.842],[-36.028,33.942],[-35.895,34.041],[-35.762,34.141],[-35.629,34.24],[-35.494,34.339],[-35.36,34.438],[-35.233,34.545],[-35.11,34.656],[-34.987,34.767],[-34.855,34.869],[-34.717,34.967],[-34.587,35.073],[-34.462,35.184],[-34.336,35.294],[-34.205,35.4],[-34.077,35.51],[-33.949,35.62],[-33.816,35.725],[-33.674,35.822],[-33.531,35.919],[-33.387,36.015],[-33.234,36.103],[-33.076,36.185],[-32.918,36.268],[-32.78,36.372],[-32.665,36.498],[-32.566,36.641],[-32.475,36.793],[-32.379,36.941],[-32.278,37.085],[-32.168,37.219],[-32.052,37.35],[-31.932,37.475],[-31.806,37.596],[-31.685,37.722],[-31.562,37.847],[-31.444,37.977],[-31.324,38.107],[-31.208,38.242],[-31.092,38.376],[-30.975,38.51],[-30.857,38.644],[-30.739,38.779],[-30.619,38.913],[-30.504,39.051],[-30.388,39.19],[-30.271,39.329],[-30.153,39.467],[-30.035,39.606],[-29.924,39.754],[-29.809,39.897],[-29.697,40.045],[-29.584,40.193],[-29.476,40.346],[-29.37,40.503],[-29.26,40.656],[-29.153,40.813],[-29.041,40.966],[-28.933,41.124],[-28.828,41.286],[-28.723,41.448],[-28.612,41.606],[-28.487,41.749],[-28.357,41.888],[-28.221,42.021],[-28.08,42.15],[-27.93,42.268],[-27.798,42.398],[-27.73,42.546],[-27.718,42.723],[-27.732,42.908],[-27.713,43.11],[-27.669,43.318],[-27.595,43.526],[-27.506,43.719],[-27.417,43.912],[-27.326,44.106],[-27.244,44.31],[-27.157,44.509],[-27.078,44.718],[-26.998,44.927],[-26.917,45.137],[-26.836,45.347],[-26.758,45.562],[-26.689,45.788],[-26.619,46.014],[-26.549,46.24],[-26.477,46.467],[-26.405,46.693],[-26.332,46.92],[-26.265,47.145],[-26.213,47.363],[-26.161,47.581],[-26.107,47.799],[-26.054,48.018],[-25.994,48.232],[-25.912,48.433],[-25.793,48.621],[-25.653,48.788],[-25.516,48.959],[-25.447,49.133],[-25.45,49.313],[-25.52,49.482],[-25.599,49.647],[-25.671,49.816],[-25.71,49.998],[-25.717,50.193],[-25.707,50.395],[-25.697,50.598],[-25.687,50.8],[-25.677,51.003],[-25.667,51.206],[-25.656,51.41],[-25.646,51.613],[-25.635,51.817],[-25.624,52.021],[-25.605,52.229],[-25.553,52.442],[-25.441,52.632],[-25.32,52.767],[-25.213,52.843]]}},{"type":"Feature","properties":{"kind":"warm","line":0,"px_len":133},"geometry":{"type":"LineString","coordinates":[[-25.213,52.843],[-25.022,52.995],[-24.853,53.145],[-24.651,53.277],[-24.432,53.392],[-24.195,53.49],[-23.961,53.593],[-23.737,53.706],[-23.517,53.825],[-23.296,53.943],[-23.046,54.033],[-22.758,54.083],[-22.433,54.093],[-22.092,54.086],[-21.746,54.071],[-21.406,54.061],[-21.07,54.056],[-20.745,54.06],[-20.429,54.075],[-20.118,54.095],[-19.807,54.114],[-19.49,54.126],[-19.173,54.137],[-18.852,54.141],[-18.525,54.138],[-18.199,54.134],[-17.869,54.123],[-17.539,54.112],[-17.208,54.099],[-16.879,54.085],[-16.562,54.087],[-16.245,54.088],[-15.94,54.107],[-15.639,54.13],[-15.346,54.164],[-15.04,54.179],[-14.707,54.152],[-14.358,54.079],[-14.026,53.975],[-13.753,53.85],[-13.532,53.715],[-13.324,53.577],[-13.087,53.444],[-12.815,53.326],[-12.488,53.205]]}},{"type":"Feature","properties":{"kind":"warm","line":1,"px_len":101},"geometry":{"type":"LineString","coordinates":[[26.591,37.226],[26.55,37.365],[26.556,37.508],[26.597,37.66],[26.631,37.813],[26.672,37.965],[26.706,38.119],[26.734,38.275],[26.755,38.434],[26.763,38.596],[26.757,38.763],[26.744,38.932],[26.738,39.099],[26.746,39.263],[26.781,39.419],[26.859,39.562],[26.98,39.694],[27.115,39.821],[27.244,39.95],[27.367,40.081],[27.477,40.217],[27.587,40.352],[27.683,40.491],[27.781,40.631],[27.878,40.771],[27.977,40.91],[28.069,41.052],[28.161,41.194],[28.261,41.334],[28.37,41.471],[28.479,41.609],[28.588,41.747],[28.706,41.882],[28.791,41.989],[28.852,42.066]]}},{"type":"Feature","properties":{"kind":"cold","line":1,"px_len":338},"geometry":{"type":"LineString","coordinates":[[28.852,42.066],[28.974,42.207],[29.091,42.336],[29.205,42.474],[29.326,42.609],[29.441,42.746],[29.564,42.881],[29.681,43.019],[29.813,43.151],[29.939,43.286],[30.073,43.419],[30.2,43.553],[30.343,43.683],[30.487,43.813],[30.647,43.937],[30.823,44.056],[31.023,44.168],[31.231,44.277],[31.433,44.387],[31.599,44.51],[31.727,44.646],[31.825,44.792],[31.924,44.939],[32.024,45.085],[32.14,45.226],[32.265,45.364],[32.39,45.502],[32.524,45.638],[32.659,45.773],[32.81,45.903],[32.947,46.039],[33.092,46.171],[33.231,46.306],[33.379,46.438],[33.519,46.573],[33.669,46.705],[33.803,46.842],[33.955,46.974],[34.091,47.111],[34.245,47.242],[34.383,47.379],[34.531,47.513],[34.679,47.647],[34.821,47.783],[34.971,47.917],[35.115,48.053],[35.259,48.189],[35.405,48.325],[35.552,48.461],[35.7,48.597],[35.832,48.739],[35.974,48.878],[36.125,49.013],[36.277,49.148],[36.413,49.29],[36.543,49.434],[36.673,49.579],[36.805,49.723],[36.954,49.861],[37.113,49.996],[37.297,50.12],[37.492,50.242],[37.687,50.363],[37.842,50.5],[37.948,50.656],[38.03,50.823],[38.104,50.993],[38.179,51.163],[38.263,51.329],[38.356,51.493],[38.476,51.646],[38.588,51.803],[38.71,51.957],[38.833,52.11],[38.948,52.267],[39.073,52.421],[39.191,52.578],[39.318,52.731],[39.447,52.885],[39.567,53.041],[39.698,53.195],[39.812,53.355],[39.936,53.512],[40.044,53.676],[40.161,53.836],[40.262,54.004],[40.372,54.168],[40.466,54.339],[40.561,54.51],[40.656,54.681],[40.753,54.853],[40.85,55.024],[40.958,55.192],[41.067,55.36],[41.196,55.521],[41.316,55.685],[41.447,55.845],[41.58,56.006],[41.663,56.171],[41.639,56.331],[41.512,56.499],[41.334,56.663],[41.169,56.838],[41.028,57.033],[40.899,57.24],[40.789,57.462],[40.664,57.674],[40.558,57.902],[40.467,58.132],[40.388,58.349],[40.232,58.507],[39.993,58.614],[39.753,58.674],[39.589,58.723]]}},{"type":"Feature","properties":{"kind":"occl","line":1,"px_len":170},"geometry":{"type":"LineString","coordinates":[[39.589,58.723],[39.266,58.801],[38.963,58.872],[38.64,58.939],[38.33,59.017],[38.012,59.088],[37.692,59.159],[37.351,59.211],[36.995,59.252],[36.625,59.28],[36.261,59.312],[35.916,59.361],[35.588,59.425],[35.259,59.489],[34.934,59.557],[34.602,59.619],[34.269,59.68],[33.916,59.722],[33.556,59.757],[33.195,59.791],[32.85,59.842],[32.511,59.898],[32.176,59.958],[31.822,60.0],[31.462,60.035],[31.084,60.05],[30.695,60.053],[30.289,60.036],[29.858,59.988],[29.423,59.931],[28.975,59.856],[28.529,59.778],[28.085,59.699],[27.663,59.642],[27.262,59.609],[26.874,59.592],[26.488,59.574],[26.109,59.547],[25.766,59.47],[25.494,59.352],[25.235,59.21],[24.966,59.071],[24.664,58.937],[24.34,58.806],[24.004,58.691],[23.661,58.583],[23.357,58.469],[23.084,58.335],[22.892,58.182],[22.785,58.015],[22.726,57.841],[22.656,57.669],[22.541,57.504],[22.415,57.342],[22.29,57.179],[22.19,57.013],[22.121,56.882],[22.072,56.788]]}},{"type":"Feature","properties":{"kind":"warm","line":2,"px_len":159},"geometry":{"type":"LineString","coordinates":[[40.592,58.656],[40.916,58.762],[41.207,58.864],[41.508,58.971],[41.831,59.069],[42.167,59.163],[42.505,59.255],[42.835,59.351],[43.187,59.437],[43.583,59.507],[44.008,59.54],[44.43,59.547],[44.825,59.514],[45.169,59.449],[45.488,59.368],[45.796,59.281],[46.136,59.213],[46.474,59.144],[46.827,59.085],[47.179,59.024],[47.545,58.971],[47.911,58.918],[48.284,58.868],[48.647,58.812],[49.008,58.755],[49.36,58.692],[49.701,58.624],[50.032,58.549],[50.362,58.474],[50.689,58.397],[51.016,58.32],[51.331,58.237],[51.663,58.162],[52.019,58.1],[52.392,58.046],[52.781,58.0],[53.169,57.952],[53.538,57.894],[53.86,57.813],[54.099,57.692],[54.309,57.557],[54.482,57.405],[54.67,57.261],[54.857,57.117],[55.06,56.981],[55.271,56.849],[55.479,56.717],[55.695,56.588],[55.926,56.468],[56.156,56.347],[56.394,56.23],[56.62,56.109],[56.85,56.014],[57.065,55.938]]}},{"type":"Feature","properties":{"kind":"occl","line":3,"px_len":625},"geometry":{"type":"LineString","coordinates":[[-6.145,44.605],[-6.096,44.784],[-6.035,44.954],[-5.976,45.129],[-5.907,45.306],[-5.83,45.484],[-5.752,45.662],[-5.664,45.842],[-5.567,46.023],[-5.453,46.207],[-5.306,46.376],[-5.137,46.536],[-4.938,46.693],[-4.77,46.865],[-4.673,47.039],[-4.622,47.213],[-4.597,47.385],[-4.536,47.561],[-4.456,47.739],[-4.349,47.921],[-4.232,48.104],[-4.122,48.286],[-4.039,48.465],[-4.011,48.638],[-4.046,48.803],[-4.101,48.966],[-4.156,49.129],[-4.183,49.295],[-4.211,49.462],[-4.22,49.632],[-4.21,49.803],[-4.191,49.976],[-4.162,50.15],[-4.142,50.324],[-4.122,50.497],[-4.111,50.67],[-4.091,50.844],[-4.07,51.018],[-4.05,51.192],[-4.039,51.365],[-4.037,51.538],[-4.026,51.711],[-4.025,51.884],[-4.013,52.058],[-4.012,52.231],[-4.011,52.404],[-3.999,52.579],[-4.008,52.752],[-4.006,52.925],[-4.026,53.097],[-4.045,53.269],[-4.054,53.442],[-4.074,53.615],[-4.094,53.787],[-4.125,53.958],[-4.125,54.133],[-4.102,54.311],[-4.069,54.49],[-4.035,54.669],[-3.968,54.851],[-3.933,55.03],[-3.931,55.207],[-3.985,55.377],[-4.039,55.548],[-4.094,55.719],[-4.149,55.89],[-4.194,56.062],[-4.216,56.237],[-4.204,56.415],[-4.204,56.592],[-4.261,56.764],[-4.389,56.929],[-4.554,57.09],[-4.685,57.255],[-4.782,57.423],[-4.88,57.591],[-4.979,57.76],[-5.08,57.928],[-5.121,58.103],[-5.15,58.279],[-5.179,58.456],[-5.209,58.633],[-5.24,58.809],[-5.245,58.989],[-5.264,59.167],[-5.257,59.348],[-5.263,59.528],[-5.256,59.71],[-5.275,59.889],[-5.269,60.071],[-5.262,60.253],[-5.242,60.436],[-5.222,60.619],[-5.201,60.803],[-5.167,60.988],[-5.146,61.172],[-5.111,61.358],[-5.089,61.542],[-5.053,61.728],[-5.031,61.912],[-4.994,62.098],[-4.971,62.283],[-4.933,62.469],[-4.909,62.654],[-4.871,62.841],[-4.832,63.028],[-4.763,63.217],[-4.678,63.408],[-4.563,63.601],[-4.431,63.796],[-4.267,63.993],[-4.161,64.185],[-4.084,64.375],[-4.098,64.558],[-4.128,64.739],[-4.204,64.918],[-4.251,65.098],[-4.282,65.28],[-4.282,65.465],[-4.298,65.649],[-4.314,65.832],[-4.396,66.011],[-4.561,66.184],[-4.794,66.351],[-5.048,66.517],[-5.322,66.681],[-5.617,66.844],[-5.916,67.006],[-6.203,67.168],[-6.476,67.332],[-6.771,67.494],[-7.053,67.657],[-7.357,67.818],[-7.683,67.976],[-8.031,68.133],[-8.402,68.287],[-8.779,68.44],[-9.179,68.59],[-9.603,68.738],[-10.051,68.883],[-10.523,69.024],[-11.021,69.162],[-11.525,69.299],[-12.073,69.43],[-12.628,69.559],[-13.227,69.682],[-13.797,69.807],[-14.355,69.932],[-14.826,70.069],[-15.248,70.211],[-15.62,70.36],[-16.008,70.499],[-16.469,70.584],[-17.015,70.626],[-17.641,70.64],[-18.294,70.671],[-18.976,70.717],[-19.66,70.761],[-20.376,70.821],[-21.106,70.884],[-21.831,70.937],[-22.489,70.946],[-23.076,70.91],[-23.608,70.843],[-24.147,70.78],[-24.661,70.703],[-25.204,70.643],[-25.732,70.575],[-26.278,70.517],[-26.821,70.457],[-27.371,70.402],[-27.919,70.344],[-28.463,70.285],[-29.004,70.224],[-29.541,70.162],[-30.063,70.092],[-30.569,70.015],[-31.071,69.937],[-31.557,69.851],[-32.039,69.765],[-32.505,69.672],[-32.966,69.577],[-33.422,69.481],[-33.862,69.379],[-34.322,69.286],[-34.778,69.192],[-35.243,69.101],[-35.691,69.004],[-36.147,68.911],[-36.624,68.827],[-37.111,68.746],[-37.568,68.654],[-37.982,68.546],[-38.353,68.423],[-38.706,68.294],[-39.056,68.164],[-39.401,68.033],[-39.741,67.902],[-40.078,67.77],[-40.45,67.651],[-40.778,67.517],[-41.051,67.365],[-41.23,67.18],[-41.38,66.986],[-41.528,66.792],[-41.661,66.593],[-41.829,66.408],[-42.008,66.237],[-42.206,66.055]]}},{"type":"Feature","properties":{"kind":"warm","line":4,"px_len":172},"geometry":{"type":"LineString","coordinates":[[-53.95,43.613],[-54.065,43.804],[-54.17,43.985],[-54.266,44.189],[-54.353,44.396],[-54.41,44.604],[-54.452,44.807],[-54.515,44.998],[-54.61,45.187],[-54.749,45.345],[-54.906,45.482],[-55.09,45.587],[-55.282,45.681],[-55.471,45.78],[-55.661,45.879],[-55.84,45.993],[-56.02,46.107],[-56.192,46.231],[-56.362,46.361],[-56.529,46.495],[-56.697,46.63],[-56.87,46.759],[-57.048,46.882],[-57.228,47.005],[-57.412,47.122],[-57.602,47.233],[-57.797,47.339],[-57.992,47.444],[-58.193,47.543],[-58.395,47.642],[-58.601,47.735],[-58.805,47.833],[-59.014,47.925],[-59.216,48.028],[-59.426,48.119],[-59.631,48.221],[-59.847,48.305],[-60.05,48.412],[-60.253,48.518],[-60.447,48.641],[-60.646,48.758],[-60.838,48.885],[-61.032,49.013],[-61.238,49.123],[-61.474,49.187],[-61.733,49.215],[-62.002,49.226],[-62.271,49.236],[-62.537,49.251],[-62.797,49.277],[-63.053,49.307],[-63.307,49.343],[-63.557,49.384],[-63.802,49.435],[-64.044,49.492],[-64.297,49.531],[-64.541,49.567],[-64.804,49.606]]}},{"type":"Feature","properties":{"kind":"cold","line":5,"px_len":74},"geometry":{"type":"LineString","coordinates":[[-66.609,49.812],[-66.898,49.797],[-67.157,49.802],[-67.423,49.814],[-67.689,49.825],[-67.955,49.836],[-68.221,49.845],[-68.49,49.848],[-68.761,49.844],[-69.04,49.821],[-69.323,49.785],[-69.61,49.736],[-69.901,49.675],[-70.182,49.636],[-70.447,49.639],[-70.695,49.689],[-70.941,49.745],[-71.196,49.776],[-71.456,49.794],[-71.717,49.811],[-71.973,49.84],[-72.234,49.856],[-72.495,49.871],[-72.756,49.885],[-72.955,49.91],[-73.097,49.927]]}}]}