{"type":"FeatureCollection","properties":{"chart":"fc","src":"Z__C_EDZW_20261004044650_nwv01,ico_tkb_na_N_000060_000000_202610040000_WV12.png","valid_time":"2026-10-06T12:00:00+00:00"},"features":[{"type":"Feature","properties":{"kind":"cold","line":0,"px_len":360},"geometry":{"type":"LineString","coordinates":[[-24.477,44.398],[-24.304,44.519],[-24.15,44.64],[-23.987,44.763],[-23.823,44.886],[-23.658,45.008],[-23.497,45.136],[-23.33,45.258],[-23.162,45.38],[-22.993,45.502],[-22.827,45.629],[-22.661,45.755],[-22.489,45.877],[-22.316,45.997],[-22.142,46.118],[-21.966,46.238],[-21.79,46.358],[-21.609,46.472],[-21.426,46.586],[-21.235,46.689],[-21.042,46.792],[-20.84,46.883],[-20.638,46.974],[-20.426,47.053],[-20.213,47.133],[-20.008,47.222],[-19.825,47.344],[-19.673,47.51],[-19.527,47.687],[-19.38,47.863],[-19.216,48.018],[-19.043,48.161],[-18.853,48.281],[-18.657,48.396],[-18.461,48.511],[-18.267,48.63],[-18.072,48.75],[-17.875,48.868],[-17.678,48.987],[-17.479,49.105],[-17.279,49.223],[-17.077,49.341],[-16.875,49.458],[-16.671,49.575],[-16.465,49.691],[-16.259,49.807],[-16.051,49.922],[-15.842,50.038],[-15.632,50.152],[-15.42,50.267],[-15.207,50.381],[-14.993,50.494],[-14.78,50.613],[-14.567,50.732],[-14.352,50.85],[-14.125,50.95],[-13.894,51.043],[-13.654,51.125],[-13.414,51.205],[-13.172,51.285],[-12.926,51.359],[-12.676,51.426],[-12.428,51.498],[-12.208,51.624],[-12.002,51.779],[-11.804,51.951],[-11.594,52.105],[-11.383,52.259],[-11.164,52.4],[-10.933,52.523],[-10.695,52.634],[-10.455,52.744],[-10.214,52.853],[-9.975,52.968],[-9.73,53.076],[-9.487,53.19],[-9.24,53.297],[-8.991,53.403],[-8.738,53.503],[-8.483,53.602],[-8.233,53.713],[-7.98,53.823],[-7.726,53.933],[-7.465,54.03],[-7.205,54.132],[-6.944,54.234],[-6.681,54.335],[-6.414,54.429],[-6.145,54.522],[-5.878,54.621],[-5.608,54.72],[-5.337,54.817],[-5.058,54.895],[-4.776,54.966],[-4.492,55.037],[-4.205,55.1],[-3.913,55.15],[-3.615,55.18],[-3.316,55.209],[-3.018,55.243],[-2.731,55.321],[-2.454,55.437],[-2.181,55.577],[-1.905,55.71],[-1.621,55.823],[-1.332,55.923],[-1.037,56.003],[-0.74,56.075],[-0.441,56.147],[-0.138,56.205],[0.166,56.263],[0.473,56.313],[0.78,56.362],[1.088,56.41],[1.398,56.451],[1.709,56.49],[2.021,56.529],[2.334,56.561],[2.649,56.585],[2.928,56.614],[3.171,56.66]]}},{"type":"Feature","properties":{"kind":"warm","line":0,"px_len":115},"geometry":{"type":"LineString","coordinates":[[3.171,56.66],[3.499,56.675],[3.803,56.702],[4.12,56.728],[4.437,56.747],[4.755,56.772],[5.073,56.795],[5.391,56.817],[5.71,56.819],[6.03,56.827],[6.349,56.846],[6.669,56.865],[6.989,56.876],[7.309,56.886],[7.63,56.901],[7.951,56.916],[8.273,56.942],[8.597,56.981],[8.923,57.038],[9.25,57.087],[9.577,57.129],[9.904,57.164],[10.227,57.158],[10.545,57.12],[10.857,57.048],[11.17,56.981],[11.48,56.914],[11.793,56.865],[12.108,56.829],[12.422,56.797],[12.735,56.759],[13.048,56.719],[13.362,56.691],[13.677,56.669],[13.992,56.646],[14.306,56.622],[14.62,56.597],[14.922,56.572],[15.246,56.544]]}},{"type":"Feature","properties":{"kind":"cold","line":0,"px_len":244},"geometry":{"type":"LineString","coordinates":[[15.246,56.544],[15.57,56.515],[15.87,56.487],[16.181,56.457],[16.492,56.426],[16.802,56.395],[17.111,56.362],[17.42,56.329],[17.728,56.294],[18.035,56.259],[18.341,56.223],[18.645,56.18],[18.942,56.123],[19.236,56.059],[19.523,55.982],[19.809,55.903],[20.105,55.85],[20.416,55.832],[20.742,55.845],[21.068,55.857],[21.394,55.868],[21.71,55.859],[22.027,55.85],[22.334,55.82],[22.65,55.809],[22.956,55.777],[23.272,55.764],[23.584,55.743],[23.902,55.734],[24.217,55.717],[24.535,55.706],[24.856,55.699],[25.181,55.698],[25.509,55.702],[25.838,55.705],[26.171,55.713],[26.507,55.725],[26.848,55.743],[27.186,55.753],[27.523,55.763],[27.869,55.783],[28.22,55.808],[28.571,55.831],[28.923,55.854],[29.28,55.881],[29.638,55.907],[29.996,55.932],[30.354,55.955],[30.708,55.972],[31.048,55.969],[31.384,55.96],[31.709,55.938],[32.033,55.915],[32.362,55.911],[32.686,55.958],[32.99,56.053],[33.276,56.167],[33.564,56.281],[33.905,56.378],[34.29,56.463],[34.718,56.534],[35.148,56.603],[35.549,56.68],[35.942,56.758],[36.316,56.842],[36.692,56.924],[37.06,57.009],[37.41,57.098],[37.761,57.187],[38.084,57.285],[38.44,57.371],[38.797,57.457],[39.177,57.534],[39.569,57.606],[39.973,57.65],[40.394,57.67],[40.802,57.678],[41.211,57.685],[41.605,57.679],[41.992,57.667],[42.327,57.681],[42.64,57.744]]}},{"type":"Feature","properties":{"kind":"stat","line":0,"px_len":70},"geometry":{"type":"LineString","coordinates":[[42.64,57.744],[42.804,57.906],[42.966,58.053],[43.146,58.202],[43.347,58.342],[43.551,58.483],[43.756,58.623],[43.964,58.762],[44.173,58.902],[44.354,59.053],[44.537,59.204],[44.722,59.354],[44.93,59.497],[45.119,59.647],[45.31,59.797],[45.482,59.956],[45.677,60.105],[45.854,60.263],[46.053,60.412],[46.254,60.561],[46.447,60.715],[46.621,60.876],[46.789,61.032],[47.007,61.185]]}},{"type":"Feature","properties":{"kind":"occl","line":0,"px_len":197},"geometry":{"type":"LineString","coordinates":[[47.007,61.185],[47.176,61.36],[47.35,61.516],[47.546,61.672],[47.733,61.832],[47.901,62.001],[48.061,62.175],[48.223,62.348],[48.387,62.521],[48.553,62.695],[48.722,62.868],[48.914,63.031],[49.12,63.191],[49.349,63.34],[49.593,63.485],[49.861,63.621],[50.077,63.779],[50.23,63.964],[50.309,64.182],[50.411,64.392],[50.548,64.587],[50.733,64.763],[50.942,64.929],[51.166,65.091],[51.359,65.267],[51.475,65.476],[51.513,65.719],[51.481,65.962],[51.413,66.191],[51.319,66.41],[51.248,66.639],[51.212,66.883],[51.2,67.137],[51.2,67.395],[51.2,67.654],[51.2,67.913],[51.2,68.172],[51.226,68.422],[51.279,68.663],[51.36,68.894],[51.403,69.13],[51.309,69.337],[51.09,69.52],[50.769,69.669],[50.458,69.823],[50.128,69.971],[49.779,70.113],[49.425,70.255],[49.08,70.401],[48.757,70.556],[48.429,70.711],[48.025,70.84],[47.533,70.937],[46.912,70.987],[46.247,71.018],[45.554,71.036],[44.885,71.062],[44.227,71.09],[43.594,71.128],[42.983,71.174],[42.37,71.218],[41.765,71.265],[41.146,71.305],[40.548,71.354],[39.959,71.406],[39.534,71.463],[39.263,71.519]]}},{"type":"Feature","properties":{"kind":"warm","line":1,"px_len":141},"geometry":{"type":"LineString","coordinates":[[35.076,51.193],[35.352,51.298],[35.603,51.397],[35.868,51.498],[36.135,51.598],[36.395,51.701],[36.648,51.806],[36.893,51.914],[37.148,52.018],[37.414,52.119],[37.69,52.215],[37.968,52.31],[38.256,52.401],[38.554,52.488],[38.853,52.575],[39.128,52.67],[39.335,52.793],[39.481,52.939],[39.575,53.106],[39.671,53.274],[39.768,53.441],[39.892,53.598],[40.035,53.748],[40.198,53.891],[40.361,54.033],[40.527,54.176],[40.684,54.321],[40.825,54.474],[40.967,54.627],[41.12,54.776],[41.292,54.918],[41.466,55.059],[41.614,55.212],[41.763,55.364],[41.913,55.516],[42.075,55.664],[42.228,55.816],[42.383,55.968],[42.558,56.112],[42.744,56.252],[42.931,56.392],[43.121,56.532],[43.255,56.694],[43.277,56.872],[43.164,57.048],[42.992,57.215],[42.833,57.36],[42.709,57.499]]}},{"type":"Feature","properties":{"kind":"occl","line":2,"px_len":527},"geometry":{"type":"LineString","coordinates":[[45.989,46.758],[46.149,46.889],[46.298,47.01],[46.461,47.132],[46.639,47.246],[46.818,47.359],[46.99,47.477],[47.151,47.602],[47.319,47.722],[47.502,47.835],[47.686,47.947],[47.864,48.063],[48.029,48.187],[48.196,48.31],[48.364,48.434],[48.532,48.557],[48.702,48.68],[48.873,48.802],[49.045,48.925],[49.218,49.047],[49.407,49.16],[49.596,49.273],[49.793,49.382],[49.978,49.499],[50.157,49.62],[50.295,49.766],[50.401,49.934],[50.486,50.115],[50.586,50.288],[50.708,50.447],[50.852,50.593],[50.997,50.74],[51.13,50.895],[51.235,51.067],[51.299,51.267],[51.328,51.488],[51.3,51.711],[51.258,51.924],[51.215,52.138],[51.2,52.37],[51.2,52.611],[51.215,52.844],[51.237,53.072],[51.283,53.288],[51.313,53.512],[51.36,53.728],[51.384,53.957],[51.424,54.178],[51.448,54.408],[51.473,54.639],[51.507,54.865],[51.533,55.096],[51.567,55.323],[51.594,55.554],[51.629,55.781],[51.673,56.004],[51.741,56.214],[51.835,56.409],[51.964,56.587],[52.109,56.755],[52.282,56.909],[52.456,57.062],[52.582,57.244],[52.676,57.445],[52.738,57.665],[52.826,57.87],[52.933,58.067],[53.074,58.244],[53.226,58.417],[53.388,58.584],[53.527,58.766],[53.641,58.963],[53.705,59.189],[53.715,59.416],[53.708,59.652],[53.728,59.875],[53.803,60.097],[53.916,60.299],[54.039,60.497],[54.182,60.684],[54.327,60.872],[54.483,61.055],[54.632,61.243],[54.801,61.42],[54.973,61.598],[55.146,61.775],[55.304,61.963],[55.445,62.16],[55.56,62.373],[55.659,62.596],[55.787,62.803],[55.965,62.986],[56.203,63.137],[56.443,63.289],[56.676,63.445],[56.865,63.626],[57.018,63.828],[57.154,64.041],[57.293,64.253],[57.493,64.434],[57.734,64.594],[58.027,64.728],[58.314,64.866],[58.613,64.998],[58.906,65.135],[59.212,65.266],[59.512,65.402],[59.835,65.526],[60.122,65.671],[60.385,65.833],[60.593,66.026],[60.823,66.209],[61.067,66.386],[61.354,66.54],[61.645,66.694],[61.949,66.842],[62.228,67.006],[62.483,67.186],[62.683,67.4],[62.818,67.629],[62.866,67.861],[62.916,68.092],[63.027,68.314],[63.203,68.551],[63.414,68.771],[63.619,68.996],[63.839,69.216],[64.032,69.452],[64.193,69.697],[64.313,69.94],[64.402,70.176],[64.459,70.405],[64.499,70.631],[64.523,70.853],[64.511,71.068],[64.48,71.279],[64.413,71.484],[64.362,71.692],[64.291,71.897],[64.2,72.098],[64.087,72.295],[63.953,72.489],[63.835,72.687],[63.694,72.88],[63.61,73.086],[63.544,73.294],[63.538,73.514],[63.49,73.727],[63.483,73.948],[63.497,74.172],[63.554,74.404],[63.504,74.617],[63.319,74.808],[62.994,74.976],[62.618,75.136],[62.21,75.291],[61.794,75.446],[61.368,75.6],[60.934,75.753],[60.489,75.906],[60.035,76.057],[59.571,76.208],[59.073,76.354],[58.447,76.478],[57.598,76.561],[56.646,76.623],[55.685,76.682],[54.83,76.76],[53.987,76.84],[53.179,76.926],[52.404,77.019],[51.686,77.125],[50.955,77.229],[50.257,77.34],[49.502,77.44],[48.943,77.524],[48.521,77.58]]}},{"type":"Feature","properties":{"kind":"cold","line":3,"px_len":223},"geometry":{"type":"LineString","coordinates":[[-62.312,41.042],[-62.203,41.185],[-62.1,41.318],[-61.985,41.454],[-61.878,41.592],[-61.762,41.728],[-61.66,41.868],[-61.543,42.004],[-61.44,42.144],[-61.321,42.28],[-61.216,42.42],[-61.096,42.556],[-60.983,42.694],[-60.868,42.832],[-60.753,42.97],[-60.623,43.103],[-60.476,43.231],[-60.329,43.36],[-60.226,43.502],[-60.167,43.659],[-60.138,43.825],[-60.094,43.987],[-60.041,44.147],[-59.973,44.302],[-59.897,44.454],[-59.805,44.602],[-59.712,44.75],[-59.619,44.898],[-59.525,45.046],[-59.43,45.194],[-59.334,45.342],[-59.262,45.498],[-59.188,45.654],[-59.114,45.81],[-59.024,45.961],[-58.949,46.117],[-58.873,46.273],[-58.813,46.435],[-58.736,46.591],[-58.683,46.755],[-58.613,46.915],[-58.558,47.079],[-58.504,47.244],[-58.456,47.411],[-58.409,47.579],[-58.361,47.747],[-58.321,47.917],[-58.289,48.091],[-58.265,48.267],[-58.224,48.438],[-58.182,48.61],[-58.132,48.778],[-58.073,48.945],[-57.996,49.106],[-57.911,49.264],[-57.85,49.431],[-57.874,49.597],[-57.975,49.76],[-58.143,49.923],[-58.308,50.091],[-58.444,50.27],[-58.56,50.464],[-58.664,50.674],[-58.784,50.896],[-58.927,51.104],[-59.076,51.306],[-59.235,51.496],[-59.395,51.686],[-59.561,51.871],[-59.725,52.061],[-59.85,52.261],[-59.93,52.462],[-59.969,52.659],[-59.993,52.845],[-60.028,53.049]]}},{"type":"Feature","properties":{"kind":"warm","line":3,"px_len":202},"geometry":{"type":"LineString","coordinates":[[-60.028,53.049],[-59.841,53.193],[-59.632,53.318],[-59.397,53.443],[-59.141,53.562],[-58.864,53.675],[-58.575,53.785],[-58.265,53.888],[-57.933,53.957],[-57.595,53.987],[-57.289,53.962],[-57.009,53.908],[-56.749,53.83],[-56.505,53.734],[-56.262,53.638],[-56.021,53.542],[-55.756,53.473],[-55.487,53.408],[-55.219,53.344],[-54.947,53.283],[-54.681,53.217],[-54.406,53.161],[-54.142,53.093],[-53.879,53.025],[-53.628,52.945],[-53.367,52.875],[-53.108,52.804],[-52.833,52.749],[-52.565,52.688],[-52.281,52.642],[-51.998,52.596],[-51.71,52.554],[-51.434,52.5],[-51.187,52.419],[-50.98,52.301],[-50.808,52.15],[-50.649,51.988],[-50.491,51.827],[-50.335,51.665],[-50.174,51.508],[-50.015,51.352],[-49.846,51.205],[-49.684,51.053],[-49.518,50.907],[-49.348,50.765],[-49.168,50.633],[-48.983,50.506],[-48.794,50.384],[-48.612,50.257],[-48.431,50.129],[-48.252,50.002],[-48.085,49.863],[-47.947,49.7],[-47.864,49.5],[-47.834,49.294],[-47.846,49.093],[-47.858,48.893],[-47.855,48.686],[-47.805,48.479],[-47.743,48.274],[-47.656,48.072],[-47.57,47.87],[-47.474,47.678],[-47.379,47.486],[-47.285,47.295],[-47.197,47.098],[-47.096,46.925],[-46.981,46.745]]}},{"type":"Feature","properties":{"kind":"occl","line":4,"px_len":127},"geometry":{"type":"LineString","coordinates":[[-60.339,53.192],[-60.628,53.239],[-60.894,53.286],[-61.163,53.347],[-61.416,53.43],[-61.671,53.513],[-61.919,53.606],[-62.172,53.694],[-62.418,53.792],[-62.666,53.89],[-62.916,53.987],[-63.167,54.084],[-63.427,54.168],[-63.684,54.258],[-63.951,54.335],[-64.222,54.405],[-64.502,54.462],[-64.782,54.519],[-65.064,54.575],[-65.346,54.63],[-65.63,54.684],[-65.914,54.738],[-66.196,54.796],[-66.472,54.867],[-66.769,54.899],[-67.089,54.888],[-67.434,54.827],[-67.778,54.765],[-68.114,54.713],[-68.447,54.667],[-68.775,54.626],[-69.106,54.577],[-69.443,54.509],[-69.788,54.422],[-70.135,54.32],[-70.473,54.236],[-70.776,54.153],[-71.017,54.048],[-71.193,53.908],[-71.341,53.751],[-71.476,53.593],[-71.608,53.441],[-71.733,53.275]]}}]}