{"type":"FeatureCollection","properties":{"chart":"fc","src":"Z__C_EDZW_20261005061433_nwv01,ico_tkb_na_N_000084_000000_202610050000_WV12.png","valid_time":"2026-10-08T12:00:00+00:00"},"features":[{"type":"Feature","properties":{"kind":"cold","line":0,"px_len":180},"geometry":{"type":"LineString","coordinates":[[14.64,48.157],[14.742,48.321],[14.86,48.471],[15.0,48.625],[15.15,48.778],[15.31,48.93],[15.471,49.082],[15.634,49.234],[15.723,49.394],[15.776,49.558],[15.79,49.726],[15.805,49.895],[15.849,50.06],[15.893,50.226],[15.966,50.389],[16.031,50.553],[16.105,50.716],[16.19,50.878],[16.276,51.04],[16.353,51.203],[16.45,51.364],[16.529,51.527],[16.618,51.69],[16.697,51.853],[16.778,52.017],[16.88,52.178],[16.972,52.341],[17.085,52.501],[17.2,52.662],[17.357,52.817],[17.505,52.974],[17.602,53.137],[17.617,53.31],[17.611,53.485],[17.595,53.662],[17.61,53.836],[17.636,54.008],[17.673,54.179],[17.7,54.352],[17.727,54.525],[17.776,54.695],[17.836,54.864],[17.864,55.038],[17.892,55.211],[17.921,55.385],[17.983,55.555],[18.024,55.727],[18.054,55.901],[18.107,56.073],[18.194,56.241],[18.294,56.407],[18.394,56.573],[18.485,56.741],[18.53,56.915],[18.494,57.098],[18.434,57.284],[18.373,57.471],[18.347,57.653],[18.357,57.831],[18.431,57.983],[18.546,58.109]]}},{"type":"Feature","properties":{"kind":"cold","line":1,"px_len":66},"geometry":{"type":"LineString","coordinates":[[52.049,46.8],[51.772,46.75],[51.526,46.704],[51.282,46.7],[51.049,46.739],[50.822,46.816],[50.582,46.883],[50.335,46.946],[50.099,47.016],[49.894,47.108],[49.712,47.218],[49.529,47.327],[49.345,47.435],[49.148,47.535],[48.956,47.638],[48.751,47.732],[48.55,47.83],[48.337,47.919],[48.128,48.012],[47.919,48.104],[47.708,48.196],[47.524,48.28],[47.366,48.356]]}},{"type":"Feature","properties":{"kind":"warm","line":1,"px_len":340},"geometry":{"type":"LineString","coordinates":[[47.366,48.356],[47.17,48.469],[46.987,48.574],[46.796,48.682],[46.604,48.791],[46.411,48.898],[46.234,49.02],[46.057,49.142],[45.897,49.277],[45.736,49.412],[45.591,49.562],[45.452,49.716],[45.305,49.865],[45.139,50.0],[44.929,50.101],[44.688,50.176],[44.427,50.237],[44.184,50.311],[43.946,50.39],[43.736,50.493],[43.514,50.585],[43.296,50.682],[43.065,50.769],[42.863,50.88],[42.665,50.996],[42.478,51.121],[42.278,51.236],[42.094,51.366],[41.909,51.496],[41.734,51.635],[41.57,51.785],[41.428,51.955],[41.296,52.136],[41.175,52.326],[41.046,52.512],[40.911,52.692],[40.732,52.836],[40.516,52.949],[40.275,53.039],[40.038,53.135],[39.818,53.246],[39.597,53.356],[39.368,53.461],[39.144,53.571],[38.929,53.691],[38.731,53.826],[38.525,53.956],[38.324,54.091],[38.121,54.225],[37.922,54.365],[37.721,54.504],[37.524,54.649],[37.343,54.81],[37.172,54.981],[37.022,55.175],[36.887,55.385],[36.768,55.611],[36.635,55.827],[36.472,56.015],[36.261,56.158],[36.018,56.273],[35.762,56.376],[35.505,56.479],[35.252,56.586],[34.997,56.693],[34.751,56.811],[34.515,56.94],[34.282,57.074],[34.059,57.219],[33.828,57.358],[33.601,57.502],[33.366,57.64],[33.134,57.784],[32.905,57.933],[32.686,58.093],[32.469,58.259],[32.261,58.436],[32.051,58.613],[31.827,58.777],[31.573,58.912],[31.28,59.006],[30.952,59.062],[30.597,59.088],[30.241,59.113],[29.901,59.154],[29.564,59.201],[29.236,59.259],[28.907,59.315],[28.586,59.383],[28.255,59.438],[27.917,59.486],[27.578,59.532],[27.248,59.59],[26.906,59.635],[26.564,59.679],[26.208,59.703],[25.864,59.745],[25.519,59.785],[25.186,59.843],[24.851,59.901],[24.515,59.957],[24.178,60.012],[23.84,60.066],[23.492,60.107],[23.117,60.103],[22.719,60.059],[22.322,59.967],[21.984,59.851],[21.675,59.711],[21.382,59.567],[21.055,59.429],[20.696,59.3],[20.326,59.193],[19.908,59.091]]}},{"type":"Feature","properties":{"kind":"warm","line":2,"px_len":190},"geometry":{"type":"LineString","coordinates":[[-54.85,38.451],[-54.966,38.618],[-55.023,38.774],[-55.012,38.933],[-54.936,39.077],[-54.839,39.213],[-54.741,39.348],[-54.657,39.49],[-54.578,39.634],[-54.498,39.779],[-54.405,39.918],[-54.325,40.062],[-54.257,40.213],[-54.209,40.372],[-54.153,40.528],[-54.097,40.685],[-54.041,40.841],[-53.978,40.995],[-53.914,41.149],[-53.836,41.298],[-53.765,41.449],[-53.686,41.598],[-53.614,41.75],[-53.547,41.904],[-53.487,42.062],[-53.434,42.223],[-53.38,42.384],[-53.34,42.552],[-53.292,42.716],[-53.216,42.869],[-53.105,43.006],[-52.944,43.122],[-52.747,43.223],[-52.536,43.317],[-52.323,43.411],[-52.116,43.507],[-51.902,43.6],[-51.7,43.698],[-51.512,43.803],[-51.323,43.907],[-51.125,44.007],[-50.92,44.104],[-50.714,44.2],[-50.499,44.293],[-50.284,44.385],[-50.082,44.483],[-49.893,44.588],[-49.717,44.698],[-49.553,44.816],[-49.396,44.936],[-49.238,45.056],[-49.058,45.166],[-48.863,45.269],[-48.632,45.353],[-48.363,45.412],[-48.068,45.442],[-47.759,45.463],[-47.445,45.489],[-47.14,45.534],[-46.849,45.585],[-46.577,45.646],[-46.312,45.709],[-46.064,45.775],[-45.792,45.842]]}},{"type":"Feature","properties":{"kind":"cold","line":2,"px_len":395},"geometry":{"type":"LineString","coordinates":[[-45.792,45.842],[-45.526,45.911],[-45.283,45.978],[-45.02,46.042],[-44.763,46.108],[-44.485,46.162],[-44.199,46.212],[-43.906,46.256],[-43.606,46.296],[-43.309,46.312],[-43.031,46.34],[-42.813,46.402],[-42.637,46.514],[-42.459,46.625],[-42.281,46.737],[-42.088,46.839],[-41.907,46.95],[-41.719,47.056],[-41.53,47.162],[-41.333,47.263],[-41.136,47.364],[-40.937,47.464],[-40.743,47.568],[-40.542,47.668],[-40.347,47.772],[-40.157,47.879],[-39.96,47.982],[-39.768,48.088],[-39.568,48.19],[-39.374,48.296],[-39.172,48.397],[-38.963,48.494],[-38.759,48.594],[-38.528,48.677],[-38.289,48.754],[-38.03,48.818],[-37.808,48.907],[-37.619,49.018],[-37.474,49.161],[-37.328,49.303],[-37.18,49.445],[-37.019,49.578],[-36.85,49.706],[-36.666,49.825],[-36.482,49.943],[-36.309,50.071],[-36.135,50.198],[-35.953,50.32],[-35.757,50.433],[-35.566,50.55],[-35.388,50.676],[-35.207,50.802],[-35.02,50.923],[-34.824,51.039],[-34.64,51.164],[-34.455,51.289],[-34.262,51.408],[-34.054,51.518],[-33.846,51.628],[-33.616,51.722],[-33.373,51.806],[-33.128,51.89],[-32.94,52.017],[-32.79,52.173],[-32.664,52.349],[-32.524,52.515],[-32.37,52.671],[-32.207,52.822],[-32.03,52.962],[-31.846,53.098],[-31.66,53.233],[-31.472,53.368],[-31.283,53.503],[-31.092,53.638],[-30.9,53.772],[-30.706,53.906],[-30.511,54.04],[-30.314,54.173],[-30.116,54.306],[-29.909,54.434],[-29.695,54.556],[-29.472,54.672],[-29.236,54.778],[-28.991,54.878],[-28.744,54.977],[-28.496,55.076],[-28.266,55.19],[-28.066,55.33],[-27.896,55.497],[-27.73,55.669],[-27.57,55.846],[-27.394,56.012],[-27.217,56.178],[-27.019,56.327],[-26.819,56.477],[-26.61,56.62],[-26.4,56.763],[-26.188,56.906],[-25.974,57.049],[-25.751,57.186],[-25.527,57.322],[-25.288,57.447],[-25.053,57.577],[-24.81,57.702],[-24.565,57.825],[-24.3,57.931],[-24.02,58.026],[-23.744,58.125],[-23.467,58.224],[-23.213,58.345],[-22.999,58.505],[-22.831,58.711],[-22.679,58.933],[-22.507,59.139],[-22.32,59.333],[-22.118,59.515],[-21.92,59.703],[-21.719,59.891],[-21.54,60.101],[-21.353,60.306],[-21.181,60.528],[-21.018,60.748],[-20.896,60.978],[-20.753,61.192],[-20.576,61.39],[-20.354,61.577],[-20.122,61.757],[-19.893,61.944],[-19.655,62.123],[-19.414,62.303],[-19.151,62.464],[-18.939,62.584],[-18.779,62.662]]}},{"type":"Feature","properties":{"kind":"warm","line":2,"px_len":212},"geometry":{"type":"LineString","coordinates":[[-18.779,62.662],[-18.489,62.819],[-18.133,62.864],[-17.701,62.813],[-17.269,62.711],[-16.875,62.593],[-16.538,62.464],[-16.244,62.327],[-15.979,62.184],[-15.716,62.04],[-15.457,61.896],[-15.214,61.749],[-14.986,61.599],[-14.76,61.449],[-14.524,61.301],[-14.291,61.152],[-14.073,61.001],[-13.832,60.854],[-13.58,60.709],[-13.294,60.571],[-13.035,60.427],[-12.779,60.283],[-12.576,60.129],[-12.424,59.968],[-12.349,59.793],[-12.324,59.61],[-12.323,59.424],[-12.31,59.239],[-12.286,59.057],[-12.237,58.879],[-12.166,58.706],[-12.071,58.536],[-11.978,58.367],[-11.909,58.194],[-11.841,58.02],[-11.762,57.849],[-11.661,57.682],[-11.56,57.515],[-11.461,57.348],[-11.363,57.181],[-11.255,57.016],[-11.125,56.855],[-10.963,56.7],[-10.814,56.543],[-10.655,56.387],[-10.564,56.22],[-10.518,56.046],[-10.572,55.855],[-10.669,55.658],[-10.775,55.458],[-10.88,55.258],[-10.952,55.064],[-11.023,54.871],[-11.072,54.681],[-11.131,54.49],[-11.168,54.302],[-11.184,54.119],[-11.179,53.939],[-11.144,53.766],[-11.119,53.59],[-11.064,53.421],[-11.009,53.251],[-10.945,53.084],[-10.862,52.921],[-10.829,52.748],[-10.826,52.57],[-10.903,52.377],[-11.011,52.185],[-11.163,51.998],[-11.333,51.806],[-11.449,51.658],[-11.499,51.549]]}},{"type":"Feature","properties":{"kind":"stat","line":3,"px_len":32},"geometry":{"type":"LineString","coordinates":[[-18.874,63.038],[-19.237,63.167],[-19.55,63.292],[-19.819,63.434],[-20.078,63.578],[-20.353,63.719],[-20.618,63.862],[-20.844,64.014],[-21.033,64.175],[-21.224,64.335],[-21.374,64.46],[-21.483,64.549]]}},{"type":"Feature","properties":{"kind":"occl","line":3,"px_len":148},"geometry":{"type":"LineString","coordinates":[[-21.483,64.549],[-21.687,64.715],[-21.879,64.869],[-22.081,65.029],[-22.286,65.189],[-22.451,65.358],[-22.619,65.527],[-22.746,65.705],[-22.918,65.874],[-23.093,66.043],[-23.357,66.191],[-23.698,66.323],[-24.116,66.436],[-24.537,66.549],[-24.934,66.667],[-25.291,66.795],[-25.652,66.922],[-26.017,67.048],[-26.445,67.159],[-26.966,67.246],[-27.558,67.298],[-28.157,67.313],[-28.697,67.293],[-29.195,67.248],[-29.691,67.202],[-30.174,67.149],[-30.687,67.111],[-31.197,67.071],[-31.749,67.05],[-32.299,67.027],[-32.859,67.008],[-33.44,66.997],[-34.032,66.988],[-34.646,66.988],[-35.179,66.949],[-35.665,66.889],[-36.067,66.792],[-36.478,66.698],[-36.861,66.594],[-37.265,66.498],[-37.688,66.412],[-38.144,66.338],[-38.596,66.263],[-39.034,66.182],[-39.385,66.067],[-39.662,65.922],[-39.888,65.759],[-40.123,65.599],[-40.355,65.449],[-40.559,65.271]]}},{"type":"Feature","properties":{"kind":"occl","line":4,"px_len":241},"geometry":{"type":"LineString","coordinates":[[58.001,69.767],[58.34,69.617],[58.651,69.476],[58.968,69.33],[59.282,69.183],[59.606,69.04],[59.956,68.904],[60.301,68.767],[60.658,68.634],[61.024,68.504],[61.417,68.381],[61.85,68.268],[62.234,68.143],[62.582,68.01],[62.882,67.864],[63.192,67.722],[63.513,67.583],[63.83,67.443],[64.158,67.307],[64.511,67.176],[64.846,67.042],[65.147,66.9],[65.356,66.736],[65.547,66.569],[65.751,66.405],[66.009,66.255],[66.235,66.097],[66.486,65.946],[66.72,65.791],[66.98,65.642],[67.236,65.493],[67.489,65.344],[67.781,65.204],[68.028,65.054],[68.272,64.903],[68.498,64.749],[68.736,64.598],[69.012,64.456],[69.244,64.304],[69.418,64.14],[69.467,63.948],[69.476,63.748],[69.483,63.548],[69.544,63.36],[69.618,63.175],[69.703,62.993],[69.813,62.817],[69.896,62.636],[69.927,62.442],[69.892,62.234],[69.859,62.027],[69.851,61.825],[69.881,61.632],[69.935,61.446],[70.037,61.271],[70.163,61.102],[70.324,60.942],[70.52,60.79],[70.714,60.638],[70.905,60.485],[71.059,60.325],[71.21,60.164],[71.36,60.003],[71.539,59.856],[71.8,59.742],[72.141,59.647],[72.557,59.561],[72.957,59.456],[73.33,59.344],[73.629,59.216],[73.914,59.086],[74.22,58.959],[74.561,58.853],[74.937,58.768],[75.317,58.711],[75.706,58.676],[76.093,58.639],[76.497,58.576],[76.896,58.477],[77.273,58.366],[77.666,58.243]]}},{"type":"Feature","properties":{"kind":"warm","line":5,"px_len":146},"geometry":{"type":"LineString","coordinates":[[-71.752,43.157],[-71.705,43.32],[-71.66,43.471],[-71.613,43.628],[-71.55,43.783],[-71.478,43.936],[-71.39,44.087],[-71.292,44.237],[-71.178,44.384],[-71.055,44.53],[-70.947,44.679],[-70.879,44.834],[-70.869,44.999],[-70.909,45.172],[-70.966,45.348],[-71.024,45.525],[-71.074,45.7],[-71.124,45.875],[-71.157,46.048],[-71.174,46.218],[-71.173,46.386],[-71.181,46.555],[-71.19,46.725],[-71.198,46.895],[-71.206,47.065],[-71.215,47.235],[-71.232,47.407],[-71.25,47.578],[-71.25,47.748],[-71.25,47.918],[-71.223,48.083],[-71.213,48.252],[-71.186,48.418],[-71.158,48.585],[-71.112,48.748],[-71.056,48.911],[-71.019,49.077],[-71.045,49.252],[-71.158,49.433],[-71.343,49.606],[-71.561,49.745],[-71.789,49.86],[-72.022,49.961],[-72.257,50.062],[-72.476,50.186],[-72.629,50.332],[-72.714,50.508],[-72.74,50.683],[-72.768,50.82],[-72.798,50.92]]}}]}