{"type":"FeatureCollection","properties":{"chart":"fc","src":"Z__C_EDZW_20261004053643_nwv01,ico_tkb_na_N_000084_000000_202610040000_WV12.png","valid_time":"2026-10-07T12:00:00+00:00"},"features":[{"type":"Feature","properties":{"kind":"cold","line":0,"px_len":386},"geometry":{"type":"LineString","coordinates":[[-20.546,41.004],[-20.314,41.02],[-20.106,41.046],[-19.888,41.068],[-19.663,41.08],[-19.427,41.075],[-19.189,41.063],[-18.937,41.03],[-18.695,41.012],[-18.47,41.02],[-18.27,41.07],[-18.08,41.135],[-17.889,41.199],[-17.697,41.264],[-17.495,41.311],[-17.293,41.358],[-17.082,41.389],[-16.879,41.435],[-16.666,41.464],[-16.459,41.504],[-16.246,41.532],[-16.042,41.576],[-15.831,41.608],[-15.626,41.651],[-15.42,41.694],[-15.217,41.741],[-15.011,41.782],[-14.804,41.823],[-14.602,41.874],[-14.403,41.93],[-14.203,41.985],[-14.002,42.04],[-13.801,42.095],[-13.6,42.149],[-13.398,42.203],[-13.196,42.256],[-12.993,42.308],[-12.789,42.36],[-12.585,42.412],[-12.381,42.463],[-12.176,42.513],[-11.97,42.563],[-11.764,42.613],[-11.558,42.662],[-11.351,42.71],[-11.139,42.747],[-10.926,42.783],[-10.728,42.852],[-10.542,42.955],[-10.367,43.086],[-10.189,43.211],[-10.012,43.342],[-9.832,43.466],[-9.646,43.579],[-9.456,43.686],[-9.264,43.786],[-9.073,43.892],[-8.883,44.003],[-8.692,44.114],[-8.502,44.231],[-8.309,44.341],[-8.117,44.457],[-7.924,44.572],[-7.734,44.698],[-7.543,44.825],[-7.35,44.95],[-7.156,45.076],[-6.963,45.207],[-6.769,45.338],[-6.574,45.468],[-6.379,45.604],[-6.184,45.745],[-5.987,45.881],[-5.788,46.015],[-5.588,46.15],[-5.384,46.278],[-5.175,46.388],[-4.958,46.48],[-4.739,46.565],[-4.518,46.644],[-4.312,46.75],[-4.142,46.89],[-4.034,47.064],[-3.953,47.242],[-3.88,47.418],[-3.753,47.601],[-3.589,47.788],[-3.387,47.979],[-3.183,48.17],[-2.977,48.361],[-2.788,48.549],[-2.605,48.737],[-2.421,48.924],[-2.235,49.111],[-2.047,49.298],[-1.857,49.485],[-1.675,49.67],[-1.482,49.857],[-1.296,50.042],[-1.098,50.228],[-0.899,50.414],[-0.707,50.599],[-0.504,50.784],[-0.298,50.969],[-0.071,51.155],[0.159,51.341],[0.374,51.512],[0.595,51.653],[0.832,51.768],[1.093,51.865],[1.357,51.955],[1.621,52.057],[1.831,52.187],[1.976,52.352],[2.069,52.527],[2.184,52.703],[2.342,52.881],[2.555,53.054],[2.804,53.216],[3.075,53.378],[3.349,53.545],[3.625,53.725],[3.903,53.904],[4.185,54.082],[4.469,54.26],[4.757,54.437],[5.048,54.594],[5.342,54.751],[5.572,54.868],[5.738,54.965]]}},{"type":"Feature","properties":{"kind":"warm","line":0,"px_len":334},"geometry":{"type":"LineString","coordinates":[[5.738,54.965],[6.05,55.126],[6.342,55.261],[6.648,55.388],[6.956,55.515],[7.266,55.634],[7.579,55.746],[7.893,55.857],[8.21,55.961],[8.527,56.051],[8.846,56.134],[9.166,56.209],[9.488,56.29],[9.811,56.363],[10.136,56.448],[10.465,56.539],[10.798,56.648],[11.135,56.762],[11.474,56.876],[11.814,56.981],[12.151,57.054],[12.481,57.087],[12.799,57.061],[13.114,57.021],[13.429,56.98],[13.747,56.958],[14.064,56.934],[14.381,56.91],[14.7,56.891],[15.021,56.884],[15.345,56.882],[15.67,56.886],[15.991,56.876],[16.317,56.877],[16.638,56.865],[16.958,56.852],[17.277,56.832],[17.597,56.817],[17.916,56.801],[18.231,56.771],[18.542,56.734],[18.861,56.715],[19.179,56.696],[19.496,56.675],[19.805,56.634],[20.122,56.612],[20.438,56.588],[20.753,56.563],[21.068,56.538],[21.389,56.524],[21.713,56.515],[22.036,56.505],[22.353,56.482],[22.662,56.445],[22.944,56.358],[23.204,56.234],[23.448,56.084],[23.694,55.94],[23.94,55.801],[24.192,55.674],[24.449,55.559],[24.714,55.462],[24.979,55.364],[25.241,55.265],[25.502,55.166],[25.765,55.072],[26.023,54.971],[26.279,54.87],[26.534,54.768],[26.791,54.672],[27.043,54.569],[27.293,54.466],[27.541,54.361],[27.792,54.263],[28.037,54.158],[28.285,54.058],[28.532,53.957],[28.781,53.862],[29.029,53.766],[29.275,53.67],[29.524,53.579],[29.768,53.482],[30.014,53.389],[30.264,53.303],[30.521,53.227],[30.781,53.156],[31.04,53.084],[31.307,53.023],[31.578,52.968],[31.856,52.922],[32.13,52.871],[32.384,52.796],[32.605,52.68],[32.796,52.531],[32.976,52.37],[33.159,52.214],[33.35,52.069],[33.549,51.935],[33.755,51.812],[33.975,51.705],[34.193,51.598],[34.419,51.502],[34.644,51.405],[34.883,51.324],[35.12,51.242],[35.341,51.144],[35.562,51.044],[35.791,50.956],[36.038,50.888],[36.285,50.82],[36.512,50.744],[36.75,50.655]]}},{"type":"Feature","properties":{"kind":"cold","line":0,"px_len":332},"geometry":{"type":"LineString","coordinates":[[36.75,50.655],[37.012,50.593],[37.252,50.531],[37.499,50.465],[37.75,50.404],[38.0,50.342],[38.255,50.285],[38.509,50.227],[38.767,50.173],[39.019,50.114],[39.276,50.059],[39.532,50.004],[39.782,49.942],[40.031,49.88],[40.279,49.817],[40.526,49.754],[40.756,49.674],[40.975,49.584],[41.186,49.488],[41.413,49.407],[41.673,49.356],[41.981,49.349],[42.312,49.361],[42.648,49.377],[42.963,49.372],[43.259,49.351],[43.544,49.319],[43.823,49.281],[44.107,49.247],[44.39,49.212],[44.679,49.181],[44.967,49.15],[45.261,49.122],[45.554,49.093],[45.853,49.068],[46.151,49.042],[46.455,49.019],[46.759,48.996],[47.068,48.976],[47.39,48.964],[47.711,48.951],[48.045,48.947],[48.385,48.945],[48.744,48.956],[49.103,48.965],[49.455,48.978],[49.794,48.997],[50.113,49.028],[50.439,49.053],[50.766,49.06],[51.107,49.047],[51.44,49.038],[51.734,49.072],[51.963,49.158],[52.146,49.274],[52.318,49.399],[52.517,49.506],[52.711,49.617],[52.919,49.719],[53.128,49.82],[53.338,49.921],[53.543,50.026],[53.755,50.125],[53.969,50.225],[54.184,50.324],[54.381,50.436],[54.572,50.553],[54.751,50.679],[54.932,50.805],[55.12,50.925],[55.316,51.041],[55.5,51.166],[55.686,51.29],[55.86,51.424],[56.048,51.548],[56.218,51.686],[56.409,51.809],[56.582,51.947],[56.776,52.069],[56.958,52.202],[57.154,52.324],[57.352,52.446],[57.564,52.557],[57.783,52.664],[58.005,52.77],[58.227,52.875],[58.413,53.01],[58.548,53.185],[58.652,53.385],[58.757,53.585],[58.89,53.765],[59.024,53.945],[59.179,54.11],[59.342,54.27],[59.526,54.414],[59.719,54.553],[59.926,54.681],[60.148,54.798],[60.365,54.921],[60.591,55.037],[60.817,55.153],[61.059,55.259],[61.231,55.398],[61.319,55.574],[61.318,55.777],[61.282,55.975],[61.245,56.173],[61.208,56.371],[61.18,56.573],[61.142,56.772],[61.116,56.928],[61.101,57.041]]}},{"type":"Feature","properties":{"kind":"occl","line":0,"px_len":215},"geometry":{"type":"LineString","coordinates":[[61.101,57.041],[61.183,57.294],[61.24,57.521],[61.291,57.754],[61.343,57.988],[61.386,58.218],[61.439,58.452],[61.483,58.682],[61.538,58.916],[61.609,59.14],[61.705,59.357],[61.847,59.565],[62.005,59.763],[62.115,59.951],[62.149,60.137],[62.076,60.319],[62.007,60.511],[61.958,60.71],[61.965,60.928],[62.006,61.157],[62.082,61.398],[62.16,61.638],[62.157,61.853],[62.048,62.035],[61.88,62.198],[61.709,62.361],[61.56,62.531],[61.409,62.702],[61.28,62.88],[61.149,63.057],[61.029,63.239],[60.919,63.425],[60.831,63.618],[60.768,63.819],[60.678,64.013],[60.587,64.207],[60.482,64.397],[60.388,64.59],[60.292,64.784],[60.221,64.986],[60.161,65.192],[60.14,65.41],[60.131,65.632],[60.162,65.866],[60.113,66.077],[60.009,66.272],[59.808,66.439],[59.617,66.609],[59.397,66.772],[59.2,66.942],[59.029,67.121],[58.896,67.311],[58.775,67.506],[58.624,67.692],[58.37,67.85],[58.013,67.977],[57.624,68.096],[57.258,68.222],[56.903,68.351],[56.543,68.48],[56.192,68.612],[55.866,68.753],[55.536,68.893],[55.201,69.032],[54.862,69.17],[54.517,69.308],[54.169,69.445],[53.858,69.595],[53.543,69.745],[53.224,69.894],[52.855,70.029],[52.566,70.133],[52.357,70.207]]}},{"type":"Feature","properties":{"kind":"warm","line":1,"px_len":55},"geometry":{"type":"LineString","coordinates":[[63.149,52.622],[63.349,52.761],[63.522,52.903],[63.678,53.061],[63.763,53.229],[63.767,53.403],[63.702,53.582],[63.628,53.758],[63.562,53.937],[63.486,54.113],[63.372,54.275],[63.202,54.416],[62.994,54.543],[62.784,54.67],[62.573,54.796],[62.35,54.919],[62.117,55.037],[61.889,55.15],[61.655,55.276]]}},{"type":"Feature","properties":{"kind":"cold","line":2,"px_len":455},"geometry":{"type":"LineString","coordinates":[[-55.227,38.554],[-55.078,38.673],[-54.954,38.79],[-54.819,38.909],[-54.683,39.027],[-54.547,39.146],[-54.417,39.267],[-54.279,39.385],[-54.141,39.504],[-54.002,39.622],[-53.868,39.742],[-53.728,39.86],[-53.593,39.981],[-53.451,40.098],[-53.321,40.221],[-53.184,40.342],[-53.039,40.459],[-52.888,40.572],[-52.729,40.683],[-52.556,40.787],[-52.375,40.889],[-52.187,40.986],[-52.025,41.096],[-51.901,41.224],[-51.816,41.37],[-51.744,41.523],[-51.652,41.666],[-51.545,41.803],[-51.431,41.937],[-51.317,42.071],[-51.201,42.205],[-51.085,42.339],[-50.969,42.473],[-50.851,42.607],[-50.733,42.741],[-50.621,42.878],[-50.521,43.021],[-50.421,43.165],[-50.314,43.305],[-50.192,43.439],[-50.089,43.582],[-49.986,43.726],[-49.883,43.869],[-49.778,44.013],[-49.673,44.157],[-49.574,44.304],[-49.468,44.447],[-49.367,44.594],[-49.273,44.745],[-49.164,44.889],[-49.069,45.039],[-48.965,45.186],[-48.875,45.341],[-48.77,45.488],[-48.672,45.639],[-48.573,45.789],[-48.473,45.94],[-48.372,46.091],[-48.263,46.239],[-48.161,46.39],[-48.05,46.537],[-47.932,46.681],[-47.799,46.817],[-47.657,46.95],[-47.514,47.083],[-47.37,47.216],[-47.218,47.345],[-47.073,47.478],[-46.962,47.628],[-46.895,47.801],[-46.849,47.985],[-46.795,48.166],[-46.711,48.332],[-46.612,48.49],[-46.497,48.641],[-46.381,48.792],[-46.264,48.944],[-46.138,49.091],[-46.004,49.234],[-45.877,49.382],[-45.741,49.525],[-45.604,49.668],[-45.458,49.808],[-45.319,49.951],[-45.179,50.094],[-45.038,50.237],[-44.895,50.38],[-44.752,50.522],[-44.607,50.665],[-44.461,50.807],[-44.314,50.95],[-44.174,51.096],[-44.024,51.238],[-43.889,51.388],[-43.738,51.53],[-43.593,51.676],[-43.446,51.822],[-43.291,51.964],[-43.127,52.101],[-42.945,52.23],[-42.763,52.359],[-42.579,52.487],[-42.394,52.615],[-42.231,52.756],[-42.113,52.921],[-42.05,53.117],[-42.009,53.325],[-41.968,53.533],[-41.903,53.729],[-41.829,53.92],[-41.737,54.104],[-41.661,54.296],[-41.584,54.488],[-41.515,54.684],[-41.436,54.877],[-41.365,55.074],[-41.301,55.275],[-41.236,55.476],[-41.171,55.678],[-41.113,55.884],[-41.063,56.095],[-41.02,56.311],[-40.969,56.522],[-40.925,56.738],[-40.89,56.958],[-40.854,57.179],[-40.818,57.4],[-40.754,57.608],[-40.663,57.803],[-40.544,57.985],[-40.405,58.157],[-40.283,58.339],[-40.205,58.543],[-40.153,58.761],[-40.1,58.978],[-40.0,59.174],[-39.88,59.361],[-39.759,59.547],[-39.738,59.728],[-39.845,59.89],[-40.073,60.027],[-40.331,60.149],[-40.591,60.271],[-40.853,60.393],[-41.118,60.514],[-41.412,60.619],[-41.717,60.72],[-42.043,60.809],[-42.352,60.908],[-42.673,61.001],[-42.978,61.102],[-43.214,61.183],[-43.37,61.247]]}},{"type":"Feature","properties":{"kind":"occl","line":2,"px_len":145},"geometry":{"type":"LineString","coordinates":[[-43.37,61.247],[-43.682,61.357],[-43.985,61.452],[-44.299,61.551],[-44.599,61.659],[-44.892,61.772],[-45.196,61.879],[-45.556,61.954],[-45.978,61.991],[-46.435,62.006],[-46.876,62.029],[-47.292,62.067],[-47.693,62.114],[-48.087,62.166],[-48.49,62.21],[-48.912,62.243],[-49.374,62.246],[-49.845,62.219],[-50.299,62.153],[-50.711,62.065],[-51.12,61.976],[-51.574,61.899],[-52.073,61.835],[-52.594,61.776],[-53.091,61.732],[-53.579,61.691],[-54.038,61.672],[-54.49,61.656],[-54.908,61.668],[-55.312,61.69],[-55.704,61.722],[-56.09,61.759],[-56.503,61.771],[-56.917,61.737],[-57.373,61.66],[-57.839,61.57],[-58.322,61.505],[-58.785,61.455],[-59.223,61.428],[-59.665,61.393],[-60.123,61.338],[-60.564,61.25],[-60.948,61.135],[-61.254,61.003],[-61.545,60.869],[-61.833,60.734],[-62.18,60.61],[-62.557,60.499],[-63.028,60.39]]}},{"type":"Feature","properties":{"kind":"warm","line":3,"px_len":155},"geometry":{"type":"LineString","coordinates":[[-30.731,53.068],[-30.79,53.264],[-30.829,53.453],[-30.867,53.651],[-30.888,53.857],[-30.908,54.064],[-30.93,54.27],[-30.969,54.469],[-30.99,54.676],[-31.012,54.884],[-30.99,55.111],[-30.952,55.337],[-30.865,55.559],[-30.782,55.764],[-30.722,55.966],[-30.72,56.168],[-30.779,56.362],[-30.904,56.528],[-31.105,56.663],[-31.326,56.79],[-31.55,56.917],[-31.746,57.055],[-31.926,57.201],[-32.098,57.35],[-32.272,57.5],[-32.467,57.641],[-32.644,57.79],[-32.823,57.939],[-33.004,58.088],[-33.205,58.228],[-33.39,58.376],[-33.576,58.524],[-33.773,58.668],[-33.992,58.803],[-34.213,58.938],[-34.436,59.072],[-34.68,59.197],[-34.936,59.318],[-35.175,59.447],[-35.387,59.588],[-35.591,59.733],[-35.817,59.87],[-36.055,60.001],[-36.294,60.132],[-36.595,60.236],[-36.985,60.299],[-37.417,60.296],[-37.814,60.244],[-38.153,60.163],[-38.472,60.071],[-38.798,59.983],[-39.048,59.913],[-39.233,59.866]]}},{"type":"Feature","properties":{"kind":"occl","line":4,"px_len":328},"geometry":{"type":"LineString","coordinates":[[69.126,54.739],[69.064,54.922],[69.011,55.094],[68.952,55.271],[68.912,55.455],[68.883,55.641],[68.853,55.828],[68.822,56.015],[68.781,56.199],[68.74,56.384],[68.698,56.568],[68.666,56.756],[68.634,56.944],[68.601,57.132],[68.557,57.317],[68.513,57.502],[68.468,57.688],[68.422,57.874],[68.387,58.062],[68.341,58.248],[68.305,58.438],[68.279,58.63],[68.298,58.835],[68.329,59.043],[68.393,59.26],[68.482,59.484],[68.595,59.714],[68.652,59.929],[68.663,60.132],[68.615,60.32],[68.59,60.514],[68.564,60.709],[68.563,60.909],[68.537,61.104],[68.51,61.299],[68.447,61.485],[68.395,61.674],[68.317,61.857],[68.289,62.052],[68.247,62.245],[68.205,62.437],[68.162,62.63],[68.106,62.82],[68.075,63.016],[68.03,63.209],[68.024,63.412],[68.031,63.618],[68.038,63.825],[68.059,64.034],[68.067,64.241],[68.088,64.451],[68.096,64.658],[68.104,64.865],[68.112,65.073],[68.121,65.28],[68.129,65.488],[68.123,65.693],[68.118,65.897],[68.112,66.102],[68.12,66.311],[68.129,66.519],[68.123,66.725],[68.117,66.93],[68.096,67.133],[68.089,67.339],[68.051,67.539],[68.013,67.738],[67.989,67.942],[68.013,68.154],[68.055,68.371],[68.129,68.593],[68.223,68.82],[68.351,69.052],[68.364,69.263],[68.291,69.457],[68.112,69.633],[67.948,69.811],[67.763,69.987],[67.593,70.165],[67.401,70.34],[67.242,70.522],[67.116,70.71],[66.97,70.895],[66.728,71.063],[66.353,71.207],[65.916,71.34],[65.473,71.471],[65.023,71.602],[64.623,71.742],[64.254,71.889],[63.897,72.039],[63.516,72.185],[63.128,72.329],[62.715,72.47],[62.314,72.613],[61.907,72.755],[61.512,72.901],[61.09,73.041],[60.642,73.177],[60.187,73.312],[59.724,73.446],[59.234,73.575],[58.737,73.702],[58.231,73.829],[57.698,73.95],[57.156,74.069],[56.587,74.183],[56.01,74.295],[55.441,74.4],[54.83,74.514]]}}]}