{"type":"FeatureCollection","properties":{"chart":"fc","src":"Z__C_EDZW_20261008044340_nwv01,ico_tkb_na_N_000060_000000_202610080000_WV12.png","valid_time":"2026-10-10T12:00:00+00:00"},"features":[{"type":"Feature","properties":{"kind":"cold","line":0,"px_len":221},"geometry":{"type":"LineString","coordinates":[[9.762,33.439],[9.953,33.533],[10.132,33.638],[10.319,33.743],[10.508,33.858],[10.697,33.961],[10.887,34.07],[11.075,34.156],[11.264,34.231],[11.451,34.289],[11.637,34.335],[11.812,34.399],[11.944,34.493],[12.041,34.624],[12.113,34.768],[12.199,34.911],[12.299,35.052],[12.42,35.192],[12.555,35.331],[12.698,35.469],[12.841,35.607],[12.972,35.746],[13.097,35.886],[13.215,36.026],[13.342,36.166],[13.462,36.306],[13.582,36.447],[13.69,36.588],[13.798,36.73],[13.9,36.873],[14.01,37.014],[14.113,37.157],[14.21,37.3],[14.3,37.444],[14.391,37.589],[14.483,37.733],[14.568,37.878],[14.654,38.023],[14.733,38.17],[14.812,38.316],[14.885,38.463],[14.965,38.61],[15.039,38.757],[15.113,38.905],[15.166,39.055],[15.227,39.205],[15.28,39.356],[15.334,39.506],[15.381,39.658],[15.443,39.809],[15.528,39.956],[15.629,40.102],[15.73,40.247],[15.824,40.394],[15.874,40.547],[15.893,40.704],[15.898,40.863],[15.91,41.021],[15.938,41.177],[15.981,41.332],[16.04,41.484],[16.1,41.637],[16.159,41.79],[16.243,41.94],[16.335,42.089],[16.428,42.239],[16.521,42.388],[16.623,42.536],[16.733,42.683],[16.852,42.829],[16.972,42.975],[17.093,43.121],[17.223,43.266],[17.336,43.377],[17.432,43.454]]}},{"type":"Feature","properties":{"kind":"warm","line":1,"px_len":120},"geometry":{"type":"LineString","coordinates":[[17.635,43.643],[17.826,43.785],[18.008,43.917],[18.216,44.05],[18.434,44.181],[18.654,44.312],[18.891,44.44],[19.138,44.565],[19.411,44.687],[19.661,44.811],[19.896,44.938],[20.099,45.07],[20.288,45.204],[20.46,45.341],[20.651,45.475],[20.87,45.585],[21.119,45.676],[21.374,45.735],[21.628,45.762],[21.872,45.764],[22.106,45.743],[22.343,45.727],[22.582,45.716],[22.826,45.716],[23.077,45.733],[23.328,45.749],[23.583,45.77],[23.837,45.79],[24.092,45.809],[24.347,45.828],[24.597,45.834],[24.844,45.834],[25.091,45.833],[25.338,45.831],[25.583,45.823],[25.824,45.808],[26.062,45.787],[26.297,45.76],[26.531,45.732],[26.738,45.704],[26.92,45.682]]}},{"type":"Feature","properties":{"kind":"cold","line":2,"px_len":122},"geometry":{"type":"LineString","coordinates":[[-50.37,36.173],[-50.197,36.222],[-50.052,36.306],[-49.907,36.41],[-49.767,36.517],[-49.614,36.617],[-49.467,36.721],[-49.319,36.824],[-49.177,36.93],[-49.033,37.036],[-48.895,37.145],[-48.756,37.254],[-48.622,37.366],[-48.482,37.474],[-48.347,37.586],[-48.205,37.694],[-48.069,37.806],[-47.92,37.91],[-47.765,38.011],[-47.597,38.105],[-47.435,38.202],[-47.307,38.319],[-47.213,38.457],[-47.142,38.608],[-47.059,38.752],[-46.97,38.893],[-46.868,39.028],[-46.759,39.159],[-46.638,39.282],[-46.517,39.406],[-46.401,39.533],[-46.295,39.667],[-46.19,39.802],[-46.077,39.932],[-45.964,40.063],[-45.857,40.197],[-45.748,40.331],[-45.627,40.458],[-45.5,40.581],[-45.383,40.712],[-45.301,40.818],[-45.253,40.901]]}},{"type":"Feature","properties":{"kind":"warm","line":2,"px_len":100},"geometry":{"type":"LineString","coordinates":[[-45.253,40.901],[-45.118,41.029],[-44.992,41.147],[-44.86,41.27],[-44.728,41.393],[-44.595,41.515],[-44.461,41.638],[-44.326,41.76],[-44.191,41.882],[-44.055,42.004],[-43.918,42.126],[-43.768,42.241],[-43.629,42.362],[-43.49,42.484],[-43.362,42.613],[-43.239,42.746],[-43.116,42.879],[-43.01,43.023],[-42.903,43.168],[-42.79,43.308],[-42.639,43.425],[-42.45,43.518],[-42.229,43.591],[-42.002,43.66],[-41.767,43.724],[-41.544,43.795],[-41.333,43.874],[-41.133,43.96],[-40.95,44.059],[-40.773,44.16],[-40.594,44.262],[-40.415,44.363],[-40.235,44.455],[-40.042,44.556]]}},{"type":"Feature","properties":{"kind":"cold","line":2,"px_len":162},"geometry":{"type":"LineString","coordinates":[[-40.042,44.556],[-39.867,44.669],[-39.696,44.769],[-39.518,44.872],[-39.334,44.971],[-39.154,45.075],[-38.956,45.165],[-38.775,45.267],[-38.574,45.356],[-38.391,45.458],[-38.189,45.546],[-37.986,45.634],[-37.764,45.708],[-37.554,45.791],[-37.378,45.899],[-37.237,46.034],[-37.114,46.182],[-36.983,46.325],[-36.834,46.455],[-36.677,46.58],[-36.52,46.705],[-36.367,46.834],[-36.22,46.968],[-36.059,47.092],[-35.91,47.225],[-35.747,47.35],[-35.602,47.487],[-35.443,47.615],[-35.296,47.753],[-35.147,47.89],[-34.997,48.027],[-34.846,48.164],[-34.694,48.3],[-34.548,48.442],[-34.406,48.588],[-34.256,48.729],[-34.112,48.874],[-33.967,49.02],[-33.827,49.17],[-33.679,49.315],[-33.518,49.451],[-33.35,49.581],[-33.175,49.707],[-33.004,49.837],[-32.82,49.958],[-32.629,50.073],[-32.45,50.189],[-32.34,50.341],[-32.266,50.522],[-32.214,50.731],[-32.127,50.934],[-32.04,51.137],[-31.908,51.306],[-31.78,51.448],[-31.656,51.564]]}},{"type":"Feature","properties":{"kind":"warm","line":2,"px_len":231},"geometry":{"type":"LineString","coordinates":[[-31.656,51.564],[-31.469,51.701],[-31.297,51.831],[-31.097,51.949],[-30.87,52.047],[-30.63,52.134],[-30.396,52.226],[-30.153,52.312],[-29.91,52.397],[-29.665,52.482],[-29.438,52.582],[-29.191,52.666],[-28.906,52.718],[-28.568,52.722],[-28.202,52.691],[-27.837,52.635],[-27.473,52.577],[-27.101,52.522],[-26.725,52.483],[-26.366,52.459],[-26.019,52.443],[-25.677,52.432],[-25.33,52.414],[-24.989,52.401],[-24.644,52.38],[-24.298,52.358],[-23.948,52.33],[-23.598,52.3],[-23.244,52.264],[-22.88,52.215],[-22.508,52.154],[-22.141,52.083],[-21.794,52.004],[-21.448,51.924],[-21.1,51.852],[-20.748,51.8],[-20.411,51.764],[-20.08,51.733],[-19.736,51.684],[-19.398,51.61],[-19.098,51.511],[-18.873,51.39],[-18.713,51.25],[-18.59,51.099],[-18.451,50.953],[-18.303,50.81],[-18.139,50.672],[-17.976,50.533],[-17.788,50.402],[-17.582,50.276],[-17.37,50.152],[-17.159,50.028],[-16.958,49.901],[-16.759,49.773],[-16.569,49.643],[-16.373,49.514],[-16.186,49.383],[-16.001,49.252],[-15.826,49.118],[-15.643,48.986],[-15.453,48.857],[-15.255,48.729],[-15.051,48.603],[-14.838,48.479],[-14.61,48.359],[-14.392,48.236],[-14.184,48.111],[-14.029,47.972],[-13.91,47.825],[-13.851,47.663],[-13.818,47.496],[-13.811,47.322],[-13.787,47.152],[-13.755,46.985],[-13.698,46.824],[-13.633,46.665],[-13.561,46.528],[-13.499,46.407]]}},{"type":"Feature","properties":{"kind":"cold","line":3,"px_len":290},"geometry":{"type":"LineString","coordinates":[[1.742,47.514],[1.989,47.588],[2.221,47.636],[2.462,47.684],[2.704,47.731],[2.947,47.771],[3.19,47.817],[3.435,47.844],[3.68,47.87],[3.926,47.895],[4.172,47.92],[4.418,47.944],[4.666,47.949],[4.912,47.99],[5.157,48.073],[5.403,48.192],[5.651,48.305],[5.9,48.405],[6.15,48.491],[6.401,48.571],[6.654,48.638],[6.907,48.704],[7.161,48.763],[7.416,48.828],[7.671,48.892],[7.928,48.955],[8.186,49.018],[8.444,49.086],[8.704,49.153],[8.965,49.22],[9.226,49.285],[9.489,49.357],[9.754,49.433],[10.019,49.503],[10.285,49.578],[10.553,49.646],[10.821,49.72],[11.09,49.786],[11.361,49.858],[11.632,49.923],[11.905,49.994],[12.179,50.063],[12.455,50.138],[12.732,50.212],[13.011,50.286],[13.29,50.358],[13.568,50.417],[13.846,50.469],[14.121,50.508],[14.398,50.547],[14.672,50.572],[14.943,50.583],[15.219,50.613],[15.477,50.688],[15.721,50.814],[15.971,50.959],[16.222,51.097],[16.5,51.218],[16.776,51.327],[17.084,51.431],[17.392,51.528],[17.705,51.636],[18.023,51.749],[18.349,51.88],[18.677,52.01],[19.008,52.139],[19.321,52.269],[19.616,52.402],[19.883,52.538],[20.142,52.675],[20.393,52.813],[20.646,52.951],[20.871,53.092],[21.087,53.235],[21.305,53.378],[21.524,53.52],[21.735,53.663],[21.948,53.807],[22.184,53.946],[22.442,54.081],[22.703,54.216],[22.976,54.348],[23.241,54.481],[23.487,54.618],[23.703,54.76],[23.899,54.905],[24.087,55.052],[24.287,55.197],[24.425,55.354],[24.499,55.523],[24.488,55.708],[24.454,55.897],[24.42,56.086],[24.353,56.282],[24.284,56.478],[24.193,56.678],[24.123,56.833],[24.054,56.947]]}},{"type":"Feature","properties":{"kind":"occl","line":3,"px_len":209},"geometry":{"type":"LineString","coordinates":[[24.054,56.947],[23.997,57.148],[23.944,57.334],[23.882,57.529],[23.854,57.717],[23.826,57.906],[23.81,58.094],[23.726,58.278],[23.548,58.438],[23.289,58.575],[23.009,58.702],[22.734,58.84],[22.463,58.99],[22.193,59.146],[21.927,59.314],[21.658,59.482],[21.379,59.636],[21.07,59.739],[20.736,59.797],[20.385,59.822],[20.03,59.839],[19.677,59.862],[19.33,59.896],[18.988,59.942],[18.645,59.987],[18.304,60.038],[17.964,60.094],[17.628,60.162],[17.285,60.216],[16.946,60.282],[16.601,60.334],[16.254,60.385],[15.899,60.415],[15.548,60.458],[15.198,60.506],[14.851,60.566],[14.5,60.618],[14.152,60.682],[13.806,60.759],[13.461,60.847],[13.116,60.941],[12.77,61.041],[12.425,61.153],[12.08,61.277],[11.732,61.406],[11.386,61.555],[11.036,61.709],[10.742,61.88],[10.488,62.055],[10.318,62.241],[10.174,62.425],[10.086,62.608],[9.923,62.793],[9.715,62.979],[9.415,63.167],[9.141,63.354],[8.877,63.541],[8.67,63.725],[8.46,63.91],[8.247,64.094],[7.968,64.272],[7.638,64.43],[7.239,64.555],[6.82,64.631],[6.398,64.679],[5.974,64.719],[5.549,64.758],[5.122,64.809],[4.708,64.866],[4.418,64.936],[4.255,65.001]]}},{"type":"Feature","properties":{"kind":"warm","line":4,"px_len":89},"geometry":{"type":"LineString","coordinates":[[27.855,50.963],[27.866,51.149],[27.887,51.319],[27.913,51.495],[27.93,51.674],[27.946,51.853],[27.944,52.036],[27.942,52.22],[27.92,52.409],[27.899,52.597],[27.877,52.787],[27.874,52.971],[27.891,53.151],[27.928,53.327],[27.975,53.5],[28.023,53.674],[28.021,53.859],[27.949,54.062],[27.784,54.251],[27.569,54.403],[27.32,54.507],[27.062,54.599],[26.795,54.678],[26.522,54.75],[26.253,54.828],[25.982,54.905],[25.709,54.981],[25.436,55.057],[25.172,55.15],[24.97,55.23],[24.821,55.279]]}},{"type":"Feature","properties":{"kind":"cold","line":5,"px_len":271},"geometry":{"type":"LineString","coordinates":[[-57.68,39.482],[-57.476,39.539],[-57.316,39.633],[-57.172,39.751],[-57.02,39.867],[-56.854,39.978],[-56.68,40.086],[-56.513,40.196],[-56.331,40.3],[-56.134,40.399],[-55.917,40.489],[-55.685,40.573],[-55.452,40.656],[-55.259,40.755],[-55.119,40.877],[-55.018,41.015],[-54.897,41.144],[-54.789,41.279],[-54.666,41.409],[-54.55,41.541],[-54.412,41.665],[-54.273,41.788],[-54.134,41.912],[-53.987,42.032],[-53.832,42.149],[-53.683,42.269],[-53.534,42.389],[-53.39,42.512],[-53.246,42.634],[-53.1,42.756],[-52.961,42.882],[-52.814,43.004],[-52.673,43.128],[-52.532,43.253],[-52.389,43.378],[-52.253,43.505],[-52.109,43.63],[-51.971,43.757],[-51.832,43.884],[-51.699,44.014],[-51.558,44.141],[-51.417,44.268],[-51.281,44.398],[-51.159,44.535],[-51.036,44.671],[-50.913,44.807],[-50.774,44.937],[-50.627,45.063],[-50.501,45.199],[-50.388,45.341],[-50.282,45.487],[-50.153,45.623],[-50.023,45.759],[-49.893,45.894],[-49.761,46.03],[-49.629,46.165],[-49.496,46.301],[-49.362,46.436],[-49.227,46.571],[-49.091,46.706],[-48.954,46.841],[-48.801,46.969],[-48.633,47.09],[-48.449,47.204],[-48.294,47.331],[-48.181,47.479],[-48.112,47.649],[-48.057,47.827],[-47.994,48.001],[-47.916,48.168],[-47.822,48.327],[-47.72,48.483],[-47.609,48.636],[-47.505,48.792],[-47.393,48.945],[-47.287,49.101],[-47.18,49.257],[-47.08,49.418],[-46.979,49.578],[-46.878,49.738],[-46.783,49.902],[-46.687,50.066],[-46.591,50.23],[-46.501,50.398],[-46.419,50.57],[-46.343,50.745],[-46.259,50.917],[-46.19,51.097],[-46.12,51.277],[-46.063,51.456],[-45.986,51.641]]}},{"type":"Feature","properties":{"kind":"occl","line":5,"px_len":106},"geometry":{"type":"LineString","coordinates":[[-45.986,51.641],[-45.956,51.85],[-45.914,52.037],[-45.873,52.233],[-45.84,52.434],[-45.823,52.642],[-45.814,52.854],[-45.805,53.067],[-45.796,53.28],[-45.795,53.497],[-45.803,53.719],[-45.819,53.944],[-45.844,54.174],[-45.878,54.408],[-45.887,54.631],[-45.851,54.834],[-45.789,55.025],[-45.708,55.209],[-45.618,55.389],[-45.581,55.561],[-45.627,55.736],[-45.755,55.916],[-45.866,56.119],[-45.956,56.338],[-46.015,56.56],[-46.047,56.77],[-46.062,56.981],[-46.089,57.205],[-46.175,57.421],[-46.308,57.616],[-46.488,57.779],[-46.684,57.932],[-46.898,58.074],[-47.091,58.232],[-47.268,58.39],[-47.453,58.567]]}},{"type":"Feature","properties":{"kind":"cold","line":6,"px_len":212},"geometry":{"type":"LineString","coordinates":[[40.858,46.944],[41.052,47.06],[41.259,47.155],[41.479,47.251],[41.731,47.333],[41.983,47.413],[42.272,47.475],[42.549,47.544],[42.797,47.626],[42.987,47.736],[43.142,47.865],[43.291,47.997],[43.463,48.118],[43.636,48.239],[43.832,48.348],[44.037,48.454],[44.265,48.547],[44.493,48.64],[44.716,48.736],[44.94,48.831],[45.165,48.926],[45.391,49.021],[45.618,49.115],[45.846,49.208],[46.068,49.305],[46.292,49.401],[46.516,49.497],[46.749,49.588],[46.976,49.683],[47.196,49.781],[47.411,49.883],[47.634,49.981],[47.851,50.082],[48.069,50.182],[48.281,50.286],[48.494,50.39],[48.716,50.489],[48.925,50.596],[49.142,50.699],[49.345,50.809],[49.55,50.92],[49.757,51.029],[49.964,51.139],[50.18,51.243],[50.397,51.347],[50.623,51.447],[50.857,51.541],[51.107,51.626],[51.372,51.702],[51.631,51.781],[51.842,51.891],[52.004,52.032],[52.153,52.182],[52.303,52.332],[52.476,52.469],[52.657,52.6],[52.862,52.717],[53.067,52.834],[53.275,52.951],[53.483,53.067],[53.693,53.183],[53.897,53.303],[54.089,53.433],[54.282,53.562],[54.483,53.686],[54.693,53.805],[54.89,53.933],[55.089,54.06],[55.282,54.193],[55.484,54.32],[55.637,54.422],[55.755,54.489]]}},{"type":"Feature","properties":{"kind":"occl","line":6,"px_len":189},"geometry":{"type":"LineString","coordinates":[[55.755,54.489],[55.955,54.629],[56.132,54.766],[56.312,54.911],[56.501,55.051],[56.691,55.191],[56.883,55.331],[57.063,55.48],[57.251,55.625],[57.448,55.764],[57.64,55.907],[57.847,56.041],[58.057,56.174],[58.282,56.297],[58.509,56.419],[58.752,56.53],[58.99,56.646],[59.187,56.793],[59.35,56.965],[59.508,57.142],[59.682,57.309],[59.879,57.46],[60.078,57.611],[60.287,57.756],[60.483,57.912],[60.659,58.083],[60.809,58.275],[60.915,58.491],[60.979,58.714],[61.031,58.949],[61.108,59.177],[61.215,59.407],[61.338,59.627],[61.463,59.847],[61.598,60.061],[61.727,60.281],[61.858,60.501],[61.976,60.732],[62.089,60.969],[62.176,61.213],[62.243,61.449],[62.287,61.679],[62.332,61.909],[62.401,62.146],[62.496,62.391],[62.532,62.618],[62.459,62.812],[62.276,62.972],[62.09,63.133],[61.902,63.293],[61.712,63.453],[61.507,63.609],[61.312,63.768],[61.14,63.935],[60.977,64.106],[60.787,64.269],[60.507,64.404],[60.135,64.512],[59.685,64.594],[59.181,64.659],[58.637,64.709],[58.116,64.766],[57.733,64.843],[57.464,64.932]]}}]}