{"type":"FeatureCollection","properties":{"chart":"fc","src":"Z__C_EDZW_20261006051727_nwv01,ico_tkb_na_N_000048_000000_202610060000_WV12.png","valid_time":"2026-10-08T00:00:00+00:00"},"features":[{"type":"Feature","properties":{"kind":"cold","line":0,"px_len":242},"geometry":{"type":"LineString","coordinates":[[-4.975,43.19],[-4.77,43.292],[-4.575,43.374],[-4.372,43.456],[-4.166,43.532],[-3.958,43.601],[-3.746,43.659],[-3.536,43.721],[-3.322,43.772],[-3.106,43.816],[-2.886,43.842],[-2.665,43.867],[-2.445,43.897],[-2.235,43.974],[-2.033,44.092],[-1.834,44.233],[-1.63,44.356],[-1.423,44.473],[-1.215,44.583],[-1.004,44.687],[-0.79,44.779],[-0.576,44.87],[-0.36,44.96],[-0.145,45.062],[0.071,45.163],[0.286,45.276],[0.505,45.371],[0.725,45.465],[0.949,45.54],[1.173,45.615],[1.4,45.677],[1.628,45.732],[1.836,45.816],[2.005,45.941],[2.128,46.105],[2.251,46.275],[2.393,46.446],[2.581,46.619],[2.787,46.792],[3.015,46.953],[3.245,47.108],[3.467,47.263],[3.673,47.428],[3.88,47.6],[4.098,47.771],[4.337,47.93],[4.578,48.07],[4.822,48.179],[5.059,48.287],[5.25,48.412],[5.377,48.567],[5.448,48.735],[5.501,48.902],[5.573,49.069],[5.656,49.237],[5.777,49.405],[5.909,49.573],[6.052,49.741],[6.206,49.909],[6.351,50.076],[6.518,50.244],[6.656,50.412],[6.806,50.579],[6.967,50.747],[7.169,50.914],[7.412,51.08],[7.679,51.245],[7.946,51.391],[8.135,51.538],[8.235,51.687],[8.265,51.856],[8.305,52.025],[8.367,52.194],[8.44,52.363],[8.523,52.532],[8.618,52.7],[8.735,52.868],[8.863,53.036],[8.993,53.204],[9.113,53.371],[9.189,53.503],[9.229,53.597]]}},{"type":"Feature","properties":{"kind":"warm","line":1,"px_len":403},"geometry":{"type":"LineString","coordinates":[[10.018,54.604],[10.161,54.778],[10.27,54.941],[10.347,55.111],[10.403,55.282],[10.425,55.455],[10.448,55.628],[10.459,55.802],[10.448,55.977],[10.425,56.152],[10.39,56.328],[10.413,56.502],[10.495,56.674],[10.684,56.841],[10.899,57.007],[11.14,57.171],[11.372,57.336],[11.594,57.501],[11.806,57.666],[12.008,57.832],[12.237,57.996],[12.494,58.158],[12.789,58.318],[13.126,58.474],[13.487,58.615],[13.863,58.748],[14.242,58.879],[14.626,59.015],[15.008,59.131],[15.383,59.214],[15.744,59.25],[16.092,59.239],[16.423,59.182],[16.744,59.099],[17.062,59.015],[17.382,58.936],[17.707,58.876],[18.033,58.821],[18.359,58.765],[18.683,58.708],[19.008,58.657],[19.33,58.598],[19.65,58.538],[19.96,58.459],[20.278,58.398],[20.585,58.316],[20.897,58.247],[21.2,58.164],[21.502,58.08],[21.8,57.99],[22.098,57.904],[22.406,57.837],[22.718,57.781],[23.023,57.712],[23.326,57.642],[23.628,57.572],[23.94,57.519],[24.239,57.446],[24.514,57.336],[24.753,57.17],[24.966,56.967],[25.165,56.745],[25.366,56.529],[25.575,56.331],[25.793,56.151],[26.02,55.99],[26.253,55.84],[26.488,55.695],[26.716,55.544],[26.943,55.393],[27.167,55.241],[27.389,55.089],[27.61,54.937],[27.828,54.784],[28.052,54.643],[28.275,54.501],[28.508,54.377],[28.739,54.252],[28.986,54.15],[29.235,54.054],[29.492,53.969],[29.747,53.883],[29.996,53.79],[30.222,53.668],[30.421,53.511],[30.595,53.325],[30.763,53.133],[30.925,52.934],[31.094,52.748],[31.27,52.573],[31.462,52.42],[31.661,52.279],[31.876,52.16],[32.099,52.051],[32.32,51.943],[32.549,51.845],[32.768,51.736],[32.999,51.643],[33.229,51.549],[33.471,51.472],[33.712,51.394],[33.953,51.315],[34.192,51.236],[34.43,51.156],[34.667,51.076],[34.918,51.012],[35.167,50.946],[35.43,50.897],[35.678,50.831],[35.95,50.791],[36.22,50.75],[36.515,50.735],[36.8,50.709],[37.09,50.687],[37.358,50.643],[37.611,50.582],[37.827,50.484],[38.036,50.379],[38.244,50.274],[38.467,50.185],[38.689,50.095],[38.909,50.004],[39.128,49.913],[39.363,49.837],[39.601,49.766],[39.849,49.704],[40.096,49.642],[40.354,49.59],[40.61,49.536],[40.866,49.482],[41.115,49.422],[41.37,49.367],[41.623,49.311],[41.868,49.257],[42.122,49.191]]}},{"type":"Feature","properties":{"kind":"cold","line":1,"px_len":123},"geometry":{"type":"LineString","coordinates":[[42.122,49.191],[42.403,49.149],[42.652,49.099],[42.907,49.044],[43.167,48.993],[43.427,48.942],[43.685,48.89],[43.944,48.837],[44.207,48.788],[44.475,48.744],[44.737,48.693],[44.998,48.642],[45.252,48.586],[45.5,48.523],[45.747,48.461],[45.981,48.388],[46.215,48.314],[46.423,48.221],[46.631,48.128],[46.856,48.048],[47.12,48.018],[47.424,48.027],[47.742,48.045],[48.061,48.044],[48.374,48.029],[48.675,48.004],[48.963,47.968],[49.244,47.927],[49.524,47.885],[49.804,47.843],[50.083,47.799],[50.368,47.759],[50.659,47.722],[50.949,47.685],[51.239,47.646],[51.534,47.611],[51.822,47.57],[52.097,47.52],[52.365,47.465],[52.639,47.439],[52.889,47.447],[53.102,47.482]]}},{"type":"Feature","properties":{"kind":"warm","line":2,"px_len":81},"geometry":{"type":"LineString","coordinates":[[-52.889,37.442],[-52.792,37.581],[-52.702,37.711],[-52.602,37.842],[-52.513,37.979],[-52.424,38.116],[-52.359,38.266],[-52.294,38.415],[-52.247,38.573],[-52.174,38.72],[-52.064,38.849],[-51.915,38.959],[-51.753,39.063],[-51.578,39.161],[-51.402,39.258],[-51.244,39.365],[-51.098,39.477],[-50.97,39.599],[-50.822,39.711],[-50.692,39.832],[-50.562,39.953],[-50.45,40.084],[-50.337,40.214],[-50.218,40.342],[-50.085,40.462],[-49.951,40.583],[-49.835,40.692],[-49.745,40.794]]}},{"type":"Feature","properties":{"kind":"cold","line":2,"px_len":430},"geometry":{"type":"LineString","coordinates":[[-49.745,40.794],[-49.624,40.929],[-49.511,41.054],[-49.393,41.184],[-49.268,41.311],[-49.129,41.431],[-48.989,41.551],[-48.855,41.674],[-48.734,41.804],[-48.611,41.934],[-48.488,42.064],[-48.364,42.193],[-48.226,42.316],[-48.081,42.435],[-47.922,42.547],[-47.743,42.648],[-47.55,42.742],[-47.375,42.846],[-47.252,42.978],[-47.167,43.132],[-47.088,43.288],[-46.995,43.438],[-46.882,43.578],[-46.762,43.713],[-46.647,43.852],[-46.532,43.991],[-46.409,44.127],[-46.272,44.255],[-46.134,44.383],[-45.995,44.511],[-45.856,44.639],[-45.715,44.766],[-45.574,44.894],[-45.432,45.021],[-45.289,45.148],[-45.145,45.276],[-45.0,45.403],[-44.874,45.541],[-44.748,45.679],[-44.621,45.817],[-44.472,45.944],[-44.323,46.07],[-44.172,46.196],[-44.034,46.33],[-43.902,46.467],[-43.769,46.605],[-43.622,46.735],[-43.467,46.86],[-43.304,46.981],[-43.126,47.095],[-42.947,47.208],[-42.761,47.316],[-42.573,47.424],[-42.398,47.54],[-42.263,47.681],[-42.168,47.845],[-42.079,48.014],[-41.975,48.174],[-41.85,48.323],[-41.71,48.463],[-41.569,48.602],[-41.426,48.742],[-41.29,48.886],[-41.139,49.021],[-41.001,49.165],[-40.847,49.3],[-40.7,49.439],[-40.544,49.574],[-40.395,49.713],[-40.251,49.856],[-40.092,49.991],[-39.939,50.129],[-39.777,50.263],[-39.629,50.406],[-39.472,50.544],[-39.322,50.686],[-39.163,50.824],[-38.995,50.957],[-38.813,51.081],[-38.622,51.201],[-38.43,51.32],[-38.236,51.439],[-38.041,51.557],[-37.824,51.662],[-37.613,51.771],[-37.428,51.897],[-37.291,52.055],[-37.175,52.227],[-37.057,52.399],[-36.924,52.562],[-36.782,52.72],[-36.625,52.869],[-36.467,53.018],[-36.292,53.157],[-36.117,53.296],[-35.94,53.435],[-35.769,53.578],[-35.596,53.721],[-35.422,53.864],[-35.246,54.006],[-35.076,54.154],[-34.905,54.301],[-34.724,54.443],[-34.536,54.58],[-34.345,54.716],[-34.146,54.848],[-33.945,54.979],[-33.728,55.1],[-33.51,55.221],[-33.282,55.337],[-33.111,55.491],[-33.003,55.691],[-32.929,55.915],[-32.848,56.135],[-32.743,56.34],[-32.622,56.535],[-32.485,56.72],[-32.346,56.905],[-32.221,57.1],[-32.101,57.3],[-31.987,57.505],[-31.879,57.716],[-31.778,57.931],[-31.682,58.152],[-31.61,58.38],[-31.572,58.61],[-31.526,58.835],[-31.43,59.039],[-31.289,59.235],[-31.123,59.415],[-30.955,59.595],[-30.792,59.781],[-30.643,59.976],[-30.492,60.172],[-30.315,60.352],[-30.12,60.521],[-29.98,60.695],[-29.975,60.86],[-30.111,61.016],[-30.33,61.16],[-30.551,61.303],[-30.775,61.446],[-30.992,61.583],[-31.229,61.731]]}},{"type":"Feature","properties":{"kind":"stat","line":2,"px_len":24},"geometry":{"type":"LineString","coordinates":[[-31.229,61.731],[-31.535,61.853],[-31.793,61.977],[-32.04,62.114],[-32.312,62.242],[-32.586,62.37],[-32.852,62.501],[-33.071,62.625],[-33.264,62.733]]}},{"type":"Feature","properties":{"kind":"occl","line":2,"px_len":187},"geometry":{"type":"LineString","coordinates":[[-33.264,62.733],[-33.524,62.876],[-33.768,63.009],[-34.024,63.147],[-34.283,63.284],[-34.544,63.421],[-34.842,63.544],[-35.143,63.667],[-35.447,63.788],[-35.72,63.923],[-35.996,64.057],[-36.309,64.177],[-36.726,64.255],[-37.248,64.291],[-37.837,64.297],[-38.427,64.3],[-39.016,64.3],[-39.606,64.298],[-40.151,64.274],[-40.627,64.221],[-41.011,64.13],[-41.302,64.002],[-41.523,63.846],[-41.696,63.672],[-41.889,63.506],[-42.091,63.345],[-42.323,63.197],[-42.564,63.054],[-42.791,62.905],[-43.016,62.756],[-43.238,62.607],[-43.491,62.47],[-43.741,62.333],[-43.988,62.196],[-44.233,62.058],[-44.486,61.924],[-44.758,61.797],[-45.028,61.671],[-45.285,61.539],[-45.56,61.416],[-45.877,61.308],[-46.246,61.219],[-46.623,61.134],[-47.052,61.067],[-47.458,60.99],[-47.85,60.908],[-48.174,60.803],[-48.528,60.707],[-48.902,60.618],[-49.318,60.543],[-49.743,60.47],[-50.176,60.4],[-50.586,60.32],[-50.948,60.225],[-51.263,60.115],[-51.565,60.0],[-51.864,59.885],[-52.172,59.772],[-52.511,59.669],[-52.914,59.585],[-53.358,59.527],[-53.766,59.511],[-54.15,59.54]]}},{"type":"Feature","properties":{"kind":"warm","line":3,"px_len":198},"geometry":{"type":"LineString","coordinates":[[-25.641,51.216],[-25.487,51.394],[-25.332,51.549],[-25.163,51.702],[-24.981,51.844],[-24.792,51.98],[-24.592,52.105],[-24.39,52.23],[-24.171,52.338],[-23.945,52.441],[-23.703,52.526],[-23.48,52.633],[-23.281,52.766],[-23.127,52.95],[-23.006,53.157],[-22.942,53.375],[-22.915,53.58],[-22.905,53.78],[-22.858,53.992],[-22.782,54.214],[-22.695,54.439],[-22.636,54.655],[-22.586,54.868],[-22.545,55.078],[-22.514,55.286],[-22.492,55.49],[-22.469,55.695],[-22.437,55.903],[-22.357,56.103],[-22.245,56.313],[-22.101,56.533],[-22.013,56.757],[-21.976,56.966],[-22.044,57.144],[-22.187,57.302],[-22.374,57.446],[-22.552,57.594],[-22.731,57.741],[-22.891,57.895],[-23.053,58.048],[-23.194,58.208],[-23.359,58.361],[-23.525,58.515],[-23.694,58.668],[-23.863,58.82],[-24.035,58.973],[-24.208,59.126],[-24.384,59.278],[-24.561,59.43],[-24.74,59.582],[-24.921,59.734],[-25.137,59.875],[-25.322,60.027],[-25.508,60.178],[-25.663,60.339],[-25.82,60.501],[-25.978,60.662],[-26.139,60.823],[-26.404,60.952],[-26.775,61.049],[-27.221,61.089],[-27.657,61.084],[-28.054,61.049],[-28.435,61.003],[-28.814,60.955],[-29.151,60.913],[-29.454,60.88]]}},{"type":"Feature","properties":{"kind":"occl","line":4,"px_len":85},"geometry":{"type":"LineString","coordinates":[[-56.184,59.498],[-56.642,59.449],[-57.046,59.421],[-57.461,59.394],[-57.875,59.366],[-58.282,59.343],[-58.662,59.347],[-58.998,59.398],[-59.309,59.478],[-59.601,59.581],[-59.905,59.671],[-60.216,59.754],[-60.54,59.825],[-60.865,59.894],[-61.191,59.963],[-61.504,60.049],[-61.814,60.14],[-62.097,60.268],[-62.357,60.425],[-62.597,60.612],[-62.83,60.812],[-63.071,61.005],[-63.315,61.197],[-63.573,61.377],[-63.838,61.55],[-64.103,61.729],[-64.366,61.914],[-64.642,62.065],[-64.976,62.182]]}},{"type":"Feature","properties":{"kind":"occl","line":5,"px_len":403},"geometry":{"type":"LineString","coordinates":[[72.134,55.562],[72.003,55.726],[71.881,55.878],[71.753,56.037],[71.623,56.195],[71.492,56.354],[71.36,56.512],[71.227,56.67],[71.092,56.828],[70.934,56.981],[70.764,57.131],[70.592,57.28],[70.441,57.436],[70.299,57.593],[70.155,57.751],[69.977,57.9],[69.797,58.049],[69.615,58.198],[69.454,58.352],[69.257,58.498],[69.014,58.631],[68.725,58.751],[68.421,58.868],[68.093,58.978],[67.785,59.094],[67.485,59.211],[67.24,59.344],[67.026,59.486],[66.821,59.631],[66.614,59.776],[66.405,59.92],[66.183,60.061],[65.935,60.194],[65.651,60.318],[65.398,60.451],[65.201,60.6],[65.037,60.759],[64.882,60.922],[64.678,61.07],[64.496,61.226],[64.277,61.371],[64.067,61.518],[63.831,61.659],[63.616,61.806],[63.411,61.957],[63.204,62.107],[62.994,62.258],[62.782,62.408],[62.568,62.557],[62.375,62.714],[62.192,62.874],[62.043,63.045],[61.892,63.217],[61.764,63.396],[61.634,63.574],[61.539,63.764],[61.455,63.959],[61.396,64.16],[61.322,64.358],[61.248,64.557],[61.185,64.759],[61.16,64.973],[61.187,65.202],[61.241,65.44],[61.283,65.673],[61.258,65.888],[61.137,66.076],[60.933,66.24],[60.683,66.393],[60.459,66.553],[60.231,66.712],[59.999,66.872],[59.751,67.027],[59.513,67.186],[59.314,67.357],[59.041,67.507],[58.694,67.636],[58.229,67.731],[57.76,67.824],[57.288,67.917],[56.853,68.02],[56.428,68.127],[56.041,68.246],[55.649,68.363],[55.268,68.485],[54.895,68.61],[54.547,68.743],[54.208,68.88],[53.864,69.016],[53.558,69.166],[53.248,69.315],[52.989,69.482],[52.741,69.653],[52.517,69.834],[52.274,70.009],[52.027,70.185],[51.805,70.37],[51.593,70.559],[51.406,70.758],[51.215,70.956],[51.05,71.165],[50.881,71.373],[50.754,71.596],[50.624,71.819],[50.506,72.047],[50.354,72.265],[50.166,72.473],[49.941,72.672],[49.695,72.865],[49.476,73.068],[49.301,73.286],[49.239,73.519],[49.298,73.749],[49.467,73.961],[49.733,74.149],[50.06,74.322],[50.395,74.495],[50.7,74.677],[50.937,74.878],[51.162,75.084],[51.412,75.284],[51.786,75.455],[52.265,75.601],[52.812,75.73],[53.369,75.858],[53.937,75.985],[54.515,76.11],[55.084,76.239],[55.626,76.377],[56.179,76.515],[56.705,76.661],[57.281,76.796],[57.831,76.941],[58.463,77.052],[59.195,77.159]]}}]}