{"type":"FeatureCollection","properties":{"chart":"fc","src":"Z__C_EDZW_20261010045957_nwv01,ico_tkb_na_N_000048_000000_202610100000_WV12.png","valid_time":"2026-10-12T00:00:00+00:00"},"features":[{"type":"Feature","properties":{"kind":"cold","line":0,"px_len":64},"geometry":{"type":"LineString","coordinates":[[23.364,42.188],[23.513,42.326],[23.659,42.453],[23.816,42.583],[23.974,42.714],[24.133,42.844],[24.292,42.974],[24.469,43.1],[24.653,43.224],[24.809,43.356],[24.926,43.496],[24.982,43.652],[25.03,43.81],[25.079,43.968],[25.151,44.121],[25.225,44.274],[25.298,44.426],[25.389,44.575],[25.488,44.722],[25.587,44.869],[25.669,45.015],[25.748,45.173]]}},{"type":"Feature","properties":{"kind":"cold","line":1,"px_len":171},"geometry":{"type":"LineString","coordinates":[[28.05,47.969],[28.291,48.09],[28.51,48.203],[28.767,48.312],[29.043,48.415],[29.287,48.527],[29.48,48.654],[29.614,48.797],[29.758,48.937],[29.895,49.08],[30.05,49.218],[30.206,49.356],[30.381,49.489],[30.556,49.621],[30.751,49.748],[30.947,49.874],[31.153,49.998],[31.352,50.124],[31.561,50.247],[31.788,50.364],[32.035,50.475],[32.302,50.58],[32.56,50.687],[32.856,50.782],[33.127,50.885],[33.355,51.001],[33.505,51.143],[33.629,51.294],[33.754,51.444],[33.889,51.591],[34.044,51.733],[34.199,51.874],[34.365,52.012],[34.523,52.153],[34.692,52.291],[34.862,52.428],[35.024,52.569],[35.178,52.712],[35.306,52.864],[35.417,53.023],[35.528,53.182],[35.651,53.337],[35.774,53.493],[35.898,53.648],[36.023,53.804],[36.178,53.949],[36.334,54.095],[36.445,54.257],[36.461,54.451],[36.392,54.674],[36.283,54.91],[36.173,55.147],[36.055,55.378],[35.925,55.598],[35.753,55.779],[35.517,55.898],[35.26,55.956],[35.009,55.982]]}},{"type":"Feature","properties":{"kind":"occl","line":1,"px_len":127},"geometry":{"type":"LineString","coordinates":[[35.009,55.982],[34.698,56.041],[34.412,56.097],[34.109,56.151],[33.8,56.198],[33.474,56.226],[33.153,56.26],[32.841,56.304],[32.56,56.382],[32.292,56.476],[32.023,56.57],[31.743,56.651],[31.455,56.726],[31.167,56.8],[30.877,56.874],[30.586,56.946],[30.298,57.024],[30.033,57.131],[29.79,57.266],[29.564,57.425],[29.34,57.59],[29.11,57.748],[28.872,57.9],[28.622,58.04],[28.38,58.191],[28.139,58.348],[27.901,58.51],[27.66,58.672],[27.399,58.809],[27.112,58.915],[26.787,58.972],[26.453,59.015],[26.117,59.057],[25.789,59.111],[25.477,59.188],[25.15,59.246],[24.831,59.315],[24.497,59.365],[24.159,59.408],[23.793,59.406],[23.407,59.371],[23.02,59.308],[22.588,59.21]]}},{"type":"Feature","properties":{"kind":"warm","line":2,"px_len":89},"geometry":{"type":"LineString","coordinates":[[35.896,56.037],[36.137,56.168],[36.338,56.297],[36.527,56.438],[36.738,56.572],[36.97,56.699],[37.286,56.799],[37.658,56.872],[38.051,56.899],[38.416,56.889],[38.762,56.861],[39.095,56.821],[39.446,56.796],[39.797,56.77],[40.18,56.77],[40.557,56.786],[40.952,56.826],[41.341,56.882],[41.749,56.939],[42.168,56.99],[42.593,57.021],[42.993,57.021],[43.335,56.978],[43.633,56.903],[43.916,56.817],[44.189,56.725],[44.468,56.637],[44.753,56.554],[45.051,56.481],[45.293,56.43],[45.473,56.399]]}},{"type":"Feature","properties":{"kind":"cold","line":3,"px_len":464},"geometry":{"type":"LineString","coordinates":[[-43.582,31.957],[-43.467,32.072],[-43.345,32.169],[-43.218,32.269],[-43.077,32.359],[-42.949,32.459],[-42.811,32.551],[-42.683,32.651],[-42.549,32.747],[-42.414,32.843],[-42.284,32.942],[-42.153,33.041],[-42.022,33.14],[-41.885,33.235],[-41.743,33.326],[-41.61,33.425],[-41.466,33.515],[-41.328,33.61],[-41.174,33.693],[-41.009,33.768],[-40.83,33.832],[-40.67,33.91],[-40.543,34.014],[-40.439,34.137],[-40.33,34.257],[-40.225,34.38],[-40.115,34.499],[-40.005,34.618],[-39.879,34.726],[-39.753,34.833],[-39.616,34.933],[-39.474,35.028],[-39.332,35.124],[-39.198,35.227],[-39.069,35.333],[-38.939,35.44],[-38.809,35.546],[-38.678,35.653],[-38.532,35.747],[-38.385,35.841],[-38.238,35.935],[-38.104,36.04],[-37.97,36.146],[-37.836,36.251],[-37.7,36.356],[-37.564,36.461],[-37.428,36.566],[-37.291,36.671],[-37.153,36.775],[-37.015,36.879],[-36.876,36.983],[-36.736,37.087],[-36.596,37.191],[-36.455,37.295],[-36.314,37.398],[-36.171,37.501],[-36.029,37.604],[-35.885,37.707],[-35.741,37.81],[-35.587,37.904],[-35.422,37.989],[-35.242,38.061],[-35.077,38.146],[-34.934,38.251],[-34.829,38.391],[-34.728,38.536],[-34.622,38.676],[-34.491,38.794],[-34.359,38.912],[-34.222,39.026],[-34.089,39.144],[-33.955,39.262],[-33.816,39.375],[-33.676,39.488],[-33.535,39.601],[-33.394,39.714],[-33.251,39.826],[-33.109,39.939],[-32.965,40.051],[-32.821,40.163],[-32.675,40.275],[-32.534,40.391],[-32.397,40.512],[-32.25,40.623],[-32.111,40.744],[-31.962,40.855],[-31.827,40.979],[-31.677,41.09],[-31.54,41.214],[-31.392,41.329],[-31.254,41.453],[-31.11,41.573],[-30.965,41.692],[-30.824,41.816],[-30.673,41.93],[-30.53,42.053],[-30.373,42.162],[-30.214,42.271],[-30.041,42.365],[-29.867,42.459],[-29.692,42.553],[-29.516,42.646],[-29.363,42.763],[-29.237,42.909],[-29.134,43.079],[-29.034,43.254],[-28.925,43.419],[-28.809,43.579],[-28.679,43.725],[-28.543,43.866],[-28.402,44.002],[-28.259,44.137],[-28.116,44.273],[-27.971,44.408],[-27.831,44.549],[-27.689,44.689],[-27.551,44.834],[-27.408,44.974],[-27.272,45.124],[-27.132,45.269],[-26.994,45.418],[-26.856,45.568],[-26.722,45.723],[-26.591,45.882],[-26.454,46.037],[-26.321,46.197],[-26.182,46.351],[-26.052,46.516],[-25.92,46.681],[-25.797,46.856],[-25.663,47.02],[-25.528,47.185],[-25.373,47.329],[-25.213,47.467],[-25.037,47.59],[-24.859,47.712],[-24.69,47.844],[-24.593,47.998],[-24.551,48.179],[-24.559,48.369],[-24.552,48.565],[-24.52,48.772],[-24.456,48.991],[-24.366,49.219],[-24.275,49.449],[-24.183,49.678],[-24.09,49.907],[-24.004,50.134],[-23.934,50.355],[-23.864,50.575],[-23.801,50.793],[-23.723,51.009],[-23.625,51.204],[-23.473,51.366],[-23.324,51.47],[-23.202,51.527]]}},{"type":"Feature","properties":{"kind":"stat","line":3,"px_len":223},"geometry":{"type":"LineString","coordinates":[[-23.202,51.527],[-22.985,51.646],[-22.74,51.709],[-22.465,51.752],[-22.185,51.789],[-21.915,51.836],[-21.643,51.882],[-21.371,51.928],[-21.107,51.984],[-20.852,52.05],[-20.605,52.127],[-20.357,52.204],[-20.112,52.285],[-19.876,52.378],[-19.624,52.452],[-19.359,52.509],[-19.07,52.537],[-18.78,52.563],[-18.495,52.595],[-18.213,52.631],[-17.944,52.684],[-17.682,52.748],[-17.419,52.811],[-17.168,52.891],[-16.92,52.976],[-16.687,53.083],[-16.452,53.19],[-16.22,53.303],[-15.991,53.421],[-15.76,53.538],[-15.531,53.661],[-15.309,53.796],[-15.089,53.935],[-14.87,54.081],[-14.65,54.226],[-14.436,54.382],[-14.224,54.544],[-14.017,54.718],[-13.815,54.904],[-13.623,55.108],[-13.436,55.323],[-13.279,55.532],[-13.108,55.723],[-12.924,55.895],[-12.693,56.055],[-12.457,56.209],[-12.219,56.362],[-11.978,56.515],[-11.735,56.668],[-11.482,56.807],[-11.227,56.946],[-11.038,57.094],[-10.944,57.259],[-10.967,57.432],[-11.006,57.609],[-11.068,57.782],[-11.096,57.961],[-11.137,58.139],[-11.177,58.317],[-11.302,58.481],[-11.499,58.633],[-11.735,58.779],[-11.937,58.931],[-12.129,59.084],[-12.31,59.239],[-12.506,59.392],[-12.679,59.549],[-12.83,59.711],[-12.995,59.87],[-13.149,60.031],[-13.305,60.191],[-13.462,60.352],[-13.622,60.513],[-13.779,60.667],[-13.908,60.841]]}},{"type":"Feature","properties":{"kind":"occl","line":3,"px_len":235},"geometry":{"type":"LineString","coordinates":[[-13.908,60.841],[-14.129,60.998],[-14.278,61.155],[-14.434,61.317],[-14.605,61.477],[-14.791,61.635],[-14.979,61.792],[-15.169,61.949],[-15.374,62.104],[-15.582,62.258],[-15.806,62.41],[-16.032,62.561],[-16.275,62.709],[-16.493,62.863],[-16.727,63.013],[-16.923,63.171],[-17.122,63.328],[-17.281,63.493],[-17.443,63.659],[-17.621,63.821],[-17.857,63.973],[-18.166,64.11],[-18.52,64.238],[-18.878,64.366],[-19.197,64.501],[-19.477,64.644],[-19.761,64.786],[-20.062,64.925],[-20.409,65.055],[-20.803,65.174],[-21.287,65.274],[-21.83,65.345],[-22.374,65.383],[-22.92,65.419],[-23.455,65.471],[-24.012,65.548],[-24.529,65.633],[-25.051,65.716],[-25.562,65.801],[-26.091,65.88],[-26.609,65.961],[-27.159,66.032],[-27.725,66.098],[-28.309,66.157],[-28.882,66.219],[-29.445,66.281],[-29.983,66.35],[-30.456,66.436],[-30.893,66.533],[-31.377,66.607],[-31.882,66.623],[-32.39,66.584],[-32.864,66.528],[-33.357,66.48],[-33.892,66.451],[-34.436,66.426],[-34.991,66.403],[-35.544,66.379],[-36.073,66.342],[-36.532,66.274],[-36.874,66.155],[-37.167,66.015],[-37.457,65.875],[-37.777,65.749],[-38.117,65.633],[-38.431,65.505],[-38.775,65.392],[-39.093,65.268],[-39.465,65.167],[-39.8,65.05],[-40.131,64.934],[-40.425,64.802],[-40.75,64.684],[-41.072,64.565],[-41.391,64.445],[-41.672,64.311],[-41.951,64.177],[-42.253,64.079],[-42.614,64.032]]}},{"type":"Feature","properties":{"kind":"warm","line":4,"px_len":158},"geometry":{"type":"LineString","coordinates":[[-5.169,48.605],[-5.193,48.778],[-5.214,48.939],[-5.237,49.106],[-5.269,49.272],[-5.264,49.444],[-5.24,49.618],[-5.207,49.793],[-5.173,49.969],[-5.13,50.146],[-5.086,50.323],[-5.08,50.495],[-5.132,50.661],[-5.243,50.819],[-5.384,50.973],[-5.526,51.127],[-5.65,51.284],[-5.764,51.442],[-5.851,51.604],[-5.958,51.763],[-6.046,51.925],[-6.135,52.087],[-6.194,52.254],[-6.254,52.42],[-6.315,52.587],[-6.406,52.749],[-6.499,52.912],[-6.592,53.074],[-6.656,53.241],[-6.72,53.408],[-6.764,53.578],[-6.797,53.75],[-6.821,53.923],[-6.834,54.098],[-6.837,54.275],[-6.85,54.45],[-6.907,54.619],[-7.04,54.779],[-7.217,54.932],[-7.429,55.081],[-7.632,55.231],[-7.847,55.379],[-8.043,55.53],[-8.229,55.682],[-8.395,55.838],[-8.574,55.991],[-8.754,56.144],[-8.959,56.294],[-9.188,56.44],[-9.464,56.579],[-9.754,56.715],[-10.07,56.847],[-10.311,56.95],[-10.487,57.023]]}},{"type":"Feature","properties":{"kind":"cold","line":5,"px_len":161},"geometry":{"type":"LineString","coordinates":[[65.295,57.062],[65.6,57.138],[65.899,57.196],[66.221,57.244],[66.549,57.286],[66.891,57.316],[67.221,57.356],[67.517,57.429],[67.775,57.541],[68.029,57.659],[68.279,57.782],[68.548,57.887],[68.824,57.985],[69.12,58.065],[69.416,58.145],[69.715,58.224],[70.015,58.302],[70.316,58.379],[70.619,58.456],[70.923,58.531],[71.229,58.606],[71.537,58.68],[71.846,58.754],[72.172,58.808],[72.504,58.855],[72.848,58.89],[73.157,58.965],[73.449,59.064],[73.708,59.205],[73.965,59.351],[74.229,59.49],[74.505,59.617],[74.793,59.731],[75.079,59.85],[75.372,59.963],[75.667,60.075],[75.965,60.186],[76.26,60.303],[76.571,60.4],[76.884,60.497],[77.213,60.574],[77.53,60.669],[77.862,60.744],[78.196,60.818],[78.54,60.879],[78.866,60.97],[79.177,61.086],[79.476,61.227],[79.76,61.371],[79.961,61.537],[80.068,61.717],[80.111,61.909],[80.142,62.1],[80.182,62.25],[80.219,62.359]]}},{"type":"Feature","properties":{"kind":"warm","line":6,"px_len":74},"geometry":{"type":"LineString","coordinates":[[-66.787,49.438],[-67.001,49.577],[-67.207,49.695],[-67.423,49.814],[-67.635,49.945],[-67.846,50.081],[-68.053,50.229],[-68.26,50.382],[-68.463,50.547],[-68.665,50.718],[-68.877,50.87],[-69.103,50.992],[-69.35,51.065],[-69.611,51.107],[-69.882,51.124],[-70.151,51.146],[-70.421,51.167],[-70.69,51.188],[-70.956,51.219],[-71.217,51.263],[-71.475,51.318],[-71.734,51.372],[-71.993,51.425],[-72.254,51.478],[-72.459,51.51],[-72.608,51.529]]}}]}