{"type":"FeatureCollection","properties":{"chart":"fc","src":"Z__C_EDZW_20261005061450_nwv01,ico_tkb_na_N_000108_000000_202610050000_WV12.png","valid_time":"2026-10-09T12:00:00+00:00"},"features":[{"type":"Feature","properties":{"kind":"cold","line":0,"px_len":209},"geometry":{"type":"LineString","coordinates":[[1.718,38.842],[1.934,38.74],[2.134,38.654],[2.339,38.573],[2.544,38.487],[2.748,38.399],[2.952,38.306],[3.155,38.217],[3.357,38.128],[3.558,38.028],[3.759,37.921],[3.96,37.796],[4.161,37.666],[4.36,37.535],[4.556,37.455],[4.749,37.425],[4.942,37.423],[5.135,37.409],[5.328,37.395],[5.52,37.385],[5.713,37.37],[5.905,37.354],[6.098,37.32],[6.29,37.304],[6.481,37.269],[6.673,37.251],[6.865,37.227],[7.056,37.208],[7.247,37.189],[7.438,37.174],[7.63,37.171],[7.821,37.167],[8.013,37.162],[8.204,37.157],[8.395,37.151],[8.586,37.145],[8.777,37.133],[8.967,37.109],[9.157,37.084],[9.348,37.082],[9.544,37.135],[9.742,37.216],[9.942,37.314],[10.141,37.394],[10.341,37.474],[10.542,37.547],[10.742,37.614],[10.943,37.681],[11.145,37.753],[11.351,37.847],[11.56,37.963],[11.75,38.098],[11.907,38.24],[12.035,38.385],[12.157,38.53],[12.287,38.675],[12.41,38.82],[12.527,38.966],[12.645,39.111],[12.763,39.257],[12.845,39.406],[12.869,39.561],[12.848,39.72],[12.811,39.88],[12.782,40.04],[12.753,40.2],[12.731,40.359],[12.716,40.518],[12.702,40.678],[12.697,40.801],[12.695,40.889]]}},{"type":"Feature","properties":{"kind":"warm","line":0,"px_len":119},"geometry":{"type":"LineString","coordinates":[[12.695,40.889],[12.789,41.045],[12.904,41.188],[13.045,41.335],[13.202,41.479],[13.391,41.621],[13.609,41.736],[13.835,41.803],[14.052,41.816],[14.263,41.795],[14.472,41.766],[14.679,41.726],[14.887,41.696],[15.096,41.666],[15.305,41.641],[15.513,41.61],[15.72,41.579],[15.929,41.552],[16.137,41.525],[16.349,41.515],[16.561,41.504],[16.773,41.493],[16.98,41.463],[17.19,41.445],[17.402,41.432],[17.618,41.435],[17.834,41.438],[18.045,41.423],[18.246,41.373],[18.444,41.311],[18.644,41.261],[18.849,41.226],[19.053,41.191],[19.257,41.156],[19.467,41.137],[19.679,41.129],[19.895,41.132],[20.114,41.14],[20.334,41.152],[20.507,41.168],[20.629,41.174]]}},{"type":"Feature","properties":{"kind":"cold","line":0,"px_len":143},"geometry":{"type":"LineString","coordinates":[[20.629,41.174],[20.871,41.223],[21.096,41.269],[21.331,41.319],[21.569,41.373],[21.808,41.427],[22.051,41.491],[22.291,41.543],[22.524,41.578],[22.752,41.595],[22.977,41.606],[23.204,41.622],[23.411,41.666],[23.588,41.754],[23.725,41.882],[23.849,42.019],[23.983,42.154],[24.139,42.284],[24.312,42.41],[24.501,42.532],[24.684,42.655],[24.875,42.776],[25.06,42.899],[25.246,43.021],[25.417,43.147],[25.59,43.273],[25.763,43.399],[25.93,43.526],[26.09,43.655],[26.252,43.783],[26.422,43.91],[26.601,44.034],[26.796,44.154],[27.0,44.271],[27.222,44.384],[27.413,44.504],[27.566,44.635],[27.665,44.782],[27.749,44.933],[27.833,45.084],[27.918,45.235],[28.028,45.379],[28.139,45.524],[28.25,45.668],[28.338,45.819],[28.435,45.968],[28.548,46.113],[28.643,46.224],[28.709,46.303]]}},{"type":"Feature","properties":{"kind":"warm","line":1,"px_len":69},"geometry":{"type":"LineString","coordinates":[[28.843,46.383],[28.955,46.535],[29.068,46.674],[29.186,46.818],[29.289,46.967],[29.359,47.126],[29.43,47.285],[29.485,47.449],[29.54,47.612],[29.587,47.779],[29.66,47.938],[29.793,48.08],[29.96,48.213],[30.146,48.34],[30.332,48.466],[30.52,48.593],[30.684,48.727],[30.84,48.863],[30.972,49.007],[31.105,49.15],[31.213,49.302],[31.322,49.454],[31.419,49.588],[31.505,49.706]]}},{"type":"Feature","properties":{"kind":"cold","line":1,"px_len":187},"geometry":{"type":"LineString","coordinates":[[31.505,49.706],[31.62,49.863],[31.729,50.009],[31.842,50.161],[31.956,50.312],[32.071,50.464],[32.187,50.616],[32.286,50.773],[32.404,50.924],[32.531,51.073],[32.696,51.211],[32.871,51.345],[33.029,51.485],[33.135,51.642],[33.177,51.819],[33.193,52.005],[33.209,52.191],[33.244,52.371],[33.288,52.549],[33.352,52.721],[33.406,52.896],[33.471,53.069],[33.536,53.241],[33.611,53.411],[33.678,53.584],[33.745,53.757],[33.813,53.93],[33.891,54.1],[33.961,54.273],[34.021,54.449],[34.102,54.62],[34.193,54.787],[34.305,54.949],[34.418,55.111],[34.552,55.266],[34.697,55.419],[34.813,55.58],[34.824,55.753],[34.744,55.953],[34.602,56.172],[34.475,56.408],[34.346,56.644],[34.236,56.875],[34.134,57.102],[34.032,57.329],[33.906,57.563],[33.75,57.783],[33.587,57.997],[33.41,58.199],[33.225,58.395],[33.02,58.574],[32.797,58.735],[32.565,58.889],[32.325,59.038],[32.088,59.192],[31.854,59.351],[31.613,59.505],[31.363,59.651],[31.105,59.792],[30.844,59.932],[30.581,60.071],[30.312,60.189],[30.005,60.3]]}},{"type":"Feature","properties":{"kind":"warm","line":1,"px_len":318},"geometry":{"type":"LineString","coordinates":[[30.005,60.3],[29.872,60.495],[29.922,60.649],[30.125,60.793],[30.436,60.921],[30.786,61.039],[31.176,61.149],[31.557,61.26],[31.929,61.372],[32.316,61.481],[32.756,61.576],[33.212,61.667],[33.683,61.754],[34.157,61.838],[34.659,61.914],[35.151,61.992],[35.609,62.077],[36.02,62.174],[36.398,62.279],[36.741,62.394],[37.063,62.514],[37.412,62.627],[37.827,62.721],[38.302,62.781],[38.778,62.801],[39.218,62.782],[39.627,62.74],[40.041,62.701],[40.455,62.661],[40.884,62.631],[41.311,62.599],[41.772,62.587],[42.24,62.579],[42.716,62.575],[43.176,62.558],[43.625,62.534],[44.056,62.498],[44.468,62.45],[44.879,62.401],[45.288,62.351],[45.714,62.309],[46.138,62.266],[46.58,62.232],[47.029,62.201],[47.478,62.168],[47.887,62.114],[48.229,62.024],[48.492,61.894],[48.706,61.739],[48.898,61.574],[49.088,61.409],[49.304,61.258],[49.517,61.107],[49.757,60.97],[49.984,60.828],[50.219,60.69],[50.442,60.547],[50.653,60.399],[50.862,60.251],[51.051,60.094],[51.228,59.931],[51.394,59.764],[51.558,59.596],[51.729,59.433],[51.907,59.275],[52.093,59.12],[52.286,58.971],[52.486,58.825],[52.675,58.675],[52.826,58.506],[52.902,58.302],[52.924,58.071],[52.877,57.842],[52.805,57.627],[52.717,57.421],[52.664,57.197],[52.636,56.959],[52.651,56.726],[52.673,56.497],[52.712,56.277],[52.734,56.049],[52.764,55.825],[52.794,55.601],[52.823,55.378],[52.868,55.164],[52.945,54.968],[53.045,54.785],[53.16,54.611],[53.274,54.436],[53.387,54.262],[53.475,54.075],[53.492,53.876],[53.463,53.67],[53.367,53.479],[53.251,53.302],[53.107,53.143],[52.985,52.97],[52.88,52.789],[52.818,52.579],[52.757,52.37],[52.726,52.143],[52.694,51.917],[52.684,51.677],[52.653,51.45],[52.623,51.225],[52.594,51.026],[52.587,50.84]]}},{"type":"Feature","properties":{"kind":"warm","line":2,"px_len":92},"geometry":{"type":"LineString","coordinates":[[-52.999,37.495],[-52.794,37.503],[-52.612,37.555],[-52.442,37.646],[-52.274,37.744],[-52.105,37.842],[-51.935,37.939],[-51.776,38.042],[-51.63,38.152],[-51.482,38.26],[-51.346,38.375],[-51.222,38.496],[-51.115,38.626],[-51.008,38.756],[-50.901,38.886],[-50.792,39.016],[-50.665,39.137],[-50.512,39.245],[-50.333,39.339],[-50.141,39.428],[-49.961,39.522],[-49.786,39.619],[-49.641,39.732],[-49.509,39.851],[-49.381,39.973],[-49.247,40.092],[-49.112,40.211],[-48.995,40.34],[-48.896,40.478],[-48.797,40.617],[-48.717,40.724],[-48.65,40.795]]}},{"type":"Feature","properties":{"kind":"cold","line":2,"px_len":83},"geometry":{"type":"LineString","coordinates":[[-48.65,40.795],[-48.551,40.942],[-48.454,41.076],[-48.364,41.221],[-48.261,41.36],[-48.164,41.502],[-48.06,41.641],[-47.961,41.783],[-47.868,41.929],[-47.762,42.068],[-47.648,42.203],[-47.521,42.331],[-47.394,42.46],[-47.265,42.588],[-47.142,42.719],[-47.07,42.879],[-47.056,43.071],[-47.081,43.285],[-47.094,43.492],[-47.086,43.688],[-47.052,43.871],[-47.005,44.046],[-46.936,44.211],[-46.874,44.38],[-46.805,44.545],[-46.729,44.707],[-46.631,44.858],[-46.544,44.969],[-46.473,45.045]]}},{"type":"Feature","properties":{"kind":"warm","line":2,"px_len":218},"geometry":{"type":"LineString","coordinates":[[-46.473,45.045],[-46.369,45.2],[-46.254,45.336],[-46.112,45.465],[-45.97,45.594],[-45.827,45.722],[-45.682,45.851],[-45.537,45.979],[-45.411,46.119],[-45.285,46.258],[-45.158,46.398],[-45.009,46.526],[-44.872,46.661],[-44.756,46.808],[-44.646,46.959],[-44.521,47.102],[-44.367,47.23],[-44.163,47.33],[-43.904,47.398],[-43.622,47.454],[-43.346,47.512],[-43.091,47.582],[-42.834,47.651],[-42.59,47.727],[-42.366,47.815],[-42.147,47.907],[-41.935,48.002],[-41.714,48.092],[-41.492,48.182],[-41.263,48.267],[-41.033,48.352],[-40.801,48.436],[-40.575,48.524],[-40.348,48.611],[-40.141,48.71],[-39.925,48.805],[-39.729,48.912],[-39.532,49.019],[-39.354,49.138],[-39.174,49.258],[-38.98,49.368],[-38.751,49.455],[-38.468,49.507],[-38.143,49.523],[-37.806,49.511],[-37.462,49.494],[-37.111,49.479],[-36.747,49.471],[-36.403,49.476],[-36.071,49.488],[-35.758,49.513],[-35.438,49.532],[-35.118,49.55],[-34.798,49.567],[-34.484,49.587],[-34.181,49.616],[-33.897,49.658],[-33.625,49.708],[-33.363,49.768],[-33.108,49.831],[-32.869,49.908],[-32.624,49.98],[-32.347,50.026],[-32.034,50.043],[-31.714,50.022],[-31.412,49.976],[-31.116,49.91],[-30.797,49.856],[-30.448,49.814],[-30.09,49.784],[-29.75,49.768],[-29.421,49.76],[-29.168,49.755],[-28.978,49.743]]}},{"type":"Feature","properties":{"kind":"cold","line":2,"px_len":431},"geometry":{"type":"LineString","coordinates":[[-28.978,49.743],[-28.663,49.756],[-28.359,49.756],[-28.042,49.753],[-27.714,49.739],[-27.37,49.708],[-27.011,49.661],[-26.669,49.605],[-26.353,49.538],[-26.066,49.487],[-25.799,49.479],[-25.542,49.517],[-25.292,49.573],[-25.047,49.633],[-24.795,49.688],[-24.533,49.732],[-24.256,49.758],[-23.979,49.784],[-23.696,49.803],[-23.418,49.827],[-23.134,49.845],[-22.855,49.867],[-22.576,49.888],[-22.296,49.909],[-22.021,49.934],[-21.745,49.958],[-21.465,49.976],[-21.175,49.982],[-20.876,49.975],[-20.569,49.957],[-20.258,49.932],[-19.964,49.929],[-19.7,49.963],[-19.46,50.031],[-19.224,50.103],[-18.987,50.175],[-18.745,50.241],[-18.494,50.294],[-18.242,50.347],[-17.985,50.394],[-17.732,50.445],[-17.47,50.485],[-17.211,50.529],[-16.944,50.562],[-16.685,50.604],[-16.417,50.635],[-16.16,50.682],[-15.898,50.723],[-15.64,50.769],[-15.381,50.814],[-15.117,50.852],[-14.857,50.896],[-14.592,50.933],[-14.327,50.969],[-14.065,51.01],[-13.803,51.051],[-13.539,51.091],[-13.266,51.112],[-12.985,51.121],[-12.707,51.134],[-12.449,51.183],[-12.208,51.266],[-11.973,51.361],[-11.734,51.45],[-11.487,51.525],[-11.236,51.594],[-10.978,51.651],[-10.722,51.713],[-10.468,51.78],[-10.214,51.846],[-9.952,51.9],[-9.687,51.947],[-9.422,51.993],[-9.164,52.057],[-8.904,52.12],[-8.644,52.182],[-8.376,52.225],[-8.114,52.286],[-7.851,52.346],[-7.588,52.405],[-7.314,52.44],[-7.034,52.461],[-6.755,52.481],[-6.474,52.5],[-6.194,52.519],[-5.922,52.561],[-5.658,52.627],[-5.408,52.736],[-5.156,52.845],[-4.905,52.959],[-4.645,53.054],[-4.383,53.142],[-4.115,53.216],[-3.849,53.297],[-3.58,53.376],[-3.311,53.455],[-3.04,53.533],[-2.769,53.61],[-2.499,53.7],[-2.228,53.788],[-1.956,53.882],[-1.684,53.976],[-1.412,54.081],[-1.138,54.179],[-0.861,54.27],[-0.578,54.342],[-0.294,54.413],[-0.007,54.47],[0.281,54.532],[0.567,54.607],[0.802,54.729],[0.989,54.887],[1.151,55.069],[1.337,55.252],[1.571,55.437],[1.83,55.623],[2.116,55.796],[2.406,55.962],[2.7,56.128],[2.971,56.305],[3.235,56.474],[3.505,56.611],[3.802,56.715],[4.115,56.8],[4.43,56.883],[4.746,56.959],[5.064,57.041],[5.384,57.115],[5.692,57.221],[5.943,57.351],[6.135,57.52],[6.244,57.696],[6.256,57.871],[6.195,58.047],[6.084,58.223],[5.996,58.399],[5.907,58.575],[5.842,58.751],[5.802,58.928],[5.761,59.104],[5.72,59.281],[5.679,59.457],[5.663,59.634],[5.66,59.772],[5.658,59.871]]}},{"type":"Feature","properties":{"kind":"occl","line":2,"px_len":230},"geometry":{"type":"LineString","coordinates":[[5.658,59.871],[5.655,60.055],[5.651,60.226],[5.648,60.404],[5.644,60.581],[5.641,60.76],[5.651,60.938],[5.688,61.116],[5.74,61.295],[5.806,61.474],[5.804,61.653],[5.745,61.831],[5.629,62.01],[5.54,62.188],[5.492,62.368],[5.444,62.547],[5.396,62.726],[5.332,62.905],[5.252,63.085],[5.127,63.264],[4.91,63.442],[4.646,63.619],[4.302,63.788],[3.925,63.943],[3.543,64.096],[3.202,64.257],[2.885,64.43],[2.549,64.603],[2.192,64.774],[1.798,64.943],[1.367,65.111],[0.903,65.255],[0.442,65.358],[-0.008,65.406],[-0.455,65.433],[-0.902,65.458],[-1.353,65.488],[-1.802,65.51],[-2.247,65.517],[-2.688,65.51],[-3.121,65.481],[-3.549,65.444],[-3.982,65.419],[-4.426,65.42],[-4.886,65.452],[-5.353,65.495],[-5.819,65.53],[-6.275,65.545],[-6.721,65.537],[-7.17,65.535],[-7.616,65.525],[-8.069,65.527],[-8.495,65.565],[-8.863,65.664],[-9.196,65.808],[-9.49,65.963],[-9.788,66.118],[-10.074,66.275],[-10.364,66.43],[-10.625,66.589],[-10.857,66.752],[-11.076,66.917],[-11.299,67.081],[-11.557,67.241],[-11.854,67.396],[-12.188,67.546],[-12.476,67.703],[-12.717,67.865],[-12.944,68.03],[-13.158,68.196],[-13.393,68.36],[-13.648,68.521],[-13.961,68.675],[-14.33,68.821],[-14.794,68.955],[-15.37,69.072],[-15.875,69.154],[-16.25,69.21]]}},{"type":"Feature","properties":{"kind":"warm","line":3,"px_len":201},"geometry":{"type":"LineString","coordinates":[[-1.07,47.208],[-0.83,47.284],[-0.602,47.333],[-0.364,47.371],[-0.122,47.395],[0.119,47.419],[0.358,47.467],[0.59,47.556],[0.817,47.694],[1.023,47.861],[1.202,48.038],[1.366,48.195],[1.534,48.34],[1.732,48.474],[1.95,48.609],[2.188,48.744],[2.428,48.872],[2.669,49.012],[2.912,49.146],[3.157,49.279],[3.406,49.38],[3.657,49.475],[3.91,49.556],[4.163,49.661],[4.415,49.791],[4.64,49.951],[4.807,50.122],[4.889,50.291],[4.941,50.46],[4.975,50.629],[5.029,50.799],[5.073,50.968],[5.137,51.138],[5.213,51.308],[5.319,51.479],[5.426,51.65],[5.534,51.82],[5.633,51.991],[5.754,52.162],[5.876,52.332],[6.009,52.503],[6.133,52.674],[6.29,52.845],[6.459,53.016],[6.651,53.186],[6.823,53.356],[6.933,53.527],[6.959,53.699],[6.93,53.871],[6.88,54.043],[6.85,54.216],[6.821,54.388],[6.791,54.561],[6.794,54.734],[6.808,54.906],[6.845,55.079],[6.849,55.252],[6.852,55.426],[6.855,55.599],[6.825,55.773],[6.794,55.947],[6.727,56.121],[6.672,56.296],[6.581,56.471],[6.489,56.645],[6.373,56.82],[6.255,56.976],[6.136,57.112]]}},{"type":"Feature","properties":{"kind":"cold","line":4,"px_len":120},"geometry":{"type":"LineString","coordinates":[[-62.559,52.633],[-62.326,52.768],[-62.148,52.903],[-61.975,53.045],[-61.8,53.188],[-61.623,53.33],[-61.445,53.472],[-61.236,53.606],[-61.015,53.737],[-60.773,53.863],[-60.569,53.999],[-60.413,54.147],[-60.315,54.31],[-60.227,54.476],[-60.149,54.644],[-60.059,54.81],[-59.968,54.976],[-59.846,55.134],[-59.712,55.29],[-59.556,55.44],[-59.399,55.591],[-59.261,55.746],[-59.163,55.912],[-59.065,56.078],[-58.986,56.25],[-58.907,56.421],[-58.838,56.596],[-58.757,56.768],[-58.675,56.94],[-58.603,57.115],[-58.508,57.284],[-58.413,57.454],[-58.316,57.623],[-58.279,57.801],[-58.35,57.963],[-58.516,58.127],[-58.739,58.291],[-58.944,58.477],[-59.136,58.682],[-59.296,58.878],[-59.428,59.059]]}},{"type":"Feature","properties":{"kind":"cold","line":5,"px_len":137},"geometry":{"type":"LineString","coordinates":[[-69.412,42.755],[-69.325,42.91],[-69.248,43.054],[-69.169,43.205],[-69.09,43.355],[-69.01,43.506],[-68.937,43.658],[-68.872,43.812],[-68.79,43.963],[-68.708,44.114],[-68.609,44.262],[-68.509,44.41],[-68.384,44.554],[-68.267,44.698],[-68.181,44.85],[-68.152,45.013],[-68.172,45.185],[-68.192,45.358],[-68.188,45.526],[-68.15,45.688],[-68.12,45.852],[-68.082,46.014],[-68.043,46.177],[-68.004,46.339],[-67.964,46.502],[-67.95,46.67],[-67.919,46.835],[-67.904,47.003],[-67.873,47.168],[-67.849,47.335],[-67.817,47.501],[-67.793,47.668],[-67.76,47.834],[-67.736,48.002],[-67.693,48.166],[-67.668,48.334],[-67.625,48.499],[-67.582,48.664],[-67.571,48.823],[-67.648,48.979],[-67.811,49.145],[-67.998,49.328],[-68.169,49.526],[-68.312,49.726],[-68.438,49.923],[-68.533,50.075],[-68.617,50.186]]}},{"type":"Feature","properties":{"kind":"occl","line":6,"px_len":286},"geometry":{"type":"LineString","coordinates":[[74.839,56.135],[74.883,56.338],[74.871,56.516],[74.832,56.695],[74.826,56.881],[74.853,57.074],[74.925,57.278],[75.032,57.488],[75.151,57.701],[75.204,57.9],[75.211,58.089],[75.172,58.27],[75.156,58.455],[75.14,58.641],[75.159,58.834],[75.214,59.034],[75.281,59.236],[75.326,59.434],[75.298,59.618],[75.221,59.793],[75.106,59.961],[74.99,60.129],[74.885,60.3],[74.804,60.475],[74.746,60.655],[74.688,60.835],[74.655,61.02],[74.646,61.21],[74.651,61.403],[74.642,61.594],[74.62,61.782],[74.598,61.97],[74.589,62.161],[74.593,62.355],[74.624,62.554],[74.683,62.757],[74.769,62.966],[74.885,63.18],[74.961,63.386],[74.954,63.578],[74.848,63.754],[74.699,63.922],[74.59,64.097],[74.479,64.272],[74.396,64.453],[74.312,64.633],[74.241,64.816],[74.184,65.002],[74.066,65.178],[73.887,65.343],[73.616,65.493],[73.326,65.64],[73.063,65.791],[72.827,65.948],[72.648,66.115],[72.437,66.276],[72.238,66.44],[72.004,66.598],[71.83,66.767],[71.685,66.942],[71.538,67.117],[71.372,67.288],[71.172,67.454],[71.0,67.626],[70.843,67.8],[70.715,67.98],[70.569,68.157],[70.437,68.337],[70.319,68.52],[70.233,68.709],[70.163,68.901],[70.091,69.093],[70.018,69.286],[69.943,69.478],[69.867,69.67],[69.754,69.857],[69.495,70.018],[69.125,70.161],[68.677,70.291],[68.259,70.426],[67.836,70.56],[67.406,70.693],[66.952,70.821],[66.474,70.945],[65.989,71.068],[65.498,71.189],[65.056,71.32],[64.607,71.449],[64.225,71.592],[63.8,71.727],[63.425,71.872],[63.043,72.017],[62.712,72.172],[62.318,72.315],[61.93,72.452],[61.51,72.599]]}}]}