{"type":"FeatureCollection","properties":{"chart":"fc","src":"Z__C_EDZW_20261010055117_nwv01,ico_tkb_na_N_000084_000000_202610100000_WV12.png","valid_time":"2026-10-13T12:00:00+00:00"},"features":[{"type":"Feature","properties":{"kind":"cold","line":0,"px_len":142},"geometry":{"type":"LineString","coordinates":[[30.308,37.952],[30.437,38.082],[30.58,38.193],[30.734,38.307],[30.909,38.414],[31.077,38.523],[31.26,38.627],[31.437,38.733],[31.589,38.848],[31.701,38.978],[31.767,39.125],[31.833,39.273],[31.907,39.418],[31.994,39.558],[32.083,39.698],[32.178,39.836],[32.288,39.969],[32.398,40.101],[32.502,40.236],[32.593,40.377],[32.685,40.517],[32.791,40.652],[32.905,40.785],[33.019,40.918],[33.12,41.056],[33.215,41.196],[33.311,41.337],[33.421,41.472],[33.538,41.604],[33.678,41.729],[33.811,41.856],[33.938,41.985],[34.024,42.131],[34.082,42.288],[34.119,42.454],[34.15,42.622],[34.202,42.783],[34.254,42.943],[34.329,43.096],[34.39,43.254],[34.472,43.403],[34.541,43.559],[34.61,43.714],[34.673,43.873],[34.736,44.032],[34.814,44.185],[34.897,44.33],[35.009,44.477]]}},{"type":"Feature","properties":{"kind":"warm","line":1,"px_len":312},"geometry":{"type":"LineString","coordinates":[[35.237,45.439],[35.218,45.639],[35.236,45.812],[35.274,45.984],[35.313,46.157],[35.336,46.335],[35.352,46.517],[35.345,46.708],[35.314,46.908],[35.263,47.109],[35.187,47.305],[35.126,47.496],[35.084,47.686],[35.1,47.869],[35.179,48.029],[35.284,48.18],[35.405,48.325],[35.511,48.476],[35.61,48.63],[35.71,48.785],[35.786,48.948],[35.854,49.114],[35.899,49.29],[35.943,49.466],[35.989,49.642],[36.034,49.819],[36.08,49.995],[36.135,50.169],[36.191,50.343],[36.247,50.517],[36.312,50.688],[36.377,50.859],[36.444,51.03],[36.476,51.214],[36.5,51.401],[36.507,51.595],[36.522,51.786],[36.529,51.981],[36.545,52.172],[36.606,52.348],[36.73,52.501],[36.9,52.638],[37.098,52.765],[37.288,52.896],[37.489,53.022],[37.665,53.158],[37.833,53.298],[37.984,53.444],[38.136,53.589],[38.29,53.735],[38.444,53.881],[38.601,54.026],[38.758,54.171],[38.917,54.316],[39.078,54.461],[39.249,54.602],[39.44,54.737],[39.633,54.87],[39.818,55.008],[39.985,55.152],[40.155,55.295],[40.297,55.45],[40.441,55.604],[40.587,55.759],[40.733,55.913],[40.891,56.063],[41.079,56.203],[41.354,56.308],[41.678,56.394],[42.052,56.461],[42.418,56.53],[42.785,56.597],[43.116,56.679],[43.43,56.768],[43.727,56.863],[44.017,56.962],[44.318,57.056],[44.63,57.145],[44.943,57.234],[45.259,57.321],[45.585,57.403],[45.923,57.481],[46.234,57.57],[46.511,57.674],[46.78,57.783],[47.06,57.886],[47.332,57.993],[47.625,58.091],[47.966,58.166],[48.366,58.196],[48.769,58.187],[49.14,58.139],[49.484,58.076],[49.818,58.007],[50.151,57.937],[50.491,57.871],[50.837,57.808],[51.209,57.758],[51.579,57.707],[51.947,57.655],[52.297,57.592],[52.646,57.528],[52.984,57.459],[53.27,57.389],[53.494,57.316]]}},{"type":"Feature","properties":{"kind":"warm","line":2,"px_len":108},"geometry":{"type":"LineString","coordinates":[[-25.58,53.31],[-25.72,53.468],[-25.84,53.618],[-25.967,53.774],[-26.085,53.933],[-26.205,54.092],[-26.308,54.258],[-26.393,54.431],[-26.461,54.611],[-26.52,54.794],[-26.598,54.971],[-26.696,55.14],[-26.833,55.296],[-27.029,55.431],[-27.263,55.551],[-27.519,55.664],[-27.766,55.779],[-28.016,55.894],[-28.248,56.016],[-28.482,56.137],[-28.689,56.269],[-28.888,56.405],[-29.089,56.54],[-29.302,56.671],[-29.535,56.794],[-29.761,56.921],[-29.979,57.05],[-30.179,57.188],[-30.4,57.317],[-30.633,57.442],[-30.938,57.53],[-31.265,57.567],[-31.618,57.536],[-31.927,57.464],[-32.213,57.376],[-32.446,57.284],[-32.635,57.194]]}},{"type":"Feature","properties":{"kind":"cold","line":2,"px_len":129},"geometry":{"type":"LineString","coordinates":[[-32.635,57.194],[-32.79,57.009],[-32.954,56.853],[-33.134,56.697],[-33.312,56.542],[-33.481,56.381],[-33.663,56.229],[-33.85,56.083],[-34.066,55.956],[-34.272,55.824],[-34.484,55.696],[-34.68,55.558],[-34.882,55.425],[-35.081,55.292],[-35.28,55.158],[-35.461,55.014],[-35.649,54.875],[-35.827,54.731],[-36.026,54.601],[-36.209,54.461],[-36.405,54.331],[-36.6,54.2],[-36.786,54.064],[-36.977,53.932],[-37.167,53.801],[-37.356,53.669],[-37.528,53.527],[-37.677,53.372],[-37.817,53.212],[-37.978,53.065],[-38.182,52.946],[-38.428,52.853],[-38.673,52.76],[-38.909,52.661],[-39.129,52.553],[-39.341,52.441],[-39.536,52.319],[-39.73,52.197],[-39.922,52.074],[-40.136,51.965],[-40.348,51.854],[-40.558,51.744],[-40.747,51.647],[-40.936,51.576]]}},{"type":"Feature","properties":{"kind":"warm","line":2,"px_len":89},"geometry":{"type":"LineString","coordinates":[[-40.936,51.576],[-41.128,51.447],[-41.327,51.339],[-41.532,51.227],[-41.75,51.122],[-41.952,51.009],[-42.175,50.908],[-42.412,50.815],[-42.67,50.733],[-42.934,50.655],[-43.197,50.576],[-43.474,50.505],[-43.734,50.424],[-43.986,50.339],[-44.177,50.222],[-44.329,50.084],[-44.435,49.923],[-44.54,49.762],[-44.652,49.604],[-44.785,49.459],[-44.932,49.321],[-45.092,49.19],[-45.252,49.06],[-45.41,48.929],[-45.567,48.798],[-45.723,48.667],[-45.878,48.536],[-46.032,48.405],[-46.185,48.273],[-46.303,48.171],[-46.387,48.098]]}},{"type":"Feature","properties":{"kind":"cold","line":2,"px_len":222},"geometry":{"type":"LineString","coordinates":[[-46.387,48.098],[-46.543,47.961],[-46.679,47.83],[-46.806,47.687],[-46.932,47.544],[-47.063,47.404],[-47.209,47.272],[-47.353,47.139],[-47.49,47.003],[-47.611,46.859],[-47.731,46.716],[-47.857,46.576],[-47.997,46.443],[-48.114,46.299],[-48.216,46.148],[-48.311,45.994],[-48.44,45.857],[-48.618,45.745],[-48.823,45.646],[-49.041,45.554],[-49.237,45.451],[-49.432,45.347],[-49.612,45.236],[-49.791,45.125],[-49.961,45.011],[-50.131,44.896],[-50.3,44.781],[-50.468,44.665],[-50.635,44.55],[-50.808,44.437],[-50.98,44.324],[-51.151,44.211],[-51.314,44.094],[-51.47,43.974],[-51.624,43.854],[-51.784,43.736],[-51.937,43.616],[-52.075,43.489],[-52.191,43.352],[-52.306,43.215],[-52.42,43.079],[-52.576,42.96],[-52.792,42.869],[-53.049,42.796],[-53.299,42.719],[-53.527,42.632],[-53.746,42.542],[-53.951,42.445],[-54.142,42.342],[-54.317,42.232],[-54.505,42.129],[-54.686,42.022],[-54.872,41.917],[-55.058,41.812],[-55.25,41.71],[-55.433,41.604],[-55.616,41.498],[-55.784,41.386],[-55.952,41.274],[-56.091,41.151],[-56.229,41.027],[-56.36,40.901],[-56.489,40.775],[-56.622,40.656],[-56.794,40.566],[-57.02,40.497],[-57.27,40.43],[-57.505,40.344],[-57.711,40.247],[-57.903,40.144],[-58.074,40.034],[-58.262,39.949],[-58.466,39.901],[-58.668,39.898],[-58.837,39.907]]}},{"type":"Feature","properties":{"kind":"cold","line":3,"px_len":161},"geometry":{"type":"LineString","coordinates":[[-8.197,59.003],[-8.286,59.18],[-8.369,59.345],[-8.457,59.516],[-8.559,59.686],[-8.686,59.852],[-8.816,60.019],[-8.934,60.187],[-9.028,60.358],[-9.123,60.53],[-9.18,60.707],[-9.238,60.884],[-9.283,61.062],[-9.343,61.24],[-9.416,61.415],[-9.571,61.58],[-9.808,61.734],[-10.089,61.882],[-10.345,62.033],[-10.591,62.186],[-10.826,62.34],[-11.05,62.496],[-11.262,62.653],[-11.478,62.81],[-11.696,62.967],[-11.93,63.122],[-12.153,63.278],[-12.393,63.432],[-12.637,63.586],[-12.897,63.737],[-13.174,63.885],[-13.455,64.033],[-13.74,64.18],[-14.027,64.327],[-14.333,64.471],[-14.628,64.617],[-14.896,64.766],[-15.124,64.923],[-15.37,65.077],[-15.589,65.236],[-15.796,65.397],[-16.051,65.55],[-16.426,65.661],[-16.921,65.728],[-17.449,65.788],[-17.97,65.871],[-18.501,65.972],[-19.006,66.078],[-19.5,66.184],[-19.984,66.292],[-20.472,66.398],[-20.98,66.499],[-21.508,66.596],[-21.946,66.664],[-22.278,66.709]]}},{"type":"Feature","properties":{"kind":"occl","line":3,"px_len":166},"geometry":{"type":"LineString","coordinates":[[-22.278,66.709],[-22.824,66.806],[-23.373,66.887],[-23.949,66.968],[-24.485,67.057],[-24.965,67.158],[-25.39,67.272],[-25.774,67.395],[-26.213,67.497],[-26.698,67.547],[-27.234,67.551],[-27.79,67.54],[-28.396,67.554],[-29.044,67.588],[-29.714,67.631],[-30.387,67.67],[-31.041,67.696],[-31.652,67.697],[-32.197,67.664],[-32.661,67.592],[-33.089,67.503],[-33.503,67.408],[-33.946,67.327],[-34.386,67.244],[-34.846,67.171],[-35.315,67.101],[-35.792,67.035],[-36.266,66.968],[-36.737,66.898],[-37.206,66.828],[-37.683,66.76],[-38.169,66.696],[-38.701,66.65],[-39.255,66.611],[-39.819,66.575],[-40.32,66.513],[-40.756,66.427],[-41.127,66.316],[-41.482,66.2],[-41.833,66.083],[-42.181,65.965],[-42.538,65.851],[-42.892,65.736],[-43.279,65.633],[-43.662,65.53],[-43.981,65.404],[-44.209,65.247],[-44.373,65.068],[-44.546,64.894],[-44.754,64.732],[-44.995,64.583],[-45.258,64.442],[-45.482,64.288],[-45.702,64.133],[-45.911,63.984],[-46.172,63.836]]}},{"type":"Feature","properties":{"kind":"cold","line":4,"px_len":246},"geometry":{"type":"LineString","coordinates":[[-7.636,48.068],[-7.416,48.192],[-7.21,48.307],[-6.995,48.423],[-6.777,48.539],[-6.557,48.648],[-6.339,48.769],[-6.118,48.883],[-5.894,48.991],[-5.662,49.08],[-5.43,49.169],[-5.193,49.244],[-4.956,49.326],[-4.711,49.382],[-4.466,49.438],[-4.219,49.493],[-4.014,49.593],[-3.831,49.74],[-3.675,49.922],[-3.489,50.106],[-3.286,50.274],[-3.059,50.43],[-2.827,50.574],[-2.595,50.724],[-2.362,50.879],[-2.128,51.034],[-1.894,51.201],[-1.658,51.367],[-1.421,51.539],[-1.181,51.711],[-0.941,51.888],[-0.701,52.078],[-0.468,52.266],[-0.251,52.44],[-0.026,52.583],[0.214,52.706],[0.479,52.818],[0.734,52.935],[0.935,53.067],[1.06,53.221],[1.13,53.396],[1.169,53.571],[1.229,53.746],[1.29,53.922],[1.384,54.099],[1.49,54.277],[1.608,54.456],[1.727,54.634],[1.837,54.812],[1.936,54.99],[2.026,55.168],[2.105,55.345],[2.185,55.522],[2.254,55.698],[2.325,55.875],[2.373,56.051],[2.421,56.228],[2.47,56.404],[2.508,56.58],[2.558,56.757],[2.609,56.934],[2.66,57.111],[2.724,57.288],[2.789,57.466],[2.915,57.646],[3.03,57.825],[3.171,58.005],[3.314,58.185],[3.508,58.366],[3.731,58.535],[3.969,58.696],[4.224,58.839],[4.379,58.992],[4.407,59.149],[4.294,59.324],[4.179,59.5],[4.075,59.675],[3.984,59.851],[3.891,60.026],[3.811,60.202],[3.743,60.379],[3.662,60.535],[3.582,60.672]]}},{"type":"Feature","properties":{"kind":"occl","line":4,"px_len":265},"geometry":{"type":"LineString","coordinates":[[3.582,60.672],[3.565,60.857],[3.548,61.028],[3.545,61.207],[3.569,61.386],[3.621,61.566],[3.688,61.746],[3.77,61.927],[3.867,62.108],[3.98,62.29],[4.137,62.472],[4.326,62.655],[4.561,62.838],[4.843,63.021],[5.144,63.204],[5.405,63.386],[5.534,63.567],[5.605,63.747],[5.692,63.928],[5.826,64.109],[5.993,64.29],[6.194,64.472],[6.444,64.652],[6.699,64.833],[6.861,65.013],[6.898,65.195],[6.871,65.376],[6.844,65.558],[6.898,65.739],[6.953,65.921],[7.026,66.103],[7.083,66.285],[7.174,66.466],[7.301,66.648],[7.448,66.829],[7.596,67.01],[7.747,67.192],[7.919,67.373],[8.146,67.553],[8.395,67.733],[8.666,67.912],[8.942,68.091],[9.186,68.27],[9.359,68.45],[9.443,68.632],[9.491,68.815],[9.52,68.999],[9.589,69.182],[9.677,69.364],[9.807,69.546],[9.919,69.728],[10.013,69.911],[10.029,70.095],[9.965,70.282],[9.838,70.47],[9.687,70.658],[9.534,70.846],[9.378,71.034],[9.261,71.222],[9.184,71.409],[9.128,71.595],[9.092,71.781],[9.056,71.968],[9.019,72.154],[8.981,72.34],[8.966,72.527],[8.996,72.712],[9.05,72.898],[9.153,73.083],[9.21,73.268],[9.148,73.456],[8.961,73.645],[8.746,73.834],[8.575,74.023],[8.451,74.211],[8.376,74.399],[8.299,74.586],[8.167,74.774],[7.951,74.963],[7.649,75.153],[7.175,75.342],[6.549,75.517],[5.796,75.677],[5.027,75.82],[4.298,75.975],[3.579,76.142],[2.956,76.322],[2.496,76.496],[2.231,76.687]]}},{"type":"Feature","properties":{"kind":"warm","line":5,"px_len":129},"geometry":{"type":"LineString","coordinates":[[8.367,52.194],[8.378,52.371],[8.388,52.535],[8.409,52.705],[8.452,52.875],[8.495,53.045],[8.527,53.216],[8.539,53.387],[8.551,53.559],[8.563,53.73],[8.585,53.902],[8.63,54.073],[8.708,54.243],[8.809,54.413],[8.922,54.583],[8.991,54.754],[8.972,54.927],[8.886,55.103],[8.766,55.279],[8.655,55.456],[8.531,55.632],[8.418,55.809],[8.315,55.985],[8.234,56.161],[8.152,56.337],[8.081,56.512],[8.009,56.688],[7.936,56.864],[7.851,57.041],[7.752,57.217],[7.653,57.394],[7.564,57.57],[7.474,57.747],[7.384,57.924],[7.28,58.1],[7.137,58.278],[6.943,58.455],[6.709,58.633],[6.434,58.778],[6.132,58.876],[5.789,58.927],[5.447,58.958],[5.141,58.976],[4.875,58.979]]}},{"type":"Feature","properties":{"kind":"warm","line":6,"px_len":50},"geometry":{"type":"LineString","coordinates":[[1.791,79.637],[1.547,79.83],[1.503,80.011],[1.535,80.201],[1.443,80.389],[1.347,80.578],[1.291,80.767],[1.41,80.958],[1.761,81.152],[2.267,81.347],[2.797,81.542],[3.402,81.729],[4.295,81.875],[5.476,81.984],[6.84,82.061],[8.229,82.134],[9.329,82.19],[10.126,82.232]]}}]}