{"type":"FeatureCollection","properties":{"chart":"fc","src":"Z__C_EDZW_20261008053414_nwv01,ico_tkb_na_N_000084_000000_202610080000_WV12.png","valid_time":"2026-10-11T12:00:00+00:00"},"features":[{"type":"Feature","properties":{"kind":"warm","line":0,"px_len":73},"geometry":{"type":"LineString","coordinates":[[20.306,40.425],[20.553,40.503],[20.769,40.605],[20.97,40.727],[21.15,40.854],[21.308,40.985],[21.452,41.119],[21.583,41.255],[21.736,41.387],[21.936,41.51],[22.172,41.618],[22.428,41.709],[22.678,41.783],[22.925,41.844],[23.162,41.92],[23.384,42.017],[23.584,42.137],[23.762,42.262],[23.918,42.392],[24.06,42.526],[24.196,42.661],[24.324,42.798],[24.454,42.935],[24.574,43.069],[24.723,43.207]]}},{"type":"Feature","properties":{"kind":"cold","line":0,"px_len":98},"geometry":{"type":"LineString","coordinates":[[24.723,43.207],[24.827,43.357],[24.934,43.494],[25.044,43.637],[25.163,43.777],[25.267,43.922],[25.387,44.062],[25.485,44.209],[25.599,44.351],[25.698,44.498],[25.814,44.64],[25.922,44.785],[26.04,44.927],[26.158,45.07],[26.293,45.208],[26.437,45.344],[26.566,45.484],[26.647,45.637],[26.68,45.803],[26.697,45.973],[26.722,46.141],[26.756,46.307],[26.798,46.471],[26.858,46.631],[26.909,46.794],[26.969,46.954],[27.03,47.114],[27.1,47.273],[27.161,47.434],[27.224,47.594],[27.286,47.755],[27.35,47.916],[27.394,48.043],[27.435,48.132]]}},{"type":"Feature","properties":{"kind":"warm","line":1,"px_len":217},"geometry":{"type":"LineString","coordinates":[[27.878,49.33],[27.905,49.509],[27.908,49.682],[27.915,49.861],[27.895,50.047],[27.874,50.233],[27.836,50.424],[27.824,50.608],[27.867,50.779],[27.975,50.933],[28.121,51.078],[28.269,51.224],[28.427,51.366],[28.567,51.514],[28.699,51.663],[28.804,51.82],[28.91,51.977],[28.989,52.141],[29.068,52.305],[29.149,52.47],[29.258,52.627],[29.369,52.784],[29.481,52.941],[29.593,53.098],[29.707,53.255],[29.822,53.412],[29.938,53.569],[30.074,53.721],[30.222,53.871],[30.371,54.02],[30.501,54.174],[30.623,54.331],[30.746,54.488],[30.87,54.645],[30.985,54.805],[31.081,54.97],[31.147,55.143],[31.224,55.313],[31.343,55.473],[31.536,55.614],[31.792,55.737],[32.122,55.841],[32.496,55.932],[32.871,56.021],[33.218,56.118],[33.546,56.22],[33.846,56.33],[34.158,56.436],[34.451,56.547],[34.798,56.642],[35.137,56.739],[35.499,56.829],[35.862,56.917],[36.238,57.001],[36.647,57.074],[37.068,57.142],[37.511,57.202],[37.946,57.263],[38.362,57.329],[38.749,57.404],[39.108,57.488],[39.432,57.577],[39.754,57.65],[40.095,57.7],[40.473,57.72],[40.837,57.705],[41.162,57.647],[41.444,57.557],[41.724,57.466],[42.009,57.38],[42.293,57.293],[42.566,57.209],[42.885,57.137]]}},{"type":"Feature","properties":{"kind":"occl","line":2,"px_len":227},"geometry":{"type":"LineString","coordinates":[[-27.547,55.514],[-27.521,55.307],[-27.471,55.126],[-27.416,54.939],[-27.379,54.745],[-27.405,54.536],[-27.493,54.325],[-27.623,54.129],[-27.787,53.964],[-27.962,53.81],[-28.142,53.66],[-28.296,53.49],[-28.43,53.304],[-28.544,53.102],[-28.664,52.905],[-28.806,52.73],[-28.988,52.59],[-29.193,52.471],[-29.402,52.357],[-29.592,52.226],[-29.769,52.086],[-29.932,51.935],[-30.088,51.778],[-30.242,51.622],[-30.389,51.461],[-30.535,51.299],[-30.668,51.127],[-30.805,50.961],[-30.946,50.799],[-31.087,50.637],[-31.232,50.48],[-31.37,50.319],[-31.519,50.166],[-31.661,50.009],[-31.801,49.852],[-31.941,49.695],[-32.084,49.543],[-32.227,49.39],[-32.369,49.237],[-32.509,49.085],[-32.655,48.937],[-32.787,48.779],[-32.906,48.612],[-33.013,48.435],[-33.107,48.249],[-33.183,48.049],[-33.257,47.849],[-33.343,47.658],[-33.456,47.492],[-33.598,47.348],[-33.761,47.224],[-33.93,47.104],[-34.097,46.983],[-34.252,46.854],[-34.417,46.733],[-34.564,46.598],[-34.71,46.463],[-34.854,46.328],[-35.033,46.22],[-35.228,46.126],[-35.422,46.031],[-35.597,45.922],[-35.772,45.813],[-35.946,45.704],[-36.101,45.581],[-36.256,45.457],[-36.392,45.321],[-36.544,45.197],[-36.684,45.065],[-36.835,44.941],[-36.985,44.817],[-37.128,44.688],[-37.276,44.564],[-37.423,44.439],[-37.575,44.319],[-37.684,44.219],[-37.751,44.14]]}},{"type":"Feature","properties":{"kind":"cold","line":2,"px_len":536},"geometry":{"type":"LineString","coordinates":[[-37.751,44.14],[-37.918,44.024],[-38.073,43.915],[-38.221,43.794],[-38.362,43.669],[-38.503,43.543],[-38.654,43.426],[-38.81,43.313],[-38.966,43.199],[-39.12,43.085],[-39.262,42.963],[-39.398,42.837],[-39.533,42.71],[-39.678,42.591],[-39.829,42.477],[-39.978,42.362],[-40.127,42.247],[-40.275,42.132],[-40.416,42.013],[-40.546,41.885],[-40.668,41.753],[-40.779,41.614],[-40.888,41.474],[-41.009,41.342],[-41.163,41.234],[-41.35,41.15],[-41.548,41.072],[-41.734,40.987],[-41.897,40.885],[-42.047,40.776],[-42.202,40.67],[-42.356,40.564],[-42.504,40.454],[-42.64,40.336],[-42.786,40.226],[-42.938,40.119],[-43.088,40.012],[-43.227,39.897],[-43.376,39.79],[-43.524,39.682],[-43.672,39.574],[-43.808,39.459],[-43.954,39.351],[-44.099,39.243],[-44.25,39.138],[-44.394,39.029],[-44.538,38.92],[-44.68,38.811],[-44.822,38.702],[-44.969,38.596],[-45.116,38.49],[-45.256,38.38],[-45.406,38.277],[-45.545,38.167],[-45.694,38.063],[-45.832,37.953],[-45.985,37.853],[-46.127,37.745],[-46.279,37.645],[-46.414,37.533],[-46.565,37.432],[-46.698,37.321],[-46.83,37.209],[-46.945,37.087],[-47.06,36.965],[-47.173,36.843],[-47.287,36.721],[-47.378,36.593],[-47.385,36.472],[-47.317,36.348],[-47.195,36.226],[-47.082,36.095],[-46.962,35.973],[-46.842,35.852],[-46.722,35.73],[-46.608,35.603],[-46.494,35.477],[-46.38,35.35],[-46.263,35.228],[-46.151,35.101],[-46.015,35.001],[-45.847,34.943],[-45.652,34.959],[-45.474,35.027],[-45.323,35.12],[-45.182,35.22],[-45.046,35.324],[-44.915,35.43],[-44.783,35.537],[-44.645,35.639],[-44.501,35.738],[-44.362,35.841],[-44.211,35.936],[-44.06,36.031],[-43.909,36.125],[-43.756,36.219],[-43.609,36.317],[-43.455,36.411],[-43.312,36.512],[-43.162,36.609],[-43.012,36.706],[-42.862,36.802],[-42.71,36.899],[-42.564,36.998],[-42.416,37.098],[-42.268,37.197],[-42.125,37.3],[-41.97,37.395],[-41.826,37.498],[-41.675,37.596],[-41.529,37.698],[-41.383,37.8],[-41.236,37.902],[-41.088,38.003],[-40.939,38.105],[-40.795,38.209],[-40.651,38.314],[-40.5,38.415],[-40.349,38.515],[-40.197,38.615],[-40.044,38.715],[-39.875,38.803],[-39.705,38.89],[-39.524,38.969],[-39.353,39.056],[-39.197,39.155],[-39.077,39.281],[-38.983,39.428],[-38.884,39.571],[-38.762,39.697],[-38.608,39.799],[-38.463,39.909],[-38.313,40.015],[-38.162,40.12],[-37.999,40.217],[-37.841,40.317],[-37.693,40.426],[-37.544,40.535],[-37.395,40.643],[-37.239,40.747],[-37.072,40.842],[-36.905,40.937],[-36.742,41.036],[-36.588,41.144],[-36.434,41.251],[-36.279,41.357],[-36.124,41.464],[-35.967,41.57],[-35.81,41.676],[-35.652,41.782],[-35.494,41.888],[-35.334,41.993],[-35.174,42.098],[-35.008,42.199],[-34.83,42.29],[-34.652,42.381],[-34.478,42.476],[-34.314,42.58],[-34.149,42.683],[-33.983,42.787],[-33.8,42.876],[-33.617,42.965],[-33.418,43.04],[-33.218,43.114],[-33.007,43.179],[-32.826,43.271],[-32.67,43.385],[-32.539,43.523],[-32.391,43.647],[-32.233,43.761],[-32.058,43.861],[-31.882,43.96],[-31.705,44.059],[-31.528,44.158],[-31.349,44.257],[-31.17,44.355],[-30.99,44.453],[-30.809,44.551],[-30.668,44.626],[-30.567,44.68]]}},{"type":"Feature","properties":{"kind":"warm","line":2,"px_len":87},"geometry":{"type":"LineString","coordinates":[[-30.567,44.68],[-30.342,44.747],[-30.155,44.83],[-29.965,44.921],[-29.765,45.002],[-29.563,45.083],[-29.366,45.168],[-29.178,45.262],[-28.989,45.356],[-28.814,45.464],[-28.639,45.573],[-28.467,45.685],[-28.289,45.793],[-28.11,45.9],[-27.925,46.002],[-27.706,46.069],[-27.461,46.109],[-27.187,46.119],[-26.917,46.132],[-26.648,46.145],[-26.392,46.172],[-26.146,46.209],[-25.908,46.256],[-25.679,46.311],[-25.449,46.367],[-25.219,46.421],[-24.988,46.476],[-24.756,46.529],[-24.547,46.573],[-24.351,46.596]]}},{"type":"Feature","properties":{"kind":"cold","line":2,"px_len":153},"geometry":{"type":"LineString","coordinates":[[-24.351,46.596],[-24.124,46.666],[-23.902,46.72],[-23.668,46.77],[-23.433,46.82],[-23.197,46.869],[-22.961,46.918],[-22.724,46.966],[-22.482,47.008],[-22.232,47.038],[-21.976,47.063],[-21.717,47.081],[-21.448,47.087],[-21.176,47.088],[-20.919,47.109],[-20.695,47.173],[-20.491,47.264],[-20.289,47.359],[-20.083,47.449],[-19.875,47.539],[-19.663,47.622],[-19.442,47.694],[-19.22,47.765],[-18.997,47.836],[-18.773,47.906],[-18.56,47.993],[-18.346,48.079],[-18.143,48.181],[-17.931,48.271],[-17.725,48.373],[-17.518,48.474],[-17.314,48.58],[-17.113,48.691],[-16.91,48.802],[-16.713,48.924],[-16.519,49.052],[-16.327,49.184],[-16.138,49.323],[-15.946,49.461],[-15.758,49.604],[-15.571,49.753],[-15.389,49.913],[-15.2,50.061],[-15.001,50.198],[-14.794,50.322],[-14.586,50.446],[-14.373,50.564],[-14.155,50.676],[-13.928,50.775],[-13.704,50.88],[-13.51,50.984],[-13.354,51.099]]}},{"type":"Feature","properties":{"kind":"warm","line":2,"px_len":43},"geometry":{"type":"LineString","coordinates":[[-13.354,51.099],[-13.334,51.29],[-13.336,51.462],[-13.332,51.643],[-13.309,51.828],[-13.266,52.018],[-13.213,52.21],[-13.14,52.406],[-13.057,52.605],[-12.932,52.812],[-12.787,53.023],[-12.639,53.234],[-12.581,53.427],[-12.61,53.596],[-12.707,53.765]]}},{"type":"Feature","properties":{"kind":"occl","line":2,"px_len":342},"geometry":{"type":"LineString","coordinates":[[-12.707,53.765],[-12.836,53.927],[-12.989,54.071],[-13.189,54.212],[-13.432,54.345],[-13.718,54.468],[-14.027,54.587],[-14.318,54.708],[-14.579,54.836],[-14.832,54.966],[-15.066,55.099],[-15.302,55.233],[-15.509,55.373],[-15.717,55.512],[-15.927,55.651],[-16.16,55.785],[-16.448,55.906],[-16.791,56.014],[-17.181,56.096],[-17.578,56.169],[-17.967,56.242],[-18.346,56.331],[-18.71,56.43],[-19.056,56.533],[-19.393,56.638],[-19.723,56.745],[-20.043,56.853],[-20.366,56.961],[-20.681,57.07],[-20.997,57.179],[-21.295,57.293],[-21.573,57.412],[-21.811,57.543],[-22.041,57.676],[-22.25,57.815],[-22.473,57.951],[-22.665,58.095],[-22.881,58.233],[-23.131,58.362],[-23.415,58.48],[-23.702,58.597],[-23.948,58.727],[-24.196,58.856],[-24.414,58.995],[-24.644,59.13],[-24.887,59.262],[-25.177,59.379],[-25.502,59.485],[-25.829,59.591],[-26.17,59.692],[-26.513,59.792],[-26.825,59.901],[-27.118,60.017],[-27.358,60.151],[-27.623,60.277],[-27.856,60.413],[-28.092,60.55],[-28.297,60.696],[-28.482,60.851],[-28.658,61.008],[-28.836,61.166],[-29.038,61.316],[-29.254,61.461],[-29.46,61.611],[-29.647,61.767],[-29.812,61.932],[-29.98,62.096],[-30.139,62.264],[-30.287,62.436],[-30.415,62.616],[-30.614,62.772],[-30.886,62.903],[-31.195,63.022],[-31.472,63.153],[-31.717,63.295],[-31.965,63.437],[-32.215,63.578],[-32.468,63.719],[-32.724,63.86],[-32.995,63.996],[-33.328,64.11],[-33.734,64.198],[-34.238,64.25],[-34.755,64.295],[-35.286,64.334],[-35.772,64.389],[-36.272,64.437],[-36.762,64.488],[-37.254,64.537],[-37.748,64.585],[-38.267,64.621],[-38.82,64.632],[-39.373,64.621],[-39.914,64.594],[-40.454,64.565],[-41.015,64.542],[-41.586,64.522],[-42.099,64.477],[-42.493,64.386],[-42.791,64.259],[-43.074,64.126],[-43.366,63.998],[-43.655,63.869],[-43.918,63.731],[-44.213,63.605],[-44.504,63.478],[-44.793,63.351],[-45.033,63.207],[-45.224,63.045],[-45.333,62.855],[-45.34,62.637],[-45.256,62.419],[-45.142,62.198],[-45.018,62.015],[-44.911,61.856]]}},{"type":"Feature","properties":{"kind":"warm","line":3,"px_len":87},"geometry":{"type":"LineString","coordinates":[[-11.92,46.261],[-11.802,46.422],[-11.699,46.598],[-11.578,46.797],[-11.431,47.002],[-11.307,47.202],[-11.208,47.396],[-11.178,47.575],[-11.19,47.746],[-11.255,47.906],[-11.33,48.064],[-11.405,48.222],[-11.48,48.38],[-11.53,48.545],[-11.58,48.709],[-11.613,48.877],[-11.655,49.043],[-11.679,49.214],[-11.722,49.38],[-11.783,49.543],[-11.863,49.703],[-11.944,49.862],[-12.035,50.02],[-12.145,50.174],[-12.255,50.327],[-12.386,50.477],[-12.526,50.625],[-12.706,50.764],[-12.867,50.888],[-13.011,50.996]]}},{"type":"Feature","properties":{"kind":"warm","line":4,"px_len":137},"geometry":{"type":"LineString","coordinates":[[-6.87,46.608],[-6.805,46.793],[-6.753,46.964],[-6.711,47.14],[-6.651,47.318],[-6.599,47.495],[-6.538,47.674],[-6.522,47.847],[-6.558,48.011],[-6.658,48.166],[-6.759,48.321],[-6.869,48.474],[-6.954,48.632],[-7.057,48.787],[-7.115,48.95],[-7.174,49.112],[-7.215,49.278],[-7.274,49.44],[-7.335,49.603],[-7.395,49.766],[-7.457,49.929],[-7.519,50.092],[-7.581,50.256],[-7.644,50.419],[-7.688,50.586],[-7.724,50.754],[-7.75,50.924],[-7.766,51.096],[-7.773,51.269],[-7.78,51.442],[-7.846,51.607],[-7.982,51.761],[-8.178,51.905],[-8.415,52.043],[-8.664,52.179],[-8.945,52.309],[-9.228,52.438],[-9.533,52.564],[-9.831,52.69],[-10.129,52.789],[-10.426,52.861],[-10.736,52.911],[-11.056,52.957],[-11.391,53.027],[-11.736,53.114],[-12.016,53.199],[-12.217,53.259]]}},{"type":"Feature","properties":{"kind":"cold","line":5,"px_len":29},"geometry":{"type":"LineString","coordinates":[[-47.687,36.455],[-47.886,36.377],[-48.071,36.305],[-48.26,36.227],[-48.436,36.143],[-48.601,36.052],[-48.754,35.954],[-48.894,35.85],[-49.034,35.745],[-49.133,35.659],[-49.203,35.596]]}},{"type":"Feature","properties":{"kind":"occl","line":6,"px_len":58},"geometry":{"type":"LineString","coordinates":[[77.906,56.746],[78.209,56.821],[78.488,56.897],[78.772,56.987],[79.061,57.07],[79.352,57.152],[79.641,57.24],[79.934,57.32],[80.226,57.406],[80.52,57.491],[80.815,57.576],[81.112,57.66],[81.402,57.761],[81.609,57.905],[81.737,58.084],[81.798,58.274],[81.859,58.464],[81.909,58.652],[81.962,58.835],[82.047,59.035]]}}]}