{"type":"FeatureCollection","properties":{"chart":"fc","src":"Z__C_EDZW_20261007061007_nwv01,ico_tkb_na_N_000084_000000_202610070000_WV12.png","valid_time":"2026-10-10T12:00:00+00:00"},"features":[{"type":"Feature","properties":{"kind":"cold","line":0,"px_len":123},"geometry":{"type":"LineString","coordinates":[[12.614,33.975],[12.805,34.006],[12.984,34.044],[13.171,34.092],[13.357,34.128],[13.545,34.17],[13.731,34.205],[13.917,34.234],[14.103,34.258],[14.286,34.27],[14.471,34.287],[14.653,34.287],[14.836,34.292],[15.01,34.32],[15.174,34.399],[15.325,34.519],[15.48,34.65],[15.642,34.779],[15.823,34.894],[16.017,35.002],[16.225,35.107],[16.424,35.225],[16.617,35.349],[16.799,35.474],[16.988,35.598],[17.171,35.723],[17.359,35.835],[17.554,35.94],[17.759,36.027],[17.97,36.106],[18.142,36.197],[18.259,36.314],[18.332,36.457],[18.392,36.601],[18.467,36.744],[18.535,36.888],[18.61,37.03],[18.686,37.173],[18.769,37.315],[18.839,37.459],[18.911,37.586],[18.987,37.694]]}},{"type":"Feature","properties":{"kind":"occl","line":0,"px_len":72},"geometry":{"type":"LineString","coordinates":[[18.987,37.694],[19.038,37.848],[19.101,37.988],[19.18,38.132],[19.274,38.273],[19.361,38.415],[19.413,38.564],[19.43,38.72],[19.41,38.882],[19.399,39.044],[19.394,39.204],[19.411,39.36],[19.428,39.517],[19.445,39.674],[19.44,39.835],[19.413,40.0],[19.334,40.175],[19.216,40.351],[19.062,40.514],[18.891,40.651],[18.716,40.776],[18.539,40.901],[18.377,41.053],[18.252,41.199],[18.164,41.338]]}},{"type":"Feature","properties":{"kind":"cold","line":1,"px_len":199},"geometry":{"type":"LineString","coordinates":[[-43.057,44.682],[-43.262,44.586],[-43.436,44.487],[-43.601,44.375],[-43.76,44.259],[-43.904,44.136],[-44.048,44.012],[-44.172,43.876],[-44.288,43.737],[-44.379,43.583],[-44.469,43.428],[-44.539,43.263],[-44.64,43.116],[-44.772,42.988],[-44.928,42.875],[-45.077,42.758],[-45.212,42.633],[-45.347,42.509],[-45.481,42.384],[-45.615,42.259],[-45.747,42.134],[-45.86,41.998],[-45.972,41.862],[-46.078,41.722],[-46.189,41.586],[-46.299,41.45],[-46.414,41.317],[-46.529,41.185],[-46.637,41.049],[-46.745,40.912],[-46.864,40.783],[-46.988,40.658],[-47.112,40.532],[-47.223,40.399],[-47.327,40.263],[-47.418,40.12],[-47.502,39.973],[-47.58,39.823],[-47.681,39.687],[-47.819,39.571],[-47.979,39.469],[-48.145,39.37],[-48.304,39.267],[-48.457,39.16],[-48.59,39.044],[-48.711,38.92],[-48.825,38.793],[-48.939,38.667],[-49.07,38.55],[-49.2,38.432],[-49.329,38.315],[-49.44,38.188],[-49.568,38.071],[-49.696,37.953],[-49.823,37.835],[-49.943,37.714],[-50.068,37.597],[-50.193,37.479],[-50.305,37.354],[-50.411,37.227],[-50.511,37.096],[-50.597,36.96],[-50.678,36.82],[-50.701,36.677],[-50.665,36.537],[-50.565,36.404],[-50.44,36.271]]}},{"type":"Feature","properties":{"kind":"cold","line":2,"px_len":121},"geometry":{"type":"LineString","coordinates":[[-37.593,45.899],[-37.399,46.003],[-37.204,46.089],[-36.996,46.175],[-36.794,46.265],[-36.59,46.354],[-36.379,46.438],[-36.174,46.527],[-35.961,46.61],[-35.736,46.684],[-35.492,46.744],[-35.266,46.816],[-35.079,46.92],[-34.933,47.056],[-34.797,47.202],[-34.649,47.337],[-34.5,47.473],[-34.337,47.599],[-34.18,47.73],[-34.01,47.851],[-33.856,47.986],[-33.702,48.121],[-33.558,48.265],[-33.424,48.418],[-33.302,48.581],[-33.19,48.754],[-33.072,48.921],[-32.958,49.094],[-32.837,49.262],[-32.709,49.425],[-32.574,49.583],[-32.498,49.75],[-32.503,49.923],[-32.591,50.092],[-32.703,50.251],[-32.823,50.405],[-32.921,50.571],[-32.998,50.75],[-33.029,50.952],[-33.046,51.153],[-33.045,51.38]]}},{"type":"Feature","properties":{"kind":"warm","line":2,"px_len":257},"geometry":{"type":"LineString","coordinates":[[-33.045,51.38],[-33.032,51.589],[-32.941,51.749],[-32.767,51.885],[-32.552,51.992],[-32.342,52.103],[-32.144,52.223],[-31.951,52.349],[-31.756,52.474],[-31.516,52.563],[-31.23,52.617],[-30.888,52.616],[-30.538,52.586],[-30.188,52.532],[-29.838,52.476],[-29.472,52.427],[-29.097,52.389],[-28.726,52.363],[-28.355,52.335],[-27.979,52.301],[-27.602,52.252],[-27.242,52.194],[-26.883,52.134],[-26.523,52.082],[-26.163,52.052],[-25.82,52.036],[-25.482,52.024],[-25.138,51.991],[-24.813,51.928],[-24.532,51.834],[-24.331,51.71],[-24.175,51.57],[-24.046,51.421],[-23.91,51.274],[-23.774,51.128],[-23.64,50.981],[-23.481,50.844],[-23.324,50.707],[-23.159,50.572],[-23.004,50.434],[-22.832,50.302],[-22.663,50.17],[-22.485,50.041],[-22.318,49.908],[-22.135,49.781],[-21.953,49.654],[-21.755,49.533],[-21.542,49.416],[-21.313,49.306],[-21.052,49.206],[-20.767,49.113],[-20.467,49.026],[-20.168,48.937],[-19.904,48.837],[-19.693,48.719],[-19.516,48.591],[-19.357,48.457],[-19.19,48.325],[-19.034,48.191],[-18.861,48.062],[-18.673,47.937],[-18.445,47.825],[-18.202,47.718],[-17.927,47.62],[-17.653,47.521],[-17.356,47.429],[-17.052,47.338],[-16.736,47.257],[-16.436,47.197],[-16.156,47.17],[-15.888,47.158],[-15.626,47.158],[-15.358,47.145],[-15.086,47.126],[-14.802,47.083],[-14.531,47.009],[-14.269,46.914],[-14.026,46.8],[-13.777,46.687],[-13.529,46.574],[-13.264,46.478],[-12.989,46.396],[-12.709,46.341],[-12.439,46.302],[-12.176,46.273],[-11.97,46.25],[-11.821,46.226]]}},{"type":"Feature","properties":{"kind":"cold","line":2,"px_len":446},"geometry":{"type":"LineString","coordinates":[[-11.821,46.226],[-11.56,46.22],[-11.316,46.21],[-11.064,46.201],[-10.815,46.198],[-10.566,46.193],[-10.316,46.187],[-10.065,46.175],[-9.809,46.151],[-9.55,46.12],[-9.288,46.077],[-9.023,46.026],[-8.769,45.999],[-8.532,46.017],[-8.309,46.07],[-8.084,46.123],[-7.855,46.163],[-7.626,46.202],[-7.396,46.241],[-7.165,46.279],[-6.929,46.299],[-6.691,46.318],[-6.452,46.331],[-6.215,46.349],[-5.977,46.366],[-5.739,46.382],[-5.501,46.398],[-5.263,46.413],[-5.024,46.427],[-4.786,46.441],[-4.547,46.454],[-4.306,46.461],[-4.067,46.472],[-3.828,46.483],[-3.59,46.499],[-3.351,46.509],[-3.107,46.5],[-2.86,46.478],[-2.614,46.456],[-2.376,46.468],[-2.145,46.517],[-1.919,46.588],[-1.692,46.659],[-1.461,46.712],[-1.228,46.757],[-0.993,46.796],[-0.758,46.835],[-0.523,46.879],[-0.287,46.916],[-0.05,46.952],[0.186,46.994],[0.423,47.029],[0.659,47.076],[0.898,47.109],[1.135,47.155],[1.374,47.193],[1.612,47.237],[1.851,47.274],[2.092,47.305],[2.333,47.335],[2.576,47.345],[2.818,47.374],[3.062,47.371],[3.305,47.38],[3.55,47.369],[3.792,47.407],[4.032,47.481],[4.271,47.585],[4.512,47.688],[4.755,47.778],[4.998,47.862],[5.244,47.932],[5.49,47.996],[5.737,48.053],[5.985,48.11],[6.233,48.165],[6.482,48.22],[6.732,48.28],[6.983,48.346],[7.235,48.411],[7.488,48.469],[7.741,48.515],[7.994,48.565],[8.248,48.609],[8.502,48.639],[8.755,48.657],[9.008,48.668],[9.263,48.696],[9.513,48.767],[9.749,48.888],[9.991,49.045],[10.244,49.195],[10.515,49.325],[10.786,49.435],[11.057,49.533],[11.33,49.636],[11.605,49.738],[11.881,49.839],[12.159,49.939],[12.44,50.051],[12.724,50.163],[13.008,50.273],[13.293,50.37],[13.574,50.448],[13.854,50.507],[14.129,50.546],[14.405,50.578],[14.676,50.634],[14.929,50.73],[15.134,50.874],[15.324,51.027],[15.524,51.178],[15.786,51.322],[16.08,51.462],[16.39,51.581],[16.703,51.699],[17.018,51.816],[17.34,51.951],[17.666,52.084],[17.993,52.216],[18.319,52.335],[18.636,52.423],[18.945,52.484],[19.248,52.526],[19.555,52.573],[19.829,52.644],[20.046,52.755],[20.203,52.901],[20.343,53.056],[20.495,53.209],[20.669,53.36],[20.865,53.507],[21.074,53.651],[21.305,53.793],[21.527,53.935],[21.762,54.076],[21.978,54.219],[22.185,54.364],[22.393,54.508],[22.615,54.651],[22.87,54.787],[23.138,54.921],[23.418,55.053],[23.712,55.182],[24.029,55.306],[24.374,55.411],[24.74,55.504],[25.118,55.595],[25.418,55.672],[25.637,55.731]]}},{"type":"Feature","properties":{"kind":"stat","line":2,"px_len":35},"geometry":{"type":"LineString","coordinates":[[25.637,55.731],[25.754,55.899],[25.713,56.085],[25.588,56.294],[25.45,56.506],[25.344,56.711],[25.236,56.916],[25.149,57.118],[25.05,57.321],[24.926,57.529],[24.755,57.745],[24.605,57.916],[24.488,58.039]]}},{"type":"Feature","properties":{"kind":"occl","line":2,"px_len":163},"geometry":{"type":"LineString","coordinates":[[24.488,58.039],[24.256,58.251],[24.029,58.433],[23.783,58.611],[23.539,58.795],[23.287,58.972],[23.036,59.155],[22.783,59.338],[22.533,59.532],[22.258,59.689],[21.962,59.813],[21.643,59.899],[21.319,59.977],[20.996,60.061],[20.671,60.144],[20.361,60.258],[20.055,60.385],[19.755,60.529],[19.44,60.647],[19.11,60.739],[18.763,60.797],[18.409,60.842],[18.057,60.892],[17.706,60.948],[17.364,61.028],[17.02,61.107],[16.682,61.205],[16.344,61.309],[16.017,61.451],[15.694,61.611],[15.376,61.797],[15.056,61.989],[14.736,62.193],[14.467,62.393],[14.266,62.587],[14.148,62.776],[14.058,62.963],[13.933,63.139],[13.706,63.281],[13.381,63.401],[13.011,63.535],[12.648,63.709],[12.286,63.908],[11.949,64.104],[11.622,64.3],[11.287,64.481],[10.911,64.637],[10.507,64.751],[10.094,64.831],[9.676,64.89],[9.255,64.947],[8.834,65.016],[8.411,65.091],[8.035,65.184],[7.707,65.309]]}},{"type":"Feature","properties":{"kind":"warm","line":3,"px_len":87},"geometry":{"type":"LineString","coordinates":[[25.079,50.77],[25.169,50.936],[25.254,51.09],[25.37,51.243],[25.517,51.391],[25.692,51.532],[25.87,51.673],[26.049,51.813],[26.248,51.95],[26.43,52.09],[26.564,52.241],[26.623,52.409],[26.643,52.587],[26.653,52.766],[26.674,52.944],[26.704,53.12],[26.735,53.296],[26.776,53.47],[26.818,53.644],[26.86,53.818],[26.872,53.999],[26.863,54.185],[26.845,54.374],[26.826,54.562],[26.807,54.751],[26.756,54.946],[26.652,55.153],[26.49,55.366],[26.306,55.527],[26.12,55.634]]}},{"type":"Feature","properties":{"kind":"cold","line":4,"px_len":319},"geometry":{"type":"LineString","coordinates":[[-56.841,39.158],[-56.616,39.146],[-56.401,39.144],[-56.182,39.146],[-55.998,39.195],[-55.859,39.287],[-55.752,39.419],[-55.637,39.548],[-55.508,39.672],[-55.379,39.795],[-55.249,39.919],[-55.118,40.042],[-54.967,40.157],[-54.795,40.263],[-54.608,40.363],[-54.414,40.46],[-54.226,40.56],[-54.037,40.659],[-53.854,40.76],[-53.67,40.861],[-53.492,40.965],[-53.307,41.066],[-53.107,41.16],[-52.893,41.247],[-52.684,41.337],[-52.462,41.421],[-52.252,41.51],[-52.067,41.611],[-51.936,41.736],[-51.823,41.871],[-51.71,42.005],[-51.596,42.14],[-51.482,42.274],[-51.366,42.409],[-51.25,42.543],[-51.133,42.677],[-51.009,42.809],[-50.87,42.933],[-50.731,43.058],[-50.597,43.185],[-50.477,43.319],[-50.355,43.453],[-50.233,43.587],[-50.131,43.731],[-50.027,43.875],[-49.923,44.019],[-49.798,44.152],[-49.672,44.286],[-49.545,44.42],[-49.417,44.553],[-49.288,44.687],[-49.138,44.81],[-48.994,44.937],[-48.89,45.084],[-48.849,45.262],[-48.829,45.45],[-48.801,45.636],[-48.759,45.815],[-48.71,45.99],[-48.646,46.159],[-48.574,46.324],[-48.501,46.49],[-48.428,46.655],[-48.354,46.821],[-48.28,46.987],[-48.212,47.156],[-48.144,47.326],[-48.082,47.499],[-48.005,47.666],[-47.928,47.832],[-47.842,47.995],[-47.741,48.151],[-47.616,48.296],[-47.49,48.441],[-47.364,48.586],[-47.265,48.737],[-47.206,48.893],[-47.217,49.059],[-47.252,49.246],[-47.269,49.439],[-47.261,49.644],[-47.238,49.842],[-47.207,50.036],[-47.16,50.223],[-47.104,50.406],[-47.04,50.586],[-46.975,50.766],[-46.926,50.954],[-46.884,51.145],[-46.849,51.341],[-46.807,51.533],[-46.747,51.718],[-46.679,51.899],[-46.593,52.072],[-46.507,52.246],[-46.387,52.404],[-46.266,52.563],[-46.175,52.728],[-46.191,52.902],[-46.275,53.086],[-46.38,53.285],[-46.464,53.492],[-46.513,53.705],[-46.545,53.912],[-46.557,54.134],[-46.559,54.343],[-46.557,54.567]]}},{"type":"Feature","properties":{"kind":"occl","line":4,"px_len":145},"geometry":{"type":"LineString","coordinates":[[-46.557,54.567],[-46.519,54.775],[-46.459,54.958],[-46.382,55.142],[-46.313,55.33],[-46.292,55.515],[-46.343,55.699],[-46.452,55.884],[-46.574,56.082],[-46.683,56.29],[-46.78,56.508],[-46.835,56.725],[-46.877,56.953],[-46.934,57.171],[-47.05,57.38],[-47.225,57.547],[-47.438,57.688],[-47.674,57.812],[-47.906,57.942],[-48.139,58.071],[-48.367,58.205],[-48.597,58.339],[-48.815,58.483],[-49.035,58.627],[-49.25,58.775],[-49.467,58.924],[-49.686,59.072],[-49.893,59.23],[-50.103,59.388],[-50.315,59.547],[-50.564,59.677],[-50.845,59.785],[-51.162,59.864],[-51.489,59.937],[-51.81,60.015],[-52.126,60.097],[-52.451,60.173],[-52.778,60.248],[-53.099,60.328],[-53.415,60.413],[-53.761,60.474],[-54.14,60.505],[-54.567,60.495],[-55.019,60.461],[-55.469,60.424],[-55.906,60.398],[-56.318,60.393],[-56.706,60.395],[-57.117,60.402]]}},{"type":"Feature","properties":{"kind":"cold","line":5,"px_len":189},"geometry":{"type":"LineString","coordinates":[[39.829,49.08],[40.102,49.169],[40.365,49.247],[40.643,49.326],[40.93,49.401],[41.225,49.471],[41.556,49.517],[41.883,49.548],[42.21,49.555],[42.518,49.555],[42.776,49.594],[42.998,49.672],[43.192,49.788],[43.395,49.899],[43.607,50.006],[43.828,50.109],[44.066,50.204],[44.32,50.291],[44.583,50.373],[44.855,50.45],[45.12,50.53],[45.386,50.61],[45.654,50.689],[45.923,50.768],[46.2,50.841],[46.479,50.914],[46.774,50.977],[47.077,51.036],[47.412,51.077],[47.747,51.117],[48.038,51.181],[48.264,51.282],[48.453,51.403],[48.659,51.516],[48.866,51.628],[49.089,51.731],[49.298,51.842],[49.524,51.945],[49.751,52.047],[49.994,52.139],[50.246,52.227],[50.492,52.318],[50.746,52.405],[50.995,52.495],[51.244,52.584],[51.495,52.673],[51.754,52.757],[52.022,52.836],[52.299,52.909],[52.591,52.972],[52.892,53.03],[53.193,53.087],[53.445,53.176],[53.663,53.287],[53.853,53.417],[54.045,53.547],[54.246,53.671],[54.462,53.786],[54.694,53.89],[54.928,53.994],[55.149,54.108],[55.371,54.221],[55.569,54.32],[55.744,54.408]]}},{"type":"Feature","properties":{"kind":"occl","line":5,"px_len":240},"geometry":{"type":"LineString","coordinates":[[55.744,54.408],[56.007,54.504],[56.269,54.582],[56.541,54.663],[56.821,54.738],[57.102,54.813],[57.391,54.881],[57.654,54.969],[57.884,55.082],[58.101,55.204],[58.327,55.321],[58.568,55.427],[58.811,55.533],[59.055,55.638],[59.301,55.743],[59.549,55.847],[59.798,55.95],[60.028,56.069],[60.233,56.208],[60.413,56.367],[60.594,56.527],[60.791,56.675],[60.989,56.824],[61.203,56.961],[61.419,57.099],[61.658,57.219],[61.898,57.34],[62.14,57.46],[62.39,57.574],[62.629,57.698],[62.884,57.811],[63.14,57.924],[63.418,58.019],[63.711,58.103],[64.013,58.181],[64.29,58.28],[64.522,58.417],[64.718,58.587],[64.923,58.751],[65.136,58.91],[65.371,59.051],[65.622,59.181],[65.874,59.31],[66.116,59.45],[66.322,59.623],[66.498,59.825],[66.62,60.049],[66.686,60.272],[66.694,60.479],[66.691,60.682],[66.723,60.896],[66.815,61.126],[66.945,61.366],[67.089,61.609],[67.236,61.852],[67.386,62.095],[67.559,62.321],[67.735,62.547],[67.921,62.752],[67.987,62.95],[67.937,63.119],[67.786,63.287],[67.634,63.455],[67.492,63.626],[67.349,63.797],[67.191,63.964],[67.043,64.135],[66.881,64.303],[66.743,64.477],[66.549,64.637],[66.27,64.778],[65.879,64.891],[65.432,64.974],[64.952,65.025],[64.455,65.046],[63.947,65.046],[63.439,65.045],[62.922,65.048],[62.415,65.043],[61.991,65.019],[61.662,64.973]]}}]}