{"type":"FeatureCollection","properties":{"chart":"fc","src":"Z__C_EDZW_20261009052441_nwv01,ico_tkb_na_N_000108_000000_202610090000_WV12.png","valid_time":"2026-10-13T12:00:00+00:00"},"features":[{"type":"Feature","properties":{"kind":"warm","line":0,"px_len":80},"geometry":{"type":"LineString","coordinates":[[21.069,35.978],[21.301,36.073],[21.516,36.159],[21.742,36.248],[21.973,36.353],[22.199,36.459],[22.406,36.569],[22.594,36.683],[22.748,36.805],[22.891,36.93],[23.054,37.05],[23.259,37.159],[23.494,37.249],[23.718,37.306],[23.929,37.33],[24.133,37.337],[24.34,37.349],[24.554,37.376],[24.773,37.414],[25.003,37.477],[25.242,37.557],[25.488,37.651],[25.714,37.75],[25.942,37.849],[26.151,37.953],[26.374,38.052],[26.528,38.135],[26.634,38.195]]}},{"type":"Feature","properties":{"kind":"cold","line":0,"px_len":74},"geometry":{"type":"LineString","coordinates":[[26.634,38.195],[26.862,38.299],[27.058,38.399],[27.251,38.506],[27.445,38.613],[27.626,38.724],[27.808,38.834],[27.985,38.946],[28.169,39.056],[28.347,39.167],[28.532,39.276],[28.726,39.382],[28.927,39.486],[29.135,39.569],[29.35,39.649],[29.579,39.724],[29.771,39.83],[29.914,39.952],[30.01,40.09],[30.114,40.226],[30.225,40.36],[30.344,40.491],[30.457,40.625],[30.577,40.756],[30.665,40.86],[30.727,40.935]]}},{"type":"Feature","properties":{"kind":"warm","line":1,"px_len":95},"geometry":{"type":"LineString","coordinates":[[31.829,41.71],[31.953,41.848],[32.085,41.97],[32.235,42.092],[32.387,42.214],[32.539,42.336],[32.678,42.463],[32.803,42.595],[32.922,42.73],[33.042,42.864],[33.162,42.999],[33.269,43.139],[33.369,43.281],[33.463,43.427],[33.542,43.578],[33.645,43.72],[33.792,43.847],[33.998,43.95],[34.22,44.048],[34.436,44.148],[34.639,44.253],[34.827,44.364],[35.009,44.477],[35.163,44.601],[35.318,44.725],[35.452,44.858],[35.586,44.991],[35.707,45.129],[35.843,45.262],[35.98,45.394],[36.11,45.529],[36.201,45.639],[36.266,45.718]]}},{"type":"Feature","properties":{"kind":"cold","line":1,"px_len":82},"geometry":{"type":"LineString","coordinates":[[36.266,45.718],[36.388,45.864],[36.502,46.0],[36.613,46.144],[36.711,46.295],[36.809,46.445],[36.915,46.593],[37.038,46.734],[37.161,46.875],[37.278,47.019],[37.38,47.17],[37.483,47.32],[37.609,47.461],[37.761,47.593],[37.913,47.724],[38.066,47.855],[38.22,47.986],[38.336,48.133],[38.414,48.296],[38.446,48.479],[38.493,48.656],[38.549,48.83],[38.63,48.994],[38.711,49.158],[38.8,49.319],[38.891,49.48],[38.993,49.629],[39.107,49.789]]}},{"type":"Feature","properties":{"kind":"warm","line":2,"px_len":380},"geometry":{"type":"LineString","coordinates":[[-40.724,31.346],[-40.585,31.441],[-40.446,31.52],[-40.297,31.6],[-40.147,31.679],[-39.998,31.758],[-39.847,31.836],[-39.692,31.911],[-39.54,31.989],[-39.389,32.067],[-39.241,32.148],[-39.088,32.225],[-38.935,32.302],[-38.781,32.379],[-38.627,32.455],[-38.472,32.531],[-38.326,32.614],[-38.193,32.709],[-38.068,32.812],[-37.943,32.914],[-37.817,33.016],[-37.691,33.118],[-37.577,33.232],[-37.455,33.338],[-37.313,33.427],[-37.131,33.481],[-36.934,33.522],[-36.733,33.559],[-36.536,33.6],[-36.339,33.639],[-36.15,33.686],[-35.979,33.749],[-35.815,33.82],[-35.656,33.895],[-35.497,33.969],[-35.337,34.043],[-35.176,34.116],[-35.01,34.185],[-34.849,34.258],[-34.687,34.331],[-34.524,34.403],[-34.361,34.475],[-34.193,34.542],[-34.024,34.609],[-33.86,34.68],[-33.695,34.751],[-33.529,34.821],[-33.359,34.886],[-33.192,34.956],[-33.025,35.025],[-32.858,35.093],[-32.69,35.162],[-32.521,35.23],[-32.356,35.302],[-32.187,35.369],[-32.021,35.44],[-31.85,35.507],[-31.684,35.577],[-31.516,35.648],[-31.357,35.726],[-31.205,35.814],[-31.057,35.905],[-30.909,35.996],[-30.76,36.087],[-30.622,36.191],[-30.497,36.309],[-30.371,36.426],[-30.24,36.539],[-30.084,36.625],[-29.914,36.696],[-29.716,36.736],[-29.517,36.774],[-29.321,36.817],[-29.142,36.878],[-28.974,36.952],[-28.814,37.035],[-28.657,37.122],[-28.5,37.209],[-28.342,37.296],[-28.184,37.382],[-28.037,37.483],[-27.889,37.583],[-27.741,37.682],[-27.592,37.782],[-27.442,37.881],[-27.3,37.99],[-27.149,38.089],[-27.005,38.197],[-26.857,38.3],[-26.716,38.413],[-26.566,38.516],[-26.424,38.628],[-26.276,38.735],[-26.132,38.847],[-25.988,38.959],[-25.838,39.066],[-25.692,39.177],[-25.546,39.288],[-25.402,39.404],[-25.261,39.525],[-25.12,39.645],[-24.99,39.781],[-24.87,39.931],[-24.758,40.09],[-24.656,40.265],[-24.549,40.435],[-24.438,40.6],[-24.291,40.72],[-24.12,40.81],[-23.932,40.879],[-23.748,40.953],[-23.567,41.031],[-23.386,41.109],[-23.203,41.187],[-23.032,41.279],[-22.867,41.382],[-22.709,41.494],[-22.55,41.606],[-22.391,41.718],[-22.234,41.835],[-22.077,41.952],[-21.918,42.069],[-21.755,42.18],[-21.591,42.29],[-21.427,42.401],[-21.265,42.517],[-21.134,42.6],[-21.038,42.656]]}},{"type":"Feature","properties":{"kind":"cold","line":2,"px_len":397},"geometry":{"type":"LineString","coordinates":[[-21.038,42.656],[-20.867,42.774],[-20.709,42.886],[-20.54,42.995],[-20.369,43.104],[-20.198,43.212],[-20.03,43.326],[-19.86,43.439],[-19.687,43.547],[-19.512,43.655],[-19.336,43.762],[-19.163,43.874],[-18.979,43.97],[-18.797,44.071],[-18.603,44.155],[-18.409,44.239],[-18.214,44.322],[-18.019,44.405],[-17.822,44.487],[-17.618,44.558],[-17.434,44.662],[-17.269,44.798],[-17.116,44.956],[-16.958,45.109],[-16.796,45.256],[-16.63,45.397],[-16.456,45.527],[-16.273,45.645],[-16.087,45.757],[-15.9,45.869],[-15.711,45.981],[-15.522,46.093],[-15.331,46.204],[-15.139,46.314],[-14.946,46.425],[-14.753,46.535],[-14.561,46.65],[-14.368,46.765],[-14.177,46.885],[-13.982,46.999],[-13.785,47.113],[-13.588,47.227],[-13.389,47.34],[-13.192,47.458],[-12.994,47.577],[-12.798,47.7],[-12.598,47.818],[-12.399,47.94],[-12.199,48.063],[-11.998,48.185],[-11.795,48.307],[-11.591,48.428],[-11.391,48.561],[-11.185,48.681],[-10.974,48.796],[-10.757,48.898],[-10.536,48.993],[-10.313,49.089],[-10.082,49.165],[-9.846,49.236],[-9.61,49.305],[-9.422,49.417],[-9.252,49.577],[-9.094,49.766],[-8.903,49.954],[-8.703,50.123],[-8.494,50.275],[-8.278,50.414],[-8.055,50.54],[-7.831,50.666],[-7.608,50.798],[-7.384,50.929],[-7.157,51.06],[-6.925,51.178],[-6.695,51.307],[-6.464,51.437],[-6.231,51.565],[-5.996,51.694],[-5.76,51.821],[-5.526,51.961],[-5.286,52.088],[-5.046,52.22],[-4.805,52.352],[-4.563,52.49],[-4.32,52.627],[-4.075,52.764],[-3.828,52.9],[-3.579,53.035],[-3.328,53.17],[-3.079,53.317],[-2.827,53.463],[-2.568,53.59],[-2.303,53.698],[-2.031,53.786],[-1.758,53.873],[-1.479,53.941],[-1.225,54.025],[-1.031,54.142],[-0.891,54.307],[-0.785,54.488],[-0.646,54.672],[-0.461,54.858],[-0.218,55.049],[0.05,55.24],[0.321,55.43],[0.595,55.62],[0.873,55.81],[1.119,55.997],[1.357,56.183],[1.575,56.368],[1.794,56.552],[2.005,56.736],[2.195,56.919],[2.386,57.101],[2.568,57.283],[2.765,57.465],[2.963,57.647],[3.164,57.829],[3.343,58.01],[3.548,58.191],[3.757,58.372],[4.03,58.554],[4.32,58.716],[4.652,58.865],[4.989,58.974],[5.329,59.069],[5.671,59.149],[6.016,59.236],[6.362,59.327],[6.672,59.438],[6.895,59.581],[7.016,59.744],[7.073,59.928]]}},{"type":"Feature","properties":{"kind":"stat","line":2,"px_len":53},"geometry":{"type":"LineString","coordinates":[[7.073,59.928],[7.132,60.112],[7.177,60.282],[7.224,60.46],[7.284,60.637],[7.331,60.815],[7.352,60.993],[7.387,61.171],[7.422,61.349],[7.472,61.527],[7.494,61.706],[7.517,61.885],[7.526,62.064],[7.535,62.243],[7.544,62.422],[7.553,62.602],[7.562,62.781],[7.569,62.921],[7.575,63.021]]}},{"type":"Feature","properties":{"kind":"occl","line":2,"px_len":112},"geometry":{"type":"LineString","coordinates":[[7.575,63.021],[7.658,63.206],[7.713,63.379],[7.784,63.559],[7.84,63.738],[7.913,63.918],[7.971,64.098],[8.03,64.278],[8.075,64.458],[8.088,64.639],[8.103,64.82],[8.117,65.001],[8.179,65.182],[8.243,65.363],[8.34,65.543],[8.405,65.724],[8.422,65.906],[8.323,66.089],[8.105,66.274],[7.884,66.46],[7.659,66.645],[7.482,66.829],[7.302,67.013],[7.101,67.197],[6.809,67.381],[6.406,67.552],[5.943,67.674],[5.459,67.733],[4.976,67.723],[4.495,67.698],[4.015,67.665],[3.537,67.637],[3.057,67.621],[2.58,67.597],[2.1,67.584],[1.622,67.57],[1.157,67.576],[0.655,67.585]]}},{"type":"Feature","properties":{"kind":"warm","line":3,"px_len":145},"geometry":{"type":"LineString","coordinates":[[4.349,51.126],[4.41,51.303],[4.503,51.468],[4.636,51.64],[4.802,51.812],[4.999,51.985],[5.23,52.151],[5.494,52.305],[5.729,52.458],[5.925,52.617],[6.081,52.788],[6.185,52.959],[6.238,53.13],[6.238,53.301],[6.26,53.473],[6.292,53.644],[6.347,53.816],[6.402,53.988],[6.479,54.16],[6.579,54.332],[6.691,54.504],[6.804,54.676],[6.918,54.848],[7.034,55.02],[7.151,55.192],[7.258,55.364],[7.354,55.537],[7.44,55.709],[7.516,55.882],[7.604,56.055],[7.693,56.228],[7.771,56.401],[7.838,56.575],[7.894,56.748],[7.951,56.922],[8.009,57.096],[8.067,57.27],[8.138,57.444],[8.222,57.618],[8.331,57.792],[8.454,57.965],[8.553,58.139],[8.641,58.313],[8.618,58.49],[8.469,58.67],[8.18,58.852],[7.848,59.034],[7.525,59.195],[7.171,59.336]]}},{"type":"Feature","properties":{"kind":"warm","line":4,"px_len":281},"geometry":{"type":"LineString","coordinates":[[39.9,50.866],[39.988,51.04],[40.067,51.203],[40.143,51.375],[40.211,51.55],[40.263,51.733],[40.342,51.906],[40.421,52.078],[40.569,52.222],[40.752,52.352],[40.987,52.46],[41.224,52.567],[41.463,52.674],[41.686,52.788],[41.91,52.901],[42.127,53.017],[42.338,53.137],[42.524,53.268],[42.72,53.394],[42.917,53.521],[43.116,53.647],[43.317,53.772],[43.519,53.898],[43.748,54.011],[43.953,54.136],[44.185,54.248],[44.393,54.372],[44.629,54.484],[44.857,54.599],[45.105,54.705],[45.345,54.815],[45.595,54.921],[45.856,55.022],[46.101,55.13],[46.331,55.246],[46.553,55.366],[46.786,55.481],[47.012,55.6],[47.239,55.719],[47.451,55.845],[47.674,55.967],[47.923,56.076],[48.244,56.15],[48.634,56.188],[49.043,56.197],[49.462,56.191],[49.855,56.197],[50.257,56.215],[50.642,56.25],[51.027,56.283],[51.398,56.324],[51.777,56.36],[52.157,56.393],[52.562,56.412],[52.967,56.428],[53.389,56.434],[53.811,56.438],[54.249,56.43],[54.685,56.412],[55.103,56.383],[55.512,56.349],[55.911,56.309],[56.3,56.262],[56.679,56.211],[57.065,56.162],[57.46,56.116],[57.84,56.087],[58.23,56.061],[58.615,56.057],[59.031,56.04],[59.419,56.009],[59.789,55.946],[60.083,55.852],[60.321,55.734],[60.51,55.597],[60.707,55.463],[60.911,55.333],[61.114,55.202],[61.325,55.075],[61.543,54.951],[61.787,54.838],[62.029,54.724],[62.278,54.613],[62.517,54.498],[62.745,54.379],[62.972,54.26],[63.197,54.14],[63.42,54.02],[63.632,53.895],[63.852,53.774],[64.062,53.649],[64.27,53.524],[64.458,53.392],[64.62,53.295],[64.749,53.23]]}},{"type":"Feature","properties":{"kind":"warm","line":5,"px_len":129},"geometry":{"type":"LineString","coordinates":[[-24.645,53.382],[-24.652,53.587],[-24.666,53.775],[-24.649,53.981],[-24.641,54.185],[-24.595,54.401],[-24.548,54.618],[-24.491,54.839],[-24.463,55.05],[-24.463,55.251],[-24.541,55.426],[-24.698,55.575],[-24.925,55.701],[-25.153,55.826],[-25.364,55.957],[-25.567,56.092],[-25.761,56.23],[-25.958,56.367],[-26.156,56.504],[-26.365,56.638],[-26.586,56.767],[-26.81,56.896],[-27.054,57.018],[-27.311,57.135],[-27.56,57.256],[-27.811,57.376],[-28.043,57.503],[-28.288,57.626],[-28.534,57.748],[-28.773,57.874],[-29.023,57.995],[-29.306,58.104],[-29.681,58.179],[-30.103,58.218],[-30.526,58.224],[-30.919,58.206],[-31.282,58.167],[-31.644,58.127],[-31.997,58.08],[-32.35,58.032],[-32.685,57.973],[-33.012,57.908],[-33.293,57.844],[-33.53,57.782]]}},{"type":"Feature","properties":{"kind":"cold","line":5,"px_len":158},"geometry":{"type":"LineString","coordinates":[[-33.53,57.782],[-33.721,57.62],[-33.846,57.437],[-33.89,57.214],[-33.924,56.995],[-33.936,56.761],[-33.947,56.527],[-33.949,56.298],[-33.915,56.086],[-33.874,55.878],[-33.885,55.696],[-33.983,55.532],[-34.164,55.395],[-34.373,55.268],[-34.582,55.14],[-34.774,55.003],[-34.957,54.86],[-35.131,54.712],[-35.303,54.565],[-35.46,54.407],[-35.615,54.249],[-35.776,54.096],[-35.942,53.948],[-36.115,53.804],[-36.286,53.66],[-36.462,53.521],[-36.63,53.376],[-36.811,53.241],[-36.977,53.096],[-37.155,52.96],[-37.317,52.815],[-37.493,52.679],[-37.645,52.529],[-37.782,52.37],[-37.904,52.202],[-38.045,52.047],[-38.236,51.923],[-38.467,51.827],[-38.72,51.743],[-38.963,51.654],[-39.184,51.551],[-39.404,51.448],[-39.615,51.339],[-39.832,51.235],[-40.048,51.131],[-40.256,51.021],[-40.469,50.916],[-40.674,50.805],[-40.885,50.699],[-41.095,50.592],[-41.31,50.489],[-41.525,50.386],[-41.684,50.302],[-41.789,50.236]]}},{"type":"Feature","properties":{"kind":"warm","line":5,"px_len":103},"geometry":{"type":"LineString","coordinates":[[-41.789,50.236],[-42.036,50.144],[-42.248,50.048],[-42.471,49.951],[-42.701,49.857],[-42.937,49.767],[-43.172,49.677],[-43.405,49.586],[-43.645,49.498],[-43.913,49.426],[-44.202,49.364],[-44.505,49.31],[-44.821,49.262],[-45.159,49.225],[-45.518,49.198],[-45.847,49.155],[-46.123,49.083],[-46.346,48.985],[-46.53,48.867],[-46.72,48.753],[-46.902,48.635],[-47.112,48.531],[-47.314,48.423],[-47.537,48.326],[-47.766,48.232],[-48.009,48.144],[-48.259,48.06],[-48.5,47.971],[-48.747,47.885],[-48.986,47.795],[-49.231,47.708],[-49.46,47.613],[-49.688,47.517],[-49.879,47.413],[-50.065,47.291]]}},{"type":"Feature","properties":{"kind":"cold","line":5,"px_len":186},"geometry":{"type":"LineString","coordinates":[[-50.065,47.291],[-50.294,47.189],[-50.49,47.087],[-50.683,46.976],[-50.874,46.864],[-51.056,46.749],[-51.23,46.631],[-51.403,46.512],[-51.568,46.389],[-51.739,46.27],[-51.894,46.144],[-52.056,46.021],[-52.201,45.891],[-52.339,45.758],[-52.46,45.619],[-52.581,45.48],[-52.701,45.341],[-52.82,45.201],[-52.939,45.062],[-53.093,44.938],[-53.29,44.832],[-53.522,44.74],[-53.746,44.646],[-53.969,44.55],[-54.184,44.451],[-54.39,44.349],[-54.573,44.237],[-54.748,44.123],[-54.93,44.01],[-55.11,43.898],[-55.297,43.788],[-55.475,43.675],[-55.667,43.567],[-55.858,43.459],[-56.048,43.35],[-56.237,43.241],[-56.425,43.132],[-56.627,43.028],[-56.827,42.923],[-57.034,42.821],[-57.239,42.718],[-57.444,42.614],[-57.64,42.508],[-57.821,42.396],[-57.994,42.281],[-58.159,42.163],[-58.316,42.043],[-58.458,41.917],[-58.606,41.794],[-58.785,41.701],[-59.001,41.647],[-59.242,41.62],[-59.493,41.589],[-59.757,41.536],[-60.029,41.467],[-60.285,41.378],[-60.526,41.284],[-60.73,41.178],[-60.919,41.067],[-61.099,40.954],[-61.3,40.878],[-61.493,40.844],[-61.666,40.847]]}},{"type":"Feature","properties":{"kind":"occl","line":6,"px_len":213},"geometry":{"type":"LineString","coordinates":[[24.304,72.108],[24.501,72.291],[24.687,72.461],[24.884,72.637],[25.086,72.813],[25.314,72.987],[25.592,73.156],[25.875,73.324],[26.142,73.495],[26.368,73.67],[26.599,73.845],[26.835,74.019],[27.077,74.194],[27.396,74.361],[27.745,74.524],[28.176,74.68],[28.59,74.837],[28.989,74.997],[29.247,75.172],[29.411,75.357],[29.502,75.551],[29.648,75.739],[29.771,75.931],[29.977,76.113],[30.162,76.299],[30.353,76.484],[30.411,76.684],[30.415,76.889],[30.305,77.106],[30.037,77.315],[29.574,77.519],[28.997,77.708],[28.47,77.913],[28.025,78.13],[27.602,78.367],[27.128,78.606],[26.566,78.848],[25.966,79.083],[25.303,79.298],[24.565,79.484],[23.752,79.642],[22.881,79.777],[21.965,79.897],[21.016,80.008],[20.037,80.109],[19.047,80.214],[18.044,80.322],[17.034,80.442],[15.992,80.551],[14.919,80.651],[13.817,80.74],[12.699,80.833],[11.559,80.922],[10.403,81.021],[9.2,81.054],[7.98,81.034],[6.761,80.947],[5.566,80.856],[4.392,80.775],[3.24,80.69],[2.111,80.594],[1.025,80.461],[0.075,80.29],[-0.625,80.101],[-1.131,79.9],[-1.539,79.7],[-2.121,79.494],[-2.829,79.284],[-3.654,79.067],[-4.474,78.875],[-5.197,78.72],[-5.833,78.601]]}}]}