{"type":"FeatureCollection","properties":{"chart":"fc","src":"Z__C_EDZW_20261010050013_nwv01,ico_tkb_na_N_000060_000000_202610100000_WV12.png","valid_time":"2026-10-12T12:00:00+00:00"},"features":[{"type":"Feature","properties":{"kind":"cold","line":0,"px_len":615},"geometry":{"type":"LineString","coordinates":[[-40.523,31.318],[-40.339,31.375],[-40.158,31.421],[-39.995,31.488],[-39.869,31.585],[-39.764,31.701],[-39.654,31.812],[-39.535,31.917],[-39.415,32.021],[-39.295,32.125],[-39.165,32.221],[-39.03,32.313],[-38.894,32.405],[-38.754,32.493],[-38.617,32.585],[-38.471,32.669],[-38.333,32.76],[-38.195,32.851],[-38.057,32.942],[-37.918,33.033],[-37.778,33.123],[-37.642,33.218],[-37.502,33.308],[-37.36,33.397],[-37.223,33.491],[-37.094,33.592],[-36.951,33.682],[-36.808,33.771],[-36.664,33.86],[-36.533,33.96],[-36.401,34.061],[-36.269,34.161],[-36.137,34.261],[-35.99,34.349],[-35.843,34.437],[-35.695,34.524],[-35.56,34.623],[-35.424,34.723],[-35.288,34.822],[-35.152,34.921],[-35.001,35.007],[-34.85,35.093],[-34.685,35.166],[-34.524,35.243],[-34.358,35.315],[-34.213,35.408],[-34.095,35.527],[-33.993,35.663],[-33.896,35.802],[-33.78,35.925],[-33.65,36.035],[-33.515,36.14],[-33.384,36.25],[-33.253,36.359],[-33.12,36.468],[-32.987,36.577],[-32.854,36.686],[-32.72,36.795],[-32.585,36.903],[-32.449,37.012],[-32.313,37.12],[-32.177,37.228],[-32.044,37.341],[-31.91,37.453],[-31.771,37.561],[-31.641,37.677],[-31.501,37.785],[-31.373,37.905],[-31.236,38.017],[-31.107,38.137],[-30.969,38.249],[-30.834,38.364],[-30.699,38.48],[-30.563,38.595],[-30.43,38.715],[-30.293,38.83],[-30.159,38.95],[-30.025,39.069],[-29.889,39.189],[-29.753,39.308],[-29.608,39.418],[-29.466,39.532],[-29.315,39.637],[-29.159,39.737],[-29.002,39.836],[-28.835,39.926],[-28.668,40.015],[-28.5,40.105],[-28.371,40.236],[-28.262,40.392],[-28.169,40.567],[-28.067,40.732],[-27.961,40.893],[-27.84,41.039],[-27.71,41.176],[-27.574,41.307],[-27.438,41.439],[-27.301,41.57],[-27.163,41.702],[-27.024,41.833],[-26.885,41.964],[-26.744,42.095],[-26.603,42.225],[-26.465,42.361],[-26.327,42.497],[-26.191,42.637],[-26.051,42.772],[-25.909,42.907],[-25.767,43.042],[-25.624,43.177],[-25.484,43.317],[-25.343,43.457],[-25.201,43.597],[-25.058,43.736],[-24.91,43.871],[-24.761,44.005],[-24.611,44.139],[-24.465,44.278],[-24.317,44.417],[-24.16,44.545],[-23.993,44.663],[-23.83,44.786],[-23.657,44.898],[-23.483,45.01],[-23.292,45.101],[-23.103,45.196],[-22.91,45.286],[-22.767,45.404],[-22.649,45.553],[-22.555,45.734],[-22.433,45.919],[-22.305,46.098],[-22.164,46.261],[-22.017,46.419],[-21.857,46.561],[-21.696,46.702],[-21.525,46.833],[-21.361,46.974],[-21.192,47.109],[-21.026,47.25],[-20.855,47.385],[-20.686,47.526],[-20.516,47.666],[-20.345,47.806],[-20.173,47.945],[-20.0,48.085],[-19.829,48.23],[-19.657,48.374],[-19.488,48.524],[-19.313,48.669],[-19.141,48.818],[-18.964,48.962],[-18.789,49.111],[-18.609,49.254],[-18.432,49.403],[-18.257,49.557],[-18.081,49.711],[-17.899,49.859],[-17.704,49.99],[-17.503,50.115],[-17.298,50.233],[-17.079,50.335],[-16.856,50.43],[-16.655,50.545],[-16.515,50.704],[-16.428,50.896],[-16.357,51.098],[-16.281,51.294],[-16.168,51.486],[-16.036,51.683],[-15.866,51.875],[-15.702,52.079],[-15.536,52.283],[-15.399,52.499],[-15.269,52.714],[-15.158,52.924],[-15.055,53.131],[-14.971,53.335],[-14.896,53.536],[-14.83,53.735],[-14.783,53.93],[-14.756,54.12],[-14.729,54.311],[-14.702,54.501],[-14.674,54.692],[-14.667,54.879],[-14.659,55.066],[-14.652,55.252],[-14.634,55.442],[-14.615,55.632],[-14.586,55.824],[-14.567,56.014],[-14.591,56.195],[-14.703,56.357],[-14.849,56.513],[-14.996,56.669],[-15.111,56.832],[-15.228,56.995],[-15.346,57.157],[-15.465,57.32],[-15.585,57.483],[-15.696,57.648],[-15.785,57.818],[-15.84,57.996],[-15.86,58.16],[-15.854,58.309]]}},{"type":"Feature","properties":{"kind":"warm","line":0,"px_len":66},"geometry":{"type":"LineString","coordinates":[[-15.854,58.309],[-15.582,58.444],[-15.304,58.537],[-14.998,58.613],[-14.682,58.677],[-14.364,58.739],[-14.054,58.813],[-13.746,58.892],[-13.437,58.97],[-13.122,59.041],[-12.81,59.118],[-12.484,59.175],[-12.132,59.194],[-11.76,59.18],[-11.397,59.178],[-11.052,59.206],[-10.718,59.252],[-10.386,59.303],[-10.054,59.353],[-9.72,59.402],[-9.395,59.469],[-9.107,59.53],[-8.855,59.585]]}},{"type":"Feature","properties":{"kind":"warm","line":1,"px_len":136},"geometry":{"type":"LineString","coordinates":[[25.911,39.665],[25.925,39.833],[25.949,39.986],[25.975,40.145],[25.98,40.31],[25.971,40.479],[25.962,40.648],[25.967,40.814],[26.008,40.97],[26.087,41.116],[26.209,41.25],[26.34,41.383],[26.479,41.513],[26.604,41.647],[26.729,41.781],[26.848,41.917],[26.968,42.053],[27.067,42.195],[27.151,42.342],[27.228,42.49],[27.328,42.633],[27.429,42.775],[27.531,42.918],[27.611,43.067],[27.691,43.216],[27.772,43.365],[27.853,43.514],[27.935,43.663],[27.995,43.819],[28.04,43.98],[28.061,44.147],[28.099,44.311],[28.176,44.463],[28.3,44.602],[28.472,44.727],[28.645,44.851],[28.819,44.976],[28.986,45.103],[29.146,45.231],[29.3,45.362],[29.439,45.498],[29.562,45.638],[29.695,45.776],[29.813,45.918],[29.928,46.055],[30.026,46.21]]}},{"type":"Feature","properties":{"kind":"cold","line":1,"px_len":207},"geometry":{"type":"LineString","coordinates":[[30.026,46.21],[30.174,46.351],[30.3,46.485],[30.422,46.628],[30.544,46.77],[30.668,46.912],[30.793,47.054],[30.926,47.194],[31.077,47.328],[31.229,47.463],[31.407,47.589],[31.594,47.712],[31.783,47.835],[31.923,47.974],[32.014,48.129],[32.089,48.289],[32.157,48.452],[32.242,48.609],[32.328,48.767],[32.44,48.917],[32.552,49.066],[32.666,49.216],[32.806,49.357],[32.947,49.498],[33.089,49.64],[33.207,49.789],[33.325,49.938],[33.445,50.088],[33.565,50.237],[33.686,50.387],[33.809,50.536],[33.941,50.682],[34.092,50.823],[34.261,50.957],[34.449,51.086],[34.648,51.211],[34.812,51.348],[34.925,51.502],[34.985,51.675],[35.055,51.845],[35.135,52.012],[35.242,52.17],[35.359,52.325],[35.496,52.474],[35.606,52.632],[35.717,52.79],[35.83,52.948],[35.962,53.1],[36.076,53.258],[36.192,53.416],[36.29,53.581],[36.408,53.739],[36.517,53.9],[36.637,54.058],[36.758,54.216],[36.89,54.371],[37.041,54.519],[37.194,54.667],[37.32,54.825],[37.362,55.013],[37.317,55.231],[37.232,55.462],[37.156,55.69],[37.079,55.919],[36.991,56.151],[36.912,56.38],[36.862,56.599],[36.852,56.805],[36.905,56.968],[37.013,57.092]]}},{"type":"Feature","properties":{"kind":"warm","line":1,"px_len":158},"geometry":{"type":"LineString","coordinates":[[37.013,57.092],[37.287,57.214],[37.552,57.325],[37.834,57.437],[38.119,57.548],[38.406,57.659],[38.685,57.773],[38.986,57.878],[39.351,57.962],[39.78,58.023],[40.206,58.044],[40.591,58.032],[40.934,57.986],[41.269,57.933],[41.61,57.885],[41.95,57.835],[42.31,57.801],[42.676,57.77],[43.071,57.759],[43.473,57.752],[43.905,57.764],[44.352,57.784],[44.796,57.821],[45.212,57.868],[45.592,57.93],[45.992,57.983],[46.406,58.011],[46.826,58.001],[47.197,57.96],[47.511,57.884],[47.799,57.792],[48.077,57.695],[48.385,57.616],[48.692,57.536],[49.014,57.465],[49.343,57.398],[49.695,57.344],[50.054,57.293],[50.429,57.251],[50.819,57.216],[51.234,57.194],[51.648,57.188],[52.072,57.195],[52.504,57.204],[52.944,57.198],[53.356,57.167],[53.707,57.104],[53.985,57.006],[54.244,56.898],[54.483,56.78],[54.739,56.671],[54.984,56.557],[55.198,56.48],[55.366,56.433]]}},{"type":"Feature","properties":{"kind":"occl","line":2,"px_len":124},"geometry":{"type":"LineString","coordinates":[[23.672,57.258],[23.774,57.431],[23.904,57.586],[24.131,57.731],[24.435,57.85],[24.806,57.948],[25.192,58.044],[25.612,58.146],[25.992,58.261],[26.34,58.382],[26.643,58.511],[26.972,58.614],[27.306,58.667],[27.656,58.666],[27.999,58.637],[28.336,58.602],[28.673,58.565],[29.004,58.521],[29.339,58.483],[29.663,58.431],[29.986,58.378],[30.307,58.325],[30.628,58.27],[30.958,58.226],[31.276,58.17],[31.61,58.13],[31.931,58.078],[32.262,58.036],[32.576,57.976],[32.883,57.909],[33.178,57.83],[33.488,57.767],[33.797,57.704],[34.121,57.657],[34.427,57.591],[34.732,57.525],[35.018,57.441],[35.309,57.362],[35.61,57.293],[35.909,57.224],[36.191,57.151],[36.48,57.06]]}},{"type":"Feature","properties":{"kind":"warm","line":3,"px_len":134},"geometry":{"type":"LineString","coordinates":[[-0.118,55.578],[-0.232,55.752],[-0.323,55.915],[-0.393,56.085],[-0.463,56.256],[-0.512,56.428],[-0.56,56.601],[-0.598,56.774],[-0.624,56.949],[-0.627,57.125],[-0.606,57.302],[-0.56,57.482],[-0.539,57.66],[-0.589,57.833],[-0.714,58.002],[-0.901,58.167],[-1.115,58.33],[-1.332,58.493],[-1.55,58.656],[-1.734,58.821],[-1.907,58.986],[-2.057,59.154],[-2.208,59.321],[-2.349,59.49],[-2.491,59.658],[-2.635,59.826],[-2.767,59.995],[-2.888,60.165],[-2.984,60.338],[-3.068,60.511],[-3.127,60.687],[-3.186,60.862],[-3.246,61.038],[-3.321,61.213],[-3.437,61.385],[-3.664,61.548],[-3.99,61.702],[-4.375,61.85],[-4.751,61.999],[-5.117,62.148],[-5.458,62.298],[-5.762,62.452],[-6.027,62.609],[-6.252,62.771],[-6.418,62.897],[-6.524,62.989]]}},{"type":"Feature","properties":{"kind":"occl","line":3,"px_len":282},"geometry":{"type":"LineString","coordinates":[[-6.524,62.989],[-6.615,63.171],[-6.7,63.34],[-6.791,63.515],[-6.882,63.691],[-6.93,63.871],[-7.039,64.046],[-7.179,64.217],[-7.412,64.379],[-7.587,64.546],[-7.733,64.717],[-7.867,64.89],[-8.018,65.061],[-8.171,65.232],[-8.31,65.404],[-8.499,65.571],[-8.77,65.73],[-9.124,65.879],[-9.546,66.02],[-10.006,66.156],[-10.471,66.291],[-10.876,66.432],[-11.255,66.576],[-11.605,66.723],[-11.977,66.867],[-12.337,67.013],[-12.718,67.156],[-13.104,67.297],[-13.512,67.436],[-13.924,67.573],[-14.325,67.712],[-14.749,67.847],[-15.126,67.989],[-15.475,68.134],[-15.778,68.287],[-16.119,68.434],[-16.547,68.546],[-17.052,68.615],[-17.632,68.657],[-18.254,68.712],[-18.911,68.789],[-19.555,68.882],[-20.188,68.976],[-20.827,69.066],[-21.479,69.13],[-22.097,69.152],[-22.642,69.124],[-23.148,69.07],[-23.624,68.997],[-24.115,68.935],[-24.612,68.876],[-25.126,68.828],[-25.648,68.784],[-26.168,68.738],[-26.695,68.697],[-27.21,68.647],[-27.723,68.596],[-28.233,68.544],[-28.729,68.484],[-29.213,68.417],[-29.682,68.344],[-30.148,68.268],[-30.611,68.192],[-31.092,68.125],[-31.582,68.061],[-32.091,68.007],[-32.597,67.951],[-33.112,67.899],[-33.59,67.83],[-34.019,67.738],[-34.398,67.624],[-34.761,67.505],[-35.132,67.39],[-35.522,67.283],[-35.909,67.176],[-36.28,67.064],[-36.659,66.955],[-37.022,66.84],[-37.347,66.71],[-37.597,66.549],[-37.821,66.379],[-38.041,66.209],[-38.269,66.043],[-38.506,65.882],[-38.74,65.72],[-38.982,65.563],[-39.244,65.415],[-39.502,65.266],[-39.769,65.122],[-40.01,64.968],[-40.27,64.823],[-40.528,64.678],[-40.771,64.527],[-40.991,64.396],[-41.177,64.279]]}},{"type":"Feature","properties":{"kind":"warm","line":4,"px_len":121},"geometry":{"type":"LineString","coordinates":[[-53.248,45.759],[-53.356,45.965],[-53.436,46.159],[-53.495,46.365],[-53.534,46.571],[-53.59,46.784],[-53.68,46.982],[-53.808,47.159],[-53.978,47.289],[-54.168,47.397],[-54.367,47.495],[-54.558,47.602],[-54.75,47.71],[-54.944,47.817],[-55.143,47.918],[-55.334,48.03],[-55.522,48.146],[-55.702,48.273],[-55.884,48.4],[-56.066,48.527],[-56.246,48.659],[-56.427,48.79],[-56.601,48.933],[-56.776,49.075],[-56.939,49.233],[-57.1,49.397],[-57.261,49.561],[-57.429,49.719],[-57.619,49.849],[-57.841,49.939],[-58.097,49.984],[-58.366,50.012],[-58.623,50.056],[-58.881,50.099],[-59.131,50.152],[-59.382,50.205],[-59.622,50.274],[-59.863,50.343],[-60.104,50.411],[-60.337,50.476],[-60.59,50.545]]}},{"type":"Feature","properties":{"kind":"cold","line":5,"px_len":119},"geometry":{"type":"LineString","coordinates":[[-62.691,50.543],[-63.029,50.471],[-63.336,50.412],[-63.652,50.353],[-63.973,50.282],[-64.299,50.198],[-64.594,50.092],[-64.853,49.972],[-65.065,49.841],[-65.267,49.708],[-65.5,49.588],[-65.76,49.513],[-66.043,49.488],[-66.312,49.491],[-66.581,49.494],[-66.858,49.478],[-67.143,49.443],[-67.436,49.39],[-67.73,49.329],[-68.021,49.274],[-68.311,49.218],[-68.598,49.166],[-68.886,49.108],[-69.173,49.049],[-69.462,48.983],[-69.755,48.904],[-70.052,48.806],[-70.346,48.688],[-70.62,48.566],[-70.875,48.492],[-71.12,48.472],[-71.373,48.484],[-71.627,48.495],[-71.884,48.494],[-72.137,48.503],[-72.396,48.494],[-72.658,48.473],[-72.924,48.438],[-73.182,48.427],[-73.379,48.432],[-73.516,48.449]]}}]}