{"type":"FeatureCollection","properties":{"chart":"fc","src":"Z__C_EDZW_20261007032357_nwv01,ico_tkb_na_N_000036_000000_202610070000_WV12.png","valid_time":"2026-10-08T12:00:00+00:00"},"features":[{"type":"Feature","properties":{"kind":"cold","line":0,"px_len":96},"geometry":{"type":"LineString","coordinates":[[4.088,43.527],[4.315,43.575],[4.527,43.621],[4.748,43.661],[4.969,43.695],[5.191,43.71],[5.414,43.712],[5.636,43.714],[5.859,43.715],[6.081,43.734],[6.304,43.782],[6.528,43.859],[6.752,43.941],[6.977,44.016],[7.203,44.08],[7.429,44.136],[7.656,44.186],[7.882,44.224],[8.109,44.254],[8.336,44.285],[8.564,44.308],[8.791,44.331],[9.018,44.341],[9.245,44.357],[9.473,44.372],[9.7,44.38],[9.927,44.382],[10.156,44.407],[10.391,44.485],[10.632,44.617],[10.878,44.765],[11.097,44.897],[11.29,45.012]]}},{"type":"Feature","properties":{"kind":"cold","line":1,"px_len":149},"geometry":{"type":"LineString","coordinates":[[13.92,47.501],[14.035,47.663],[14.131,47.815],[14.247,47.971],[14.373,48.127],[14.527,48.28],[14.646,48.436],[14.72,48.597],[14.739,48.764],[14.749,48.931],[14.74,49.101],[14.75,49.269],[14.76,49.437],[14.798,49.603],[14.837,49.768],[14.876,49.934],[14.916,50.1],[14.956,50.267],[14.996,50.433],[15.036,50.6],[15.058,50.768],[15.07,50.938],[15.082,51.108],[15.114,51.276],[15.146,51.444],[15.158,51.615],[15.171,51.785],[15.194,51.955],[15.237,52.123],[15.25,52.294],[15.284,52.464],[15.328,52.632],[15.404,52.798],[15.481,52.963],[15.548,53.13],[15.573,53.301],[15.525,53.48],[15.435,53.662],[15.343,53.845],[15.272,54.026],[15.221,54.205],[15.181,54.383],[15.162,54.56],[15.143,54.736],[15.146,54.911],[15.126,55.088],[15.118,55.264],[15.098,55.441],[15.09,55.618],[15.07,55.756],[15.051,55.855]]}},{"type":"Feature","properties":{"kind":"warm","line":2,"px_len":268},"geometry":{"type":"LineString","coordinates":[[37.009,54.263],[36.812,54.42],[36.644,54.581],[36.476,54.757],[36.317,54.944],[36.156,55.13],[35.999,55.322],[35.84,55.514],[35.707,55.72],[35.602,55.93],[35.544,56.148],[35.505,56.36],[35.445,56.578],[35.342,56.795],[35.183,56.999],[34.982,57.163],[34.744,57.292],[34.482,57.399],[34.217,57.504],[33.962,57.621],[33.716,57.748],[33.469,57.875],[33.23,58.013],[32.995,58.157],[32.768,58.311],[32.534,58.46],[32.292,58.602],[32.042,58.738],[31.784,58.868],[31.519,58.991],[31.251,59.113],[30.976,59.229],[30.699,59.345],[30.414,59.454],[30.132,59.568],[29.843,59.675],[29.552,59.782],[29.258,59.888],[28.968,60.0],[28.685,60.123],[28.4,60.245],[28.117,60.373],[27.837,60.506],[27.559,60.645],[27.278,60.783],[26.956,60.871],[26.599,60.915],[26.212,60.921],[25.826,60.926],[25.435,60.923],[25.039,60.912],[24.644,60.9],[24.262,60.906],[23.884,60.917],[23.51,60.933],[23.131,60.941],[22.748,60.942],[22.354,60.922],[21.953,60.889],[21.55,60.847],[21.151,60.811],[20.747,60.761],[20.343,60.709],[19.942,60.656],[19.554,60.627],[19.167,60.597],[18.787,60.579],[18.405,60.552],[18.029,60.538],[17.64,60.49],[17.236,60.402],[16.873,60.269],[16.613,60.112],[16.433,59.948],[16.319,59.778],[16.193,59.609],[16.095,59.438],[15.985,59.268],[15.863,59.1],[15.731,58.932],[15.6,58.764],[15.483,58.596],[15.392,58.425],[15.314,58.253],[15.261,58.079],[15.209,57.906],[15.158,57.732],[15.107,57.559],[15.094,57.389],[15.113,57.204]]}},{"type":"Feature","properties":{"kind":"warm","line":3,"px_len":240},"geometry":{"type":"LineString","coordinates":[[-53.499,37.728],[-53.379,37.857],[-53.265,37.976],[-53.141,38.096],[-53.022,38.22],[-52.903,38.343],[-52.776,38.464],[-52.656,38.587],[-52.547,38.716],[-52.444,38.849],[-52.346,38.984],[-52.248,39.119],[-52.156,39.257],[-52.076,39.402],[-52.002,39.549],[-51.933,39.7],[-51.839,39.838],[-51.699,39.955],[-51.52,40.053],[-51.321,40.142],[-51.121,40.23],[-50.92,40.318],[-50.725,40.408],[-50.542,40.505],[-50.378,40.61],[-50.225,40.722],[-50.071,40.833],[-49.917,40.945],[-49.756,41.053],[-49.6,41.163],[-49.443,41.274],[-49.286,41.384],[-49.134,41.498],[-48.994,41.618],[-48.873,41.748],[-48.751,41.878],[-48.628,42.008],[-48.505,42.137],[-48.4,42.277],[-48.288,42.414],[-48.149,42.537],[-47.958,42.631],[-47.726,42.705],[-47.487,42.775],[-47.248,42.843],[-47.02,42.919],[-46.805,43.0],[-46.608,43.092],[-46.43,43.194],[-46.251,43.296],[-46.071,43.398],[-45.897,43.503],[-45.721,43.608],[-45.545,43.712],[-45.362,43.812],[-45.184,43.916],[-45.005,44.019],[-44.845,44.134],[-44.683,44.248],[-44.534,44.369],[-44.378,44.487],[-44.253,44.623],[-44.127,44.759],[-44.02,44.907],[-43.873,45.032],[-43.699,45.14],[-43.472,45.218],[-43.224,45.283],[-42.976,45.348],[-42.726,45.411],[-42.489,45.482],[-42.258,45.556],[-42.045,45.642],[-41.844,45.735],[-41.655,45.836],[-41.465,45.937],[-41.281,46.041],[-41.089,46.141],[-40.902,46.245],[-40.72,46.327],[-40.549,46.391]]}},{"type":"Feature","properties":{"kind":"cold","line":3,"px_len":374},"geometry":{"type":"LineString","coordinates":[[-40.549,46.391],[-40.373,46.51],[-40.195,46.612],[-40.011,46.718],[-39.812,46.816],[-39.625,46.921],[-39.425,47.018],[-39.236,47.123],[-39.034,47.218],[-38.837,47.318],[-38.639,47.417],[-38.433,47.512],[-38.214,47.597],[-37.982,47.673],[-37.735,47.74],[-37.507,47.819],[-37.315,47.925],[-37.173,48.065],[-37.03,48.206],[-36.886,48.347],[-36.722,48.473],[-36.557,48.6],[-36.371,48.713],[-36.185,48.826],[-35.997,48.938],[-35.809,49.05],[-35.619,49.161],[-35.428,49.272],[-35.236,49.383],[-35.043,49.494],[-34.848,49.604],[-34.653,49.714],[-34.456,49.823],[-34.258,49.933],[-34.059,50.041],[-33.859,50.15],[-33.676,50.272],[-33.486,50.389],[-33.282,50.497],[-33.052,50.584],[-32.809,50.662],[-32.564,50.738],[-32.337,50.829],[-32.152,50.954],[-31.996,51.103],[-31.852,51.261],[-31.694,51.41],[-31.522,51.549],[-31.337,51.677],[-31.144,51.801],[-30.955,51.928],[-30.753,52.046],[-30.556,52.168],[-30.352,52.285],[-30.158,52.412],[-29.957,52.533],[-29.754,52.654],[-29.55,52.774],[-29.351,52.9],[-29.15,53.025],[-28.948,53.149],[-28.738,53.268],[-28.521,53.382],[-28.29,53.485],[-28.051,53.581],[-27.812,53.678],[-27.571,53.774],[-27.328,53.869],[-27.108,53.985],[-26.917,54.127],[-26.753,54.296],[-26.593,54.47],[-26.426,54.639],[-26.252,54.802],[-26.063,54.954],[-25.867,55.1],[-25.664,55.241],[-25.458,55.381],[-25.251,55.521],[-25.042,55.661],[-24.831,55.8],[-24.618,55.939],[-24.41,56.083],[-24.193,56.222],[-23.981,56.365],[-23.755,56.498],[-23.527,56.629],[-23.279,56.744],[-23.024,56.852],[-22.785,56.976],[-22.621,57.137],[-22.533,57.333],[-22.467,57.552],[-22.401,57.771],[-22.289,57.989],[-22.164,58.195],[-21.992,58.399],[-21.812,58.597],[-21.63,58.795],[-21.451,58.999],[-21.27,59.203],[-21.086,59.406],[-20.9,59.61],[-20.705,59.807],[-20.49,59.987],[-20.254,60.148],[-20.004,60.298],[-19.745,60.441],[-19.478,60.578],[-19.214,60.72],[-18.948,60.862],[-18.673,60.997],[-18.395,61.132],[-18.175,61.282],[-18.1,61.443],[-18.167,61.61],[-18.323,61.773],[-18.481,61.936],[-18.641,62.098],[-18.803,62.261],[-18.967,62.423],[-19.159,62.58],[-19.366,62.734],[-19.576,62.887],[-19.723,63.01],[-19.82,63.1]]}},{"type":"Feature","properties":{"kind":"occl","line":3,"px_len":245},"geometry":{"type":"LineString","coordinates":[[-19.82,63.1],[-20.095,63.247],[-20.293,63.396],[-20.474,63.557],[-20.63,63.724],[-20.774,63.894],[-20.921,64.064],[-21.069,64.234],[-21.22,64.404],[-21.441,64.558],[-21.777,64.687],[-22.185,64.799],[-22.583,64.914],[-22.93,65.04],[-23.266,65.168],[-23.564,65.306],[-23.893,65.437],[-24.254,65.56],[-24.675,65.668],[-25.161,65.752],[-25.689,65.808],[-26.231,65.82],[-26.747,65.812],[-27.244,65.791],[-27.768,65.786],[-28.329,65.8],[-28.928,65.835],[-29.548,65.877],[-30.131,65.929],[-30.676,65.991],[-31.184,66.063],[-31.686,66.128],[-32.177,66.152],[-32.646,66.13],[-33.089,66.062],[-33.53,65.993],[-33.989,65.933],[-34.479,65.887],[-34.987,65.849],[-35.506,65.814],[-36.011,65.773],[-36.459,65.705],[-36.827,65.601],[-37.125,65.467],[-37.408,65.327],[-37.699,65.192],[-38.009,65.066],[-38.316,64.939],[-38.619,64.812],[-38.92,64.684],[-39.25,64.569],[-39.578,64.454],[-39.902,64.338],[-40.19,64.208],[-40.476,64.076],[-40.758,63.945],[-41.014,63.803],[-41.257,63.657],[-41.475,63.502],[-41.658,63.332],[-41.805,63.149],[-41.917,62.953],[-42.027,62.757],[-42.136,62.561],[-42.265,62.374],[-42.424,62.2],[-42.591,62.03],[-42.778,61.869],[-42.941,61.699],[-43.082,61.521],[-43.168,61.321],[-43.242,61.116],[-43.336,60.921],[-43.49,60.751],[-43.684,60.598],[-43.875,60.445],[-44.034,60.279],[-44.171,60.104],[-44.306,59.93],[-44.429,59.751],[-44.541,59.568],[-44.632,59.428],[-44.714,59.335]]}},{"type":"Feature","properties":{"kind":"warm","line":4,"px_len":185},"geometry":{"type":"LineString","coordinates":[[-14.862,51.533],[-14.666,51.707],[-14.495,51.889],[-14.323,52.09],[-14.149,52.291],[-13.958,52.469],[-13.748,52.616],[-13.526,52.746],[-13.298,52.868],[-13.073,52.997],[-12.852,53.137],[-12.66,53.311],[-12.531,53.498],[-12.502,53.685],[-12.524,53.862],[-12.566,54.035],[-12.599,54.21],[-12.632,54.386],[-12.655,54.564],[-12.658,54.746],[-12.65,54.93],[-12.631,55.116],[-12.612,55.303],[-12.603,55.488],[-12.605,55.671],[-12.596,55.856],[-12.587,56.042],[-12.567,56.229],[-12.547,56.417],[-12.505,56.609],[-12.45,56.804],[-12.384,57.0],[-12.362,57.189],[-12.397,57.367],[-12.513,57.531],[-12.676,57.687],[-12.875,57.836],[-13.064,57.987],[-13.256,58.138],[-13.414,58.295],[-13.563,58.454],[-13.677,58.62],[-13.793,58.786],[-13.91,58.952],[-14.028,59.117],[-14.148,59.283],[-14.269,59.449],[-14.392,59.615],[-14.515,59.781],[-14.641,59.947],[-14.768,60.112],[-14.896,60.278],[-15.026,60.444],[-15.157,60.61],[-15.252,60.783],[-15.348,60.956],[-15.484,61.122],[-15.775,61.258],[-16.162,61.346],[-16.596,61.381],[-16.999,61.379],[-17.303,61.366],[-17.52,61.357]]}},{"type":"Feature","properties":{"kind":"occl","line":5,"px_len":398},"geometry":{"type":"LineString","coordinates":[[75.034,56.177],[74.664,56.207],[74.334,56.231],[74.036,56.297],[73.784,56.4],[73.566,56.539],[73.324,56.672],[73.069,56.802],[72.801,56.93],[72.586,57.07],[72.413,57.219],[72.282,57.38],[72.149,57.54],[72.015,57.7],[71.88,57.86],[71.743,58.02],[71.605,58.18],[71.443,58.334],[71.29,58.492],[71.193,58.662],[71.152,58.847],[71.133,59.038],[71.091,59.223],[71.037,59.405],[70.947,59.579],[70.856,59.753],[70.74,59.922],[70.646,60.096],[70.528,60.265],[70.432,60.44],[70.322,60.611],[70.236,60.789],[70.136,60.963],[70.048,61.141],[69.945,61.316],[69.842,61.49],[69.75,61.668],[69.631,61.84],[69.536,62.018],[69.427,62.193],[69.343,62.374],[69.27,62.558],[69.222,62.748],[69.199,62.945],[69.202,63.147],[69.219,63.353],[69.222,63.556],[69.145,63.741],[69.012,63.914],[68.864,64.084],[68.728,64.256],[68.603,64.432],[68.449,64.602],[68.335,64.781],[68.219,64.96],[68.129,65.145],[67.939,65.308],[67.675,65.455],[67.336,65.585],[67.008,65.718],[66.676,65.85],[66.384,65.992],[66.073,66.129],[65.802,66.276],[65.485,66.413],[65.207,66.559],[64.91,66.701],[64.625,66.846],[64.336,66.991],[64.058,67.139],[63.806,67.293],[63.551,67.447],[63.292,67.601],[63.029,67.755],[62.762,67.908],[62.492,68.061],[62.218,68.213],[61.909,68.357],[61.581,68.497],[61.202,68.624],[60.85,68.759],[60.508,68.897],[60.208,69.046],[59.903,69.194],[59.595,69.342],[59.219,69.473],[58.792,69.591],[58.313,69.696],[57.86,69.807],[57.402,69.917],[56.985,70.039],[56.594,70.168],[56.245,70.31],[55.89,70.452],[55.53,70.592],[55.196,70.741],[54.889,70.898],[54.639,71.073],[54.401,71.252],[54.173,71.436],[53.958,71.624],[53.754,71.817],[53.578,72.019],[53.398,72.22],[53.248,72.431],[53.076,72.637],[52.884,72.839],[52.636,73.026],[52.365,73.208],[52.07,73.385],[51.752,73.557],[51.427,73.729],[51.13,73.91],[50.95,74.124],[50.873,74.369],[50.942,74.613],[51.069,74.844],[51.238,75.064],[51.335,75.304],[51.377,75.559],[51.32,75.809],[51.322,76.045],[51.448,76.251],[51.787,76.437],[52.218,76.602],[52.681,76.762],[53.114,76.931],[53.495,77.115],[53.823,77.314],[54.161,77.513],[54.554,77.7],[54.981,77.882],[55.312,78.026],[55.519,78.136]]}}]}