{"type":"FeatureCollection","properties":{"chart":"fc","src":"Z__C_EDZW_20261005034010_nwv01,ico_tkb_na_N_000036_000000_202610050000_WV12.png","valid_time":"2026-10-06T12:00:00+00:00"},"features":[{"type":"Feature","properties":{"kind":"cold","line":0,"px_len":239},"geometry":{"type":"LineString","coordinates":[[-28.558,44.448],[-28.265,44.439],[-28.0,44.438],[-27.727,44.439],[-27.446,44.43],[-27.16,44.414],[-26.865,44.387],[-26.566,44.355],[-26.28,44.301],[-26.003,44.257],[-25.775,44.267],[-25.566,44.332],[-25.374,44.417],[-25.172,44.491],[-24.969,44.565],[-24.77,44.643],[-24.561,44.711],[-24.348,44.773],[-24.129,44.829],[-23.91,44.885],[-23.691,44.94],[-23.47,44.994],[-23.254,45.054],[-23.041,45.117],[-22.827,45.181],[-22.612,45.244],[-22.397,45.306],[-22.19,45.378],[-21.985,45.455],[-21.78,45.532],[-21.574,45.608],[-21.368,45.684],[-21.16,45.759],[-20.952,45.834],[-20.743,45.908],[-20.533,45.982],[-20.315,46.045],[-20.088,46.096],[-19.853,46.135],[-19.641,46.207],[-19.446,46.305],[-19.278,46.442],[-19.108,46.578],[-18.933,46.709],[-18.745,46.822],[-18.553,46.93],[-18.356,47.032],[-18.162,47.139],[-17.966,47.246],[-17.774,47.358],[-17.58,47.47],[-17.385,47.581],[-17.192,47.697],[-16.999,47.813],[-16.807,47.935],[-16.615,48.056],[-16.425,48.182],[-16.23,48.303],[-16.037,48.429],[-15.843,48.554],[-15.651,48.685],[-15.451,48.804],[-15.25,48.923],[-15.041,49.029],[-14.823,49.124],[-14.595,49.201],[-14.365,49.278],[-14.138,49.359],[-13.933,49.481],[-13.777,49.637],[-13.642,49.834],[-13.502,50.025],[-13.323,50.204],[-13.133,50.366],[-12.935,50.516],[-12.729,50.654],[-12.525,50.797],[-12.318,50.94],[-12.111,51.082],[-11.943,51.183],[-11.819,51.248]]}},{"type":"Feature","properties":{"kind":"warm","line":1,"px_len":69},"geometry":{"type":"LineString","coordinates":[[-11.092,51.688],[-10.868,51.836],[-10.656,51.968],[-10.438,52.114],[-10.222,52.265],[-10.015,52.44],[-9.815,52.633],[-9.618,52.838],[-9.411,53.025],[-9.189,53.187],[-8.949,53.311],[-8.691,53.399],[-8.424,53.467],[-8.153,53.528],[-7.88,53.589],[-7.61,53.655],[-7.343,53.733],[-7.08,53.822],[-6.818,53.917],[-6.558,54.018],[-6.3,54.13],[-6.043,54.248],[-5.811,54.349],[-5.606,54.433]]}},{"type":"Feature","properties":{"kind":"cold","line":1,"px_len":75},"geometry":{"type":"LineString","coordinates":[[-5.606,54.433],[-5.331,54.544],[-5.078,54.658],[-4.811,54.767],[-4.541,54.875],[-4.266,54.97],[-3.987,55.057],[-3.705,55.138],[-3.419,55.212],[-3.129,55.272],[-2.832,55.312],[-2.534,55.352],[-2.236,55.39],[-1.943,55.453],[-1.654,55.535],[-1.373,55.654],[-1.091,55.778],[-0.803,55.889],[-0.509,55.974],[-0.21,56.045],[0.092,56.103],[0.396,56.159],[0.704,56.195],[1.013,56.225],[1.288,56.257],[1.525,56.307]]}},{"type":"Feature","properties":{"kind":"warm","line":1,"px_len":80},"geometry":{"type":"LineString","coordinates":[[1.525,56.307],[1.849,56.328],[2.148,56.36],[2.46,56.391],[2.773,56.415],[3.087,56.431],[3.4,56.459],[3.714,56.487],[4.029,56.507],[4.344,56.532],[4.658,56.57],[4.973,56.626],[5.289,56.681],[5.606,56.735],[5.924,56.775],[6.243,56.775],[6.561,56.742],[6.878,56.682],[7.194,56.622],[7.509,56.566],[7.823,56.517],[8.137,56.473],[8.45,56.427],[8.763,56.394],[9.076,56.373],[9.388,56.345],[9.63,56.317],[9.802,56.292]]}},{"type":"Feature","properties":{"kind":"cold","line":1,"px_len":317},"geometry":{"type":"LineString","coordinates":[[9.802,56.292],[10.125,56.261],[10.424,56.23],[10.73,56.178],[11.038,56.138],[11.343,56.084],[11.647,56.03],[11.945,55.949],[12.24,55.854],[12.531,55.752],[12.821,55.649],[13.115,55.578],[13.417,55.544],[13.725,55.541],[14.032,55.53],[14.336,55.506],[14.639,55.481],[14.942,55.455],[15.244,55.428],[15.54,55.382],[15.835,55.334],[16.129,55.286],[16.425,55.243],[16.717,55.192],[17.009,55.142],[17.304,55.102],[17.601,55.069],[17.897,55.034],[18.197,55.011],[18.499,54.993],[18.8,54.975],[19.097,54.943],[19.39,54.904],[19.682,54.864],[19.966,54.805],[20.249,54.744],[20.531,54.683],[20.828,54.659],[21.14,54.664],[21.466,54.699],[21.795,54.74],[22.123,54.773],[22.444,54.793],[22.763,54.805],[23.076,54.805],[23.389,54.803],[23.701,54.8],[24.018,54.803],[24.334,54.804],[24.65,54.805],[24.966,54.804],[25.285,54.809],[25.609,54.818],[25.936,54.833],[26.26,54.84],[26.588,54.852],[26.912,54.858],[27.237,54.862],[27.549,54.847],[27.861,54.831],[28.168,54.809],[28.471,54.779],[28.776,54.769],[29.059,54.812],[29.348,54.908],[29.641,55.024],[29.978,55.129],[30.348,55.224],[30.73,55.302],[31.121,55.369],[31.512,55.435],[31.915,55.511],[32.325,55.591],[32.717,55.676],[33.101,55.762],[33.476,55.849],[33.853,55.935],[34.243,56.016],[34.628,56.076],[35.007,56.101],[35.37,56.106],[35.703,56.135],[35.996,56.213],[36.238,56.329],[36.456,56.461],[36.677,56.591],[36.909,56.719],[37.154,56.842],[37.421,56.958],[37.71,57.067],[38.011,57.172],[38.304,57.279],[38.6,57.386],[38.907,57.488],[39.247,57.579],[39.589,57.669],[39.953,57.751],[40.336,57.809],[40.739,57.836],[41.143,57.837],[41.546,57.837],[41.947,57.845],[42.29,57.897],[42.58,57.986],[42.817,58.112],[43.002,58.21],[43.123,58.284]]}},{"type":"Feature","properties":{"kind":"stat","line":1,"px_len":38},"geometry":{"type":"LineString","coordinates":[[43.123,58.284],[43.234,58.469],[43.3,58.656],[43.365,58.852],[43.45,59.04],[43.568,59.216],[43.697,59.388],[43.828,59.561],[43.96,59.733],[44.114,59.897],[44.271,60.061],[44.46,60.213],[44.612,60.33],[44.736,60.407]]}},{"type":"Feature","properties":{"kind":"occl","line":1,"px_len":208},"geometry":{"type":"LineString","coordinates":[[44.736,60.407],[44.97,60.551],[45.179,60.689],[45.388,60.835],[45.62,60.973],[45.875,61.102],[46.165,61.218],[46.436,61.342],[46.72,61.461],[46.943,61.605],[47.147,61.758],[47.311,61.928],[47.499,62.089],[47.699,62.245],[47.924,62.392],[48.161,62.535],[48.39,62.682],[48.612,62.832],[48.803,62.996],[48.942,63.183],[49.04,63.388],[49.118,63.601],[49.208,63.811],[49.321,64.011],[49.448,64.207],[49.622,64.384],[49.81,64.557],[50.045,64.711],[50.238,64.884],[50.354,65.089],[50.391,65.326],[50.418,65.569],[50.48,65.798],[50.579,66.013],[50.727,66.209],[50.89,66.4],[51.02,66.606],[51.078,66.84],[51.053,67.079],[50.952,67.299],[50.787,67.495],[50.581,67.677],[50.385,67.863],[50.198,68.054],[50.045,68.259],[49.928,68.48],[49.835,68.71],[49.778,68.955],[49.668,69.18],[49.488,69.381],[49.185,69.537],[48.863,69.687],[48.524,69.832],[48.206,69.986],[47.896,70.145],[47.609,70.313],[47.356,70.497],[47.072,70.67],[46.728,70.822],[46.284,70.936],[45.78,71.028],[45.285,71.124],[44.812,71.23],[44.359,71.345],[43.901,71.459],[43.437,71.571],[43.007,71.699],[42.57,71.827],[42.247,71.968],[42.038,72.125]]}},{"type":"Feature","properties":{"kind":"warm","line":2,"px_len":142},"geometry":{"type":"LineString","coordinates":[[36.62,50.183],[36.759,50.333],[36.905,50.466],[37.066,50.602],[37.254,50.727],[37.443,50.852],[37.65,50.97],[37.867,51.085],[38.102,51.192],[38.348,51.296],[38.586,51.402],[38.825,51.508],[39.016,51.634],[39.156,51.78],[39.237,51.95],[39.311,52.123],[39.403,52.29],[39.495,52.457],[39.615,52.613],[39.744,52.766],[39.883,52.915],[40.015,53.068],[40.148,53.221],[40.299,53.367],[40.461,53.508],[40.597,53.661],[40.744,53.81],[40.892,53.959],[41.086,54.089],[41.272,54.223],[41.478,54.349],[41.686,54.475],[41.886,54.604],[42.033,54.755],[42.119,54.933],[42.151,55.133],[42.166,55.341],[42.18,55.55],[42.214,55.75],[42.257,55.948],[42.319,56.138],[42.373,56.332],[42.427,56.526],[42.463,56.728],[42.509,56.926],[42.527,57.136],[42.508,57.353],[42.446,57.603]]}},{"type":"Feature","properties":{"kind":"cold","line":3,"px_len":222},"geometry":{"type":"LineString","coordinates":[[-62.092,41.033],[-61.982,41.176],[-61.871,41.306],[-61.749,41.439],[-61.619,41.57],[-61.488,41.701],[-61.349,41.83],[-61.223,41.963],[-61.097,42.096],[-60.985,42.234],[-60.864,42.369],[-60.751,42.506],[-60.629,42.641],[-60.506,42.776],[-60.383,42.911],[-60.251,43.044],[-60.111,43.174],[-59.948,43.297],[-59.791,43.421],[-59.671,43.558],[-59.603,43.712],[-59.564,43.876],[-59.525,44.04],[-59.463,44.197],[-59.4,44.354],[-59.329,44.509],[-59.258,44.664],[-59.171,44.813],[-59.075,44.961],[-59.002,45.116],[-58.928,45.271],[-58.854,45.426],[-58.772,45.579],[-58.696,45.735],[-58.62,45.89],[-58.536,46.043],[-58.458,46.199],[-58.381,46.355],[-58.294,46.508],[-58.215,46.664],[-58.135,46.82],[-58.055,46.976],[-57.942,47.122],[-57.812,47.262],[-57.68,47.403],[-57.548,47.543],[-57.415,47.683],[-57.322,47.836],[-57.277,48.007],[-57.281,48.194],[-57.286,48.381],[-57.282,48.565],[-57.278,48.75],[-57.257,48.929],[-57.227,49.106],[-57.189,49.281],[-57.159,49.458],[-57.137,49.638],[-57.132,49.824],[-57.136,50.014],[-57.157,50.209],[-57.188,50.406],[-57.236,50.61],[-57.293,50.817],[-57.36,51.027],[-57.419,51.234],[-57.452,51.433],[-57.449,51.621],[-57.418,51.801],[-57.387,51.982],[-57.365,52.165],[-57.351,52.351],[-57.282,52.521],[-57.143,52.648],[-56.932,52.732]]}},{"type":"Feature","properties":{"kind":"warm","line":3,"px_len":152},"geometry":{"type":"LineString","coordinates":[[-56.932,52.732],[-56.641,52.841],[-56.32,52.926],[-55.97,52.988],[-55.645,52.991],[-55.38,52.927],[-55.151,52.823],[-54.939,52.702],[-54.723,52.586],[-54.513,52.464],[-54.295,52.353],[-54.068,52.252],[-53.833,52.162],[-53.593,52.077],[-53.37,51.975],[-53.148,51.872],[-52.927,51.769],[-52.692,51.682],[-52.458,51.594],[-52.226,51.505],[-51.989,51.421],[-51.743,51.348],[-51.492,51.279],[-51.231,51.22],[-50.972,51.16],[-50.735,51.078],[-50.537,50.96],[-50.39,50.794],[-50.255,50.617],[-50.121,50.441],[-49.983,50.27],[-49.835,50.109],[-49.684,49.953],[-49.522,49.807],[-49.363,49.661],[-49.204,49.515],[-49.025,49.389],[-48.841,49.268],[-48.648,49.157],[-48.456,49.045],[-48.254,48.943],[-48.048,48.846],[-47.843,48.749],[-47.661,48.631],[-47.508,48.488],[-47.389,48.315],[-47.305,48.121],[-47.259,47.915],[-47.219,47.704],[-47.156,47.504],[-47.085,47.354],[-47.031,47.25]]}},{"type":"Feature","properties":{"kind":"stat","line":4,"px_len":38},"geometry":{"type":"LineString","coordinates":[[-57.604,52.681],[-57.858,52.77],[-58.098,52.848],[-58.34,52.939],[-58.593,53.017],[-58.842,53.101],[-59.101,53.173],[-59.361,53.245],[-59.626,53.309],[-59.901,53.362],[-60.177,53.413],[-60.437,53.488],[-60.631,53.558],[-60.766,53.613]]}},{"type":"Feature","properties":{"kind":"occl","line":4,"px_len":96},"geometry":{"type":"LineString","coordinates":[[-60.766,53.613],[-61.043,53.682],[-61.301,53.746],[-61.57,53.811],[-61.828,53.893],[-62.087,53.975],[-62.335,54.074],[-62.589,54.166],[-62.832,54.276],[-63.097,54.355],[-63.382,54.404],[-63.683,54.428],[-63.984,54.451],[-64.278,54.485],[-64.577,54.512],[-64.869,54.55],[-65.161,54.587],[-65.454,54.624],[-65.755,54.647],[-66.07,54.646],[-66.404,54.606],[-66.75,54.521],[-67.085,54.407],[-67.421,54.285],[-67.757,54.183],[-68.108,54.089],[-68.446,54.018],[-68.779,53.952],[-69.103,53.904],[-69.426,53.855],[-69.748,53.804],[-70.033,53.761],[-70.28,53.724]]}}]}