{"type":"FeatureCollection","properties":{"chart":"fc","src":"Z__C_EDZW_20261003034053_nwv01,ico_tkb_na_N_000036_000000_202610030000_WV12.png","valid_time":"2026-10-04T12:00:00+00:00"},"features":[{"type":"Feature","properties":{"kind":"cold","line":0,"px_len":486},"geometry":{"type":"LineString","coordinates":[[-62.312,41.042],[-62.084,41.031],[-61.872,41.023],[-61.642,41.047],[-61.43,41.114],[-61.221,41.22],[-61.003,41.322],[-60.749,41.413],[-60.472,41.496],[-60.194,41.578],[-59.915,41.66],[-59.635,41.74],[-59.354,41.819],[-59.071,41.897],[-58.788,41.974],[-58.507,42.045],[-58.239,42.094],[-57.981,42.126],[-57.733,42.141],[-57.488,42.15],[-57.257,42.177],[-57.068,42.245],[-56.904,42.355],[-56.756,42.479],[-56.586,42.593],[-56.415,42.708],[-56.222,42.814],[-56.013,42.915],[-55.782,43.006],[-55.55,43.097],[-55.317,43.187],[-55.083,43.277],[-54.855,43.368],[-54.627,43.46],[-54.404,43.553],[-54.18,43.646],[-53.962,43.741],[-53.751,43.839],[-53.539,43.937],[-53.332,44.036],[-53.118,44.133],[-52.91,44.232],[-52.693,44.327],[-52.49,44.428],[-52.286,44.529],[-52.095,44.635],[-51.889,44.735],[-51.689,44.837],[-51.488,44.939],[-51.286,45.041],[-51.068,45.135],[-50.821,45.216],[-50.566,45.294],[-50.296,45.363],[-50.038,45.439],[-49.823,45.534],[-49.657,45.652],[-49.518,45.783],[-49.364,45.908],[-49.21,46.032],[-49.039,46.15],[-48.883,46.274],[-48.71,46.39],[-48.537,46.507],[-48.341,46.613],[-48.137,46.715],[-47.939,46.82],[-47.74,46.924],[-47.54,47.028],[-47.339,47.132],[-47.137,47.235],[-46.933,47.338],[-46.729,47.441],[-46.531,47.547],[-46.331,47.652],[-46.131,47.757],[-45.929,47.862],[-45.734,47.969],[-45.537,48.077],[-45.333,48.18],[-45.134,48.287],[-44.934,48.394],[-44.74,48.504],[-44.545,48.613],[-44.349,48.723],[-44.159,48.835],[-43.954,48.94],[-43.747,49.044],[-43.518,49.136],[-43.28,49.223],[-43.034,49.305],[-42.78,49.383],[-42.553,49.476],[-42.361,49.59],[-42.211,49.728],[-42.06,49.865],[-41.915,50.007],[-41.754,50.141],[-41.578,50.265],[-41.379,50.377],[-41.185,50.493],[-41.005,50.617],[-40.824,50.74],[-40.635,50.859],[-40.429,50.969],[-40.223,51.079],[-40.022,51.193],[-39.835,51.315],[-39.646,51.437],[-39.456,51.558],[-39.265,51.679],[-39.072,51.8],[-38.856,51.907],[-38.639,52.014],[-38.421,52.12],[-38.223,52.24],[-38.024,52.359],[-37.838,52.487],[-37.657,52.619],[-37.475,52.75],[-37.278,52.873],[-37.072,52.99],[-36.864,53.107],[-36.655,53.224],[-36.444,53.34],[-36.233,53.456],[-36.019,53.572],[-35.804,53.687],[-35.588,53.802],[-35.349,53.902],[-35.108,54.001],[-34.866,54.1],[-34.658,54.223],[-34.485,54.369],[-34.331,54.53],[-34.197,54.705],[-34.048,54.871],[-33.897,55.036],[-33.73,55.192],[-33.561,55.347],[-33.391,55.502],[-33.219,55.657],[-33.053,55.817],[-32.893,55.982],[-32.73,56.146],[-32.574,56.316],[-32.43,56.496],[-32.292,56.68],[-32.152,56.865],[-32.018,57.054],[-31.875,57.239],[-31.723,57.418],[-31.547,57.582],[-31.369,57.746],[-31.181,57.905],[-30.999,58.068],[-30.86,58.263],[-30.774,58.484],[-30.737,58.72],[-30.692,58.95],[-30.621,59.173],[-30.536,59.378],[-30.465,59.56]]}},{"type":"Feature","properties":{"kind":"warm","line":0,"px_len":159},"geometry":{"type":"LineString","coordinates":[[-30.465,59.56],[-30.065,59.595],[-29.716,59.643],[-29.378,59.709],[-29.046,59.78],[-28.727,59.86],[-28.4,59.934],[-28.07,60.007],[-27.724,60.069],[-27.34,60.102],[-26.919,60.106],[-26.478,60.068],[-26.068,60.004],[-25.701,59.909],[-25.371,59.803],[-25.043,59.697],[-24.673,59.602],[-24.25,59.524],[-23.803,59.473],[-23.354,59.43],[-22.924,59.403],[-22.495,59.374],[-22.086,59.36],[-21.689,59.357],[-21.31,59.369],[-20.936,59.386],[-20.579,59.42],[-20.228,59.458],[-19.898,59.519],[-19.555,59.567],[-19.217,59.62],[-18.85,59.642],[-18.467,59.645],[-18.041,59.599],[-17.595,59.527],[-17.156,59.46],[-16.735,59.409],[-16.335,59.38],[-15.945,59.363],[-15.57,59.362],[-15.209,59.378],[-14.848,59.394],[-14.491,59.414],[-14.133,59.433],[-13.78,59.457],[-13.426,59.48],[-13.075,59.508],[-12.728,59.541],[-12.381,59.573],[-12.036,59.61],[-11.683,59.634],[-11.337,59.669],[-11.028,59.697],[-10.767,59.738]]}},{"type":"Feature","properties":{"kind":"cold","line":0,"px_len":183},"geometry":{"type":"LineString","coordinates":[[-10.767,59.738],[-10.417,59.791],[-10.091,59.839],[-9.763,59.908],[-9.433,59.975],[-9.101,60.041],[-8.768,60.107],[-8.433,60.171],[-8.103,60.247],[-7.765,60.31],[-7.435,60.391],[-7.101,60.464],[-6.767,60.543],[-6.431,60.621],[-6.097,60.705],[-5.758,60.781],[-5.417,60.856],[-5.071,60.924],[-4.721,60.984],[-4.367,61.036],[-4.01,61.082],[-3.651,61.126],[-3.289,61.162],[-2.939,61.237],[-2.643,61.353],[-2.354,61.501],[-2.063,61.649],[-1.722,61.786],[-1.379,61.921],[-1.026,62.037],[-0.669,62.144],[-0.307,62.244],[0.056,62.35],[0.42,62.461],[0.786,62.578],[1.154,62.7],[1.526,62.821],[1.901,62.942],[2.278,63.067],[2.657,63.205],[3.04,63.342],[3.428,63.478],[3.818,63.62],[4.213,63.767],[4.612,63.92],[5.017,64.044],[5.426,64.148],[5.84,64.23],[6.256,64.304],[6.659,64.384],[6.988,64.496],[7.228,64.649],[7.393,64.828],[7.545,65.008],[7.747,65.188],[8.001,65.366],[8.323,65.543],[8.634,65.72],[8.917,65.897],[9.137,66.075],[9.309,66.233],[9.445,66.372]]}},{"type":"Feature","properties":{"kind":"occl","line":0,"px_len":171},"geometry":{"type":"LineString","coordinates":[[9.445,66.372],[9.659,66.556],[9.839,66.728],[10.024,66.906],[10.246,67.083],[10.471,67.26],[10.701,67.437],[10.827,67.616],[10.866,67.799],[10.852,67.983],[10.874,68.167],[10.914,68.349],[10.955,68.532],[10.997,68.715],[11.04,68.899],[11.121,69.081],[11.166,69.264],[11.134,69.45],[10.965,69.64],[10.693,69.832],[10.357,70.026],[9.993,70.219],[9.663,70.412],[9.347,70.603],[9.066,70.793],[8.779,70.982],[8.529,71.171],[8.21,71.36],[7.797,71.55],[7.265,71.739],[6.678,71.927],[6.146,72.113],[5.671,72.298],[5.253,72.482],[4.76,72.645],[4.191,72.764],[3.553,72.832],[2.914,72.87],[2.273,72.907],[1.627,72.948],[0.974,73.001],[0.314,73.058],[-0.355,73.127],[-1.027,73.187],[-1.694,73.224],[-2.336,73.204],[-2.953,73.141],[-3.549,73.05],[-4.139,72.956],[-4.735,72.881],[-5.327,72.804],[-5.927,72.746],[-6.513,72.672],[-7.104,72.61],[-7.686,72.54],[-8.263,72.468],[-8.757,72.386],[-9.169,72.295]]}},{"type":"Feature","properties":{"kind":"cold","line":1,"px_len":63},"geometry":{"type":"LineString","coordinates":[[10.53,53.949],[10.839,53.986],[11.125,54.01],[11.42,54.014],[11.716,54.024],[12.01,54.026],[12.312,54.065],[12.6,54.143],[12.886,54.258],[13.177,54.386],[13.489,54.498],[13.814,54.609],[14.137,54.7],[14.46,54.783],[14.784,54.865],[15.112,54.953],[15.443,55.046],[15.782,55.157],[16.129,55.286],[16.477,55.407],[16.787,55.512],[17.06,55.6]]}},{"type":"Feature","properties":{"kind":"occl","line":1,"px_len":469},"geometry":{"type":"LineString","coordinates":[[17.06,55.6],[17.421,55.705],[17.756,55.791],[18.105,55.882],[18.454,55.965],[18.803,56.041],[19.148,56.103],[19.486,56.145],[19.823,56.18],[20.154,56.201],[20.486,56.221],[20.805,56.262],[21.086,56.348],[21.342,56.477],[21.595,56.62],[21.896,56.755],[22.211,56.888],[22.562,57.014],[22.928,57.138],[23.285,57.262],[23.588,57.395],[23.79,57.544],[23.935,57.704],[24.036,57.871],[24.173,58.032],[24.311,58.193],[24.475,58.35],[24.628,58.509],[24.818,58.662],[25.023,58.812],[25.229,58.962],[25.438,59.112],[25.649,59.261],[25.874,59.408],[26.101,59.555],[26.331,59.701],[26.588,59.842],[26.859,59.981],[27.145,60.117],[27.434,60.252],[27.689,60.393],[27.884,60.546],[28.018,60.712],[28.142,60.879],[28.28,61.045],[28.419,61.21],[28.573,61.373],[28.754,61.53],[28.937,61.688],[29.11,61.847],[29.245,62.015],[29.343,62.19],[29.377,62.378],[29.424,62.564],[29.512,62.742],[29.628,62.915],[29.786,63.08],[29.946,63.245],[30.176,63.396],[30.382,63.553],[30.631,63.7],[30.897,63.845],[31.152,63.992],[31.41,64.139],[31.644,64.291],[31.908,64.436],[32.133,64.591],[32.347,64.747],[32.578,64.901],[32.926,65.03],[33.37,65.131],[33.873,65.203],[34.365,65.276],[34.84,65.36],[35.291,65.464],[35.718,65.573],[36.121,65.688],[36.568,65.776],[37.015,65.847],[37.504,65.892],[37.956,65.961],[38.414,66.043],[38.838,66.15],[39.251,66.259],[39.627,66.378],[39.977,66.503],[40.276,66.644],[40.549,66.791],[40.813,66.941],[41.065,67.095],[41.292,67.256],[41.523,67.418],[41.8,67.567],[42.096,67.711],[42.424,67.847],[42.757,67.983],[43.123,68.109],[43.421,68.256],[43.664,68.418],[43.851,68.597],[44.072,68.767],[44.296,68.937],[44.554,69.098],[44.817,69.259],[45.083,69.42],[45.308,69.593],[45.491,69.779],[45.601,69.987],[45.635,70.216],[45.565,70.457],[45.395,70.68],[45.182,70.887],[44.964,71.094],[44.808,71.327],[44.689,71.577],[44.593,71.837],[44.481,72.093],[44.338,72.337],[44.19,72.582],[44.01,72.815],[43.853,73.06],[43.692,73.305],[43.629,73.553],[43.661,73.781],[43.755,73.996],[43.911,74.199],[43.927,74.397],[43.786,74.574],[43.484,74.766],[43.169,74.967],[42.943,75.201],[42.693,75.43],[42.485,75.675],[42.269,75.92],[42.045,76.165],[41.745,76.387],[41.331,76.575],[40.854,76.745],[40.329,76.902],[39.826,77.071],[39.396,77.267],[39.057,77.498],[38.858,77.74],[38.783,77.974],[38.905,78.181],[39.147,78.373],[39.604,78.539],[40.162,78.692],[40.885,78.824],[41.684,78.946],[42.589,79.053],[43.601,79.145],[44.63,79.234],[45.646,79.324],[46.622,79.419],[47.6,79.476],[48.761,79.492]]}}]}