{"type":"FeatureCollection","properties":{"chart":"fc","src":"Z__C_EDZW_20261006060811_nwv01,ico_tkb_na_N_000108_000000_202610060000_WV12.png","valid_time":"2026-10-10T12:00:00+00:00"},"features":[{"type":"Feature","properties":{"kind":"cold","line":0,"px_len":102},"geometry":{"type":"LineString","coordinates":[[-54.57,38.211],[-54.363,38.257],[-54.194,38.34],[-54.027,38.443],[-53.866,38.548],[-53.697,38.65],[-53.534,38.755],[-53.371,38.86],[-53.206,38.964],[-53.047,39.071],[-52.887,39.177],[-52.733,39.287],[-52.578,39.396],[-52.423,39.505],[-52.254,39.608],[-52.071,39.704],[-51.868,39.791],[-51.652,39.871],[-51.416,39.941],[-51.198,40.02],[-51.018,40.117],[-50.887,40.239],[-50.776,40.371],[-50.644,40.493],[-50.512,40.614],[-50.359,40.726],[-50.212,40.841],[-50.046,40.947],[-49.865,41.045],[-49.658,41.13],[-49.444,41.211],[-49.229,41.291],[-49.02,41.375],[-48.81,41.436],[-48.607,41.48]]}},{"type":"Feature","properties":{"kind":"warm","line":0,"px_len":74},"geometry":{"type":"LineString","coordinates":[[-48.607,41.48],[-48.36,41.549],[-48.114,41.605],[-47.837,41.651],[-47.541,41.686],[-47.244,41.719],[-46.96,41.758],[-46.693,41.807],[-46.446,41.866],[-46.209,41.931],[-45.954,41.985],[-45.689,42.018],[-45.413,42.021],[-45.167,41.996],[-44.946,41.947],[-44.74,41.883],[-44.541,41.815],[-44.331,41.756],[-44.108,41.709],[-43.849,41.693],[-43.565,41.699],[-43.266,41.717],[-42.979,41.741],[-42.709,41.776],[-42.511,41.811],[-42.374,41.838]]}},{"type":"Feature","properties":{"kind":"cold","line":0,"px_len":212},"geometry":{"type":"LineString","coordinates":[[-42.374,41.838],[-42.115,41.887],[-41.884,41.939],[-41.647,41.994],[-41.422,42.056],[-41.195,42.117],[-40.974,42.182],[-40.758,42.25],[-40.541,42.318],[-40.312,42.377],[-40.071,42.427],[-39.823,42.473],[-39.558,42.505],[-39.303,42.545],[-39.083,42.608],[-38.918,42.713],[-38.77,42.83],[-38.616,42.943],[-38.455,43.052],[-38.293,43.16],[-38.119,43.259],[-37.944,43.358],[-37.751,43.444],[-37.568,43.538],[-37.374,43.623],[-37.19,43.717],[-37.0,43.805],[-36.82,43.902],[-36.628,43.99],[-36.446,44.087],[-36.263,44.182],[-36.097,44.291],[-35.93,44.4],[-35.761,44.508],[-35.581,44.607],[-35.394,44.702],[-35.206,44.795],[-35.018,44.889],[-34.834,44.987],[-34.683,45.111],[-34.575,45.272],[-34.489,45.452],[-34.402,45.631],[-34.315,45.811],[-34.227,45.99],[-34.126,46.161],[-34.019,46.327],[-33.917,46.498],[-33.82,46.673],[-33.733,46.858],[-33.656,47.053],[-33.603,47.266],[-33.536,47.471],[-33.458,47.666],[-33.361,47.847],[-33.264,48.028],[-33.21,48.217],[-33.238,48.385],[-33.355,48.536],[-33.515,48.665],[-33.655,48.804],[-33.796,48.944],[-33.924,49.092],[-34.06,49.235],[-34.175,49.391],[-34.284,49.551],[-34.387,49.714],[-34.483,49.882],[-34.566,50.058],[-34.605,50.25],[-34.602,50.4],[-34.562,50.504]]}},{"type":"Feature","properties":{"kind":"warm","line":0,"px_len":219},"geometry":{"type":"LineString","coordinates":[[-34.562,50.504],[-34.45,50.689],[-34.306,50.833],[-34.108,50.947],[-33.871,51.032],[-33.627,51.112],[-33.381,51.191],[-33.127,51.265],[-32.861,51.328],[-32.593,51.391],[-32.324,51.452],[-32.054,51.513],[-31.765,51.559],[-31.456,51.588],[-31.126,51.579],[-30.811,51.539],[-30.526,51.46],[-30.284,51.361],[-30.058,51.255],[-29.851,51.14],[-29.628,51.033],[-29.407,50.925],[-29.163,50.827],[-28.912,50.732],[-28.654,50.641],[-28.389,50.552],[-28.142,50.455],[-27.905,50.355],[-27.677,50.25],[-27.45,50.145],[-27.2,50.049],[-26.943,49.957],[-26.672,49.87],[-26.401,49.783],[-26.116,49.701],[-25.824,49.622],[-25.549,49.536],[-25.317,49.432],[-25.142,49.306],[-25.001,49.166],[-24.877,49.02],[-24.746,48.877],[-24.592,48.743],[-24.439,48.61],[-24.264,48.485],[-24.105,48.354],[-23.915,48.235],[-23.727,48.116],[-23.508,48.009],[-23.29,47.901],[-23.057,47.799],[-22.81,47.702],[-22.54,47.613],[-22.24,47.536],[-21.937,47.479],[-21.632,47.443],[-21.328,47.406],[-21.036,47.343],[-20.764,47.252],[-20.55,47.141],[-20.362,47.021],[-20.198,46.892],[-20.028,46.767],[-19.859,46.641],[-19.667,46.522],[-19.444,46.414],[-19.175,46.321],[-18.875,46.237],[-18.561,46.158],[-18.255,46.088],[-17.954,46.023],[-17.664,45.973],[-17.414,45.938],[-17.204,45.922]]}},{"type":"Feature","properties":{"kind":"cold","line":0,"px_len":277},"geometry":{"type":"LineString","coordinates":[[-17.204,45.922],[-16.912,45.877],[-16.65,45.85],[-16.383,45.829],[-16.12,45.813],[-15.857,45.797],[-15.601,45.79],[-15.348,45.789],[-15.099,45.792],[-14.849,45.795],[-14.599,45.796],[-14.346,45.792],[-14.088,45.775],[-13.823,45.746],[-13.556,45.711],[-13.287,45.669],[-13.032,45.654],[-12.8,45.685],[-12.585,45.749],[-12.368,45.813],[-12.146,45.865],[-11.923,45.916],[-11.699,45.966],[-11.475,46.016],[-11.251,46.066],[-11.018,46.097],[-10.784,46.128],[-10.551,46.158],[-10.319,46.193],[-10.085,46.222],[-9.85,46.25],[-9.619,46.289],[-9.391,46.334],[-9.162,46.377],[-8.933,46.421],[-8.698,46.451],[-8.461,46.476],[-8.224,46.499],[-7.991,46.534],[-7.759,46.574],[-7.527,46.613],[-7.294,46.652],[-7.057,46.678],[-6.818,46.697],[-6.575,46.704],[-6.333,46.717],[-6.089,46.722],[-5.853,46.751],[-5.624,46.803],[-5.403,46.884],[-5.181,46.965],[-4.956,47.039],[-4.729,47.106],[-4.498,47.161],[-4.263,47.203],[-4.029,47.251],[-3.794,47.298],[-3.559,47.344],[-3.318,47.372],[-3.082,47.417],[-2.845,47.461],[-2.608,47.505],[-2.369,47.542],[-2.131,47.585],[-1.893,47.633],[-1.655,47.68],[-1.415,47.72],[-1.177,47.772],[-0.936,47.811],[-0.698,47.868],[-0.456,47.906],[-0.213,47.943],[0.033,47.961],[0.279,47.979],[0.526,47.996],[0.775,47.993],[1.022,48.009],[1.264,48.06],[1.5,48.166],[1.736,48.283],[1.973,48.4],[2.212,48.51],[2.455,48.608],[2.699,48.692],[2.946,48.763],[3.193,48.84],[3.441,48.917],[3.689,48.998],[3.939,49.086],[4.189,49.185],[4.439,49.289],[4.682,49.393],[4.945,49.508]]}},{"type":"Feature","properties":{"kind":"occl","line":0,"px_len":412},"geometry":{"type":"LineString","coordinates":[[4.945,49.508],[5.209,49.636],[5.456,49.756],[5.714,49.889],[5.973,50.02],[6.235,50.151],[6.498,50.275],[6.763,50.374],[7.029,50.459],[7.296,50.525],[7.563,50.59],[7.793,50.674],[7.987,50.795],[8.164,50.954],[8.362,51.119],[8.593,51.282],[8.825,51.433],[9.078,51.576],[9.344,51.719],[9.603,51.874],[9.803,52.036],[9.913,52.203],[9.993,52.37],[10.063,52.538],[10.145,52.706],[10.227,52.874],[10.321,53.041],[10.447,53.207],[10.585,53.373],[10.746,53.537],[10.897,53.702],[11.04,53.868],[11.172,54.034],[11.307,54.2],[11.431,54.366],[11.535,54.534],[11.64,54.701],[11.746,54.869],[11.853,55.037],[11.973,55.204],[12.116,55.37],[12.272,55.535],[12.44,55.699],[12.554,55.867],[12.623,56.038],[12.635,56.212],[12.658,56.386],[12.694,56.559],[12.73,56.733],[12.766,56.906],[12.803,57.08],[12.876,57.252],[12.95,57.423],[13.0,57.597],[12.955,57.776],[12.847,57.96],[12.702,58.146],[12.555,58.332],[12.394,58.518],[12.255,58.703],[12.128,58.888],[12.024,59.071],[11.906,59.254],[11.787,59.438],[11.653,59.623],[11.491,59.808],[11.302,59.995],[11.096,60.182],[10.861,60.37],[10.624,60.558],[10.342,60.747],[10.07,60.935],[9.795,61.122],[9.585,61.307],[9.399,61.491],[9.253,61.674],[9.09,61.851],[8.865,61.995],[8.55,62.108],[8.172,62.188],[7.793,62.266],[7.411,62.357],[7.028,62.466],[6.642,62.588],[6.252,62.702],[5.859,62.801],[5.464,62.866],[5.069,62.897],[4.675,62.879],[4.282,62.854],[3.891,62.827],[3.497,62.819],[3.105,62.81],[2.712,62.8],[2.32,62.788],[1.927,62.782],[1.532,62.788],[1.134,62.806],[0.734,62.829],[0.332,62.858],[-0.072,62.892],[-0.481,62.938],[-0.893,62.989],[-1.309,63.045],[-1.726,63.1],[-2.146,63.154],[-2.569,63.213],[-2.996,63.277],[-3.426,63.34],[-3.857,63.401],[-4.285,63.448],[-4.712,63.486],[-5.135,63.511],[-5.555,63.527],[-5.975,63.542],[-6.393,63.549],[-6.811,63.554],[-7.236,63.572],[-7.687,63.633],[-8.151,63.739],[-8.606,63.874],[-9.021,64.012],[-9.456,64.147],[-9.925,64.277],[-10.439,64.393],[-10.948,64.494],[-11.373,64.606],[-11.716,64.735],[-11.968,64.89],[-12.193,65.05],[-12.42,65.209],[-12.651,65.368],[-12.947,65.518],[-13.261,65.665],[-13.626,65.804],[-14.01,65.941],[-14.332,66.079],[-14.543,66.249]]}},{"type":"Feature","properties":{"kind":"cold","line":1,"px_len":285},"geometry":{"type":"LineString","coordinates":[[28.106,45.709],[28.389,45.746],[28.666,45.804],[28.953,45.858],[29.247,45.923],[29.535,45.976],[29.828,46.033],[30.121,46.089],[30.411,46.138],[30.706,46.192],[30.991,46.229],[31.264,46.248],[31.527,46.249],[31.783,46.239],[32.034,46.223],[32.277,46.222],[32.497,46.269],[32.689,46.372],[32.866,46.495],[33.053,46.614],[33.28,46.719],[33.524,46.818],[33.809,46.902],[34.087,46.988],[34.374,47.07],[34.647,47.157],[34.929,47.241],[35.204,47.326],[35.473,47.414],[35.735,47.504],[35.982,47.599],[36.238,47.69],[36.496,47.781],[36.778,47.862],[37.054,47.945],[37.34,48.001],[37.643,48.051],[37.948,48.077],[38.205,48.144],[38.393,48.24],[38.55,48.37],[38.708,48.501],[38.89,48.621],[39.066,48.744],[39.259,48.861],[39.461,48.973],[39.687,49.075],[39.915,49.177],[40.144,49.277],[40.367,49.381],[40.591,49.485],[40.808,49.591],[41.026,49.697],[41.245,49.803],[41.466,49.908],[41.688,50.012],[41.904,50.12],[42.121,50.227],[42.346,50.33],[42.581,50.429],[42.834,50.52],[43.095,50.606],[43.381,50.681],[43.676,50.75],[43.964,50.823],[44.183,50.93],[44.357,51.059],[44.5,51.203],[44.668,51.336],[44.861,51.457],[45.055,51.577],[45.258,51.693],[45.455,51.813],[45.669,51.924],[45.892,52.031],[46.117,52.138],[46.335,52.248],[46.554,52.358],[46.767,52.471],[46.989,52.58],[47.205,52.692],[47.43,52.8],[47.64,52.916],[47.868,53.023],[48.082,53.138],[48.328,53.235],[48.576,53.332],[48.848,53.416],[49.114,53.503],[49.39,53.585],[49.682,53.658],[50.014,53.707],[50.386,53.733],[50.751,53.763],[51.002,53.831],[51.131,53.944]]}},{"type":"Feature","properties":{"kind":"stat","line":1,"px_len":41},"geometry":{"type":"LineString","coordinates":[[51.131,53.944],[51.223,54.142],[51.301,54.332],[51.395,54.521],[51.513,54.697],[51.641,54.869],[51.777,55.036],[51.923,55.198],[52.079,55.356],[52.227,55.518],[52.378,55.68],[52.522,55.847],[52.691,55.999],[52.812,56.125],[52.898,56.215]]}},{"type":"Feature","properties":{"kind":"occl","line":1,"px_len":404},"geometry":{"type":"LineString","coordinates":[[52.898,56.215],[53.104,56.357],[53.294,56.491],[53.486,56.633],[53.688,56.77],[53.884,56.912],[54.098,57.044],[54.322,57.171],[54.563,57.287],[54.83,57.389],[55.091,57.494],[55.322,57.619],[55.491,57.783],[55.646,57.957],[55.819,58.12],[56.009,58.274],[56.226,58.412],[56.437,58.555],[56.657,58.693],[56.84,58.856],[57.017,59.023],[57.155,59.216],[57.253,59.425],[57.291,59.651],[57.322,59.883],[57.389,60.104],[57.493,60.323],[57.608,60.537],[57.741,60.741],[57.893,60.934],[58.09,61.101],[58.305,61.258],[58.549,61.399],[58.787,61.544],[59.018,61.695],[59.146,61.857],[59.19,62.039],[59.172,62.248],[59.167,62.472],[59.198,62.707],[59.258,62.936],[59.352,63.168],[59.424,63.392],[59.406,63.603],[59.283,63.787],[59.073,63.943],[58.786,64.075],[58.461,64.194],[58.084,64.295],[57.703,64.396],[57.332,64.499],[56.97,64.606],[56.592,64.707],[56.175,64.795],[55.707,64.864],[55.189,64.914],[54.621,64.943],[54.028,64.962],[53.434,64.978],[52.875,65.005],[52.337,65.039],[51.797,65.061],[51.245,65.058],[50.716,65.024],[50.224,64.974],[49.721,64.926],[49.207,64.91],[48.647,64.91],[48.099,64.904],[47.555,64.866],[47.049,64.814],[46.557,64.755],[46.067,64.694],[45.568,64.636],[45.059,64.58],[44.516,64.534],[43.999,64.479],[43.559,64.397],[43.208,64.285],[42.872,64.168],[42.503,64.063],[42.124,63.96],[41.712,63.868],[41.277,63.783],[40.796,63.711],[40.368,63.623],[39.98,63.522],[39.645,63.405],[39.325,63.284],[39.008,63.162],[38.694,63.039],[38.321,62.933],[37.914,62.837],[37.473,62.75],[37.048,62.658],[36.587,62.574],[36.13,62.489],[35.651,62.409],[35.212,62.317],[34.789,62.221],[34.419,62.111],[34.089,61.99],[33.787,61.862],[33.463,61.74],[33.093,61.629],[32.651,61.535],[32.199,61.471],[31.748,61.436],[31.327,61.429],[30.907,61.42],[30.475,61.398],[30.028,61.356],[29.56,61.288],[29.1,61.224],[28.663,61.183],[28.273,61.196],[27.904,61.232],[27.539,61.272],[27.157,61.294],[26.771,61.308],[26.379,61.314],[25.987,61.319],[25.595,61.323],[25.207,61.332],[24.819,61.339],[24.439,61.358],[24.059,61.375],[23.683,61.398],[23.306,61.42],[22.929,61.44],[22.555,61.465],[22.176,61.483],[21.8,61.507],[21.428,61.535],[21.143,61.565],[20.941,61.59]]}},{"type":"Feature","properties":{"kind":"warm","line":2,"px_len":99},"geometry":{"type":"LineString","coordinates":[[52.053,46.955],[51.936,47.115],[51.824,47.263],[51.724,47.428],[51.656,47.615],[51.6,47.81],[51.57,48.023],[51.566,48.236],[51.587,48.457],[51.61,48.68],[51.605,48.902],[51.561,49.108],[51.469,49.283],[51.348,49.441],[51.227,49.599],[51.118,49.766],[51.016,49.937],[50.939,50.126],[50.896,50.338],[50.887,50.572],[50.899,50.801],[50.918,51.027],[50.959,51.24],[51.001,51.453],[51.05,51.662],[51.092,51.875],[51.142,52.085],[51.185,52.299],[51.229,52.513],[51.252,52.741],[51.267,52.974],[51.26,53.211],[51.215,53.4],[51.132,53.539]]}},{"type":"Feature","properties":{"kind":"cold","line":3,"px_len":393},"geometry":{"type":"LineString","coordinates":[[-59.58,40.168],[-59.357,40.192],[-59.173,40.262],[-59.001,40.368],[-58.831,40.481],[-58.647,40.588],[-58.454,40.693],[-58.254,40.795],[-58.06,40.899],[-57.865,41.003],[-57.683,41.111],[-57.493,41.216],[-57.302,41.321],[-57.089,41.418],[-56.875,41.514],[-56.647,41.604],[-56.41,41.691],[-56.152,41.77],[-55.934,41.863],[-55.771,41.979],[-55.664,42.116],[-55.562,42.256],[-55.453,42.394],[-55.329,42.525],[-55.198,42.654],[-55.058,42.78],[-54.925,42.909],[-54.784,43.034],[-54.642,43.16],[-54.499,43.285],[-54.355,43.41],[-54.217,43.538],[-54.086,43.669],[-53.947,43.797],[-53.814,43.928],[-53.68,44.058],[-53.56,44.195],[-53.425,44.325],[-53.288,44.455],[-53.159,44.588],[-53.042,44.728],[-52.903,44.858],[-52.764,44.987],[-52.623,45.117],[-52.489,45.25],[-52.339,45.376],[-52.166,45.493],[-51.985,45.606],[-51.818,45.726],[-51.693,45.864],[-51.613,46.022],[-51.546,46.186],[-51.471,46.347],[-51.374,46.499],[-51.26,46.644],[-51.154,46.792],[-51.046,46.941],[-50.938,47.089],[-50.806,47.227],[-50.696,47.376],[-50.585,47.524],[-50.489,47.679],[-50.376,47.827],[-50.27,47.979],[-50.164,48.131],[-50.056,48.283],[-49.955,48.438],[-49.854,48.593],[-49.752,48.748],[-49.649,48.904],[-49.537,49.056],[-49.432,49.211],[-49.303,49.356],[-49.18,49.504],[-49.041,49.646],[-48.909,49.79],[-48.76,49.928],[-48.649,50.083],[-48.593,50.264],[-48.593,50.47],[-48.592,50.676],[-48.576,50.875],[-48.542,51.067],[-48.501,51.256],[-48.459,51.445],[-48.408,51.63],[-48.348,51.813],[-48.297,51.998],[-48.253,52.188],[-48.216,52.382],[-48.18,52.576],[-48.126,52.762],[-48.071,52.949],[-47.991,53.125],[-47.909,53.301],[-47.809,53.47],[-47.708,53.638],[-47.648,53.817],[-47.686,53.991],[-47.81,54.162],[-47.966,54.331],[-48.103,54.514],[-48.211,54.724],[-48.282,54.942],[-48.325,55.172],[-48.369,55.403],[-48.451,55.625],[-48.545,55.852],[-48.639,56.078],[-48.735,56.305],[-48.839,56.527],[-48.959,56.738],[-49.079,56.949],[-49.195,57.166],[-49.268,57.383],[-49.293,57.604],[-49.338,57.81],[-49.477,57.979],[-49.71,58.11],[-49.973,58.219],[-50.231,58.333],[-50.49,58.446],[-50.759,58.554],[-51.023,58.666],[-51.275,58.789],[-51.509,58.928],[-51.745,59.066],[-51.977,59.209],[-52.217,59.347],[-52.46,59.484],[-52.699,59.588],[-52.932,59.659]]}},{"type":"Feature","properties":{"kind":"occl","line":3,"px_len":245},"geometry":{"type":"LineString","coordinates":[[-52.932,59.659],[-53.272,59.73],[-53.585,59.8],[-53.903,59.877],[-54.223,59.954],[-54.552,60.024],[-54.882,60.093],[-55.216,60.131],[-55.589,60.12],[-56.017,60.054],[-56.484,59.976],[-56.961,59.899],[-57.435,59.82],[-57.906,59.739],[-58.34,59.647],[-58.735,59.546],[-59.046,59.424],[-59.261,59.279],[-59.404,59.118],[-59.522,58.952],[-59.662,58.791],[-59.801,58.63],[-59.938,58.469],[-60.073,58.308],[-60.208,58.147],[-60.351,57.988],[-60.516,57.834],[-60.68,57.681],[-60.83,57.524],[-60.957,57.363],[-61.06,57.196],[-61.152,57.028],[-61.242,56.859],[-61.353,56.695],[-61.463,56.531],[-61.55,56.362],[-61.637,56.194],[-61.711,56.023],[-61.796,55.854],[-61.869,55.684],[-61.941,55.513],[-62.023,55.345],[-62.084,55.172],[-62.133,54.997],[-62.151,54.815],[-62.158,54.631],[-62.155,54.444],[-62.152,54.258],[-62.18,54.079],[-62.257,53.912],[-62.384,53.757],[-62.549,53.611],[-62.714,53.465],[-62.876,53.318],[-63.008,53.165],[-63.138,53.011],[-63.268,52.858],[-63.396,52.705],[-63.523,52.551],[-63.707,52.411],[-63.977,52.289],[-64.323,52.184],[-64.657,52.076],[-64.979,51.964],[-65.299,51.851],[-65.637,51.741],[-65.982,51.632],[-66.325,51.522],[-66.665,51.411],[-66.995,51.316],[-67.318,51.233],[-67.633,51.16],[-67.944,51.092],[-68.249,51.035],[-68.548,50.99],[-68.843,50.949],[-69.136,50.914],[-69.425,50.883],[-69.716,50.846],[-70.006,50.808],[-70.298,50.763],[-70.525,50.726],[-70.69,50.693]]}},{"type":"Feature","properties":{"kind":"warm","line":4,"px_len":167},"geometry":{"type":"LineString","coordinates":[[-32.023,62.501],[-32.432,62.589],[-32.837,62.661],[-33.264,62.733],[-33.672,62.812],[-34.059,62.898],[-34.427,62.991],[-34.775,63.093],[-35.115,63.198],[-35.447,63.306],[-35.759,63.423],[-36.096,63.529],[-36.503,63.608],[-37.01,63.644],[-37.543,63.641],[-38.023,63.603],[-38.448,63.538],[-38.851,63.463],[-39.251,63.387],[-39.68,63.323],[-40.129,63.268],[-40.609,63.224],[-41.086,63.179],[-41.562,63.131],[-42.037,63.082],[-42.498,63.027],[-42.957,62.97],[-43.415,62.912],[-43.859,62.848],[-44.301,62.782],[-44.752,62.718],[-45.234,62.666],[-45.749,62.624],[-46.285,62.588],[-46.831,62.554],[-47.341,62.505],[-47.803,62.439],[-48.169,62.34],[-48.462,62.217],[-48.695,62.075],[-48.914,61.928],[-49.13,61.781],[-49.344,61.634],[-49.556,61.486],[-49.766,61.338],[-49.996,61.198],[-50.235,61.06],[-50.483,60.926],[-50.729,60.791],[-50.961,60.653],[-51.179,60.51],[-51.373,60.36],[-51.587,60.217],[-51.81,60.077],[-52.054,59.944],[-52.243,59.84],[-52.389,59.77]]}}]}