{"type":"FeatureCollection","properties":{"chart":"fc","src":"Z__C_EDZW_20261004053650_nwv01,ico_tkb_na_N_000108_000000_202610040000_WV12.png","valid_time":"2026-10-08T12:00:00+00:00"},"features":[{"type":"Feature","properties":{"kind":"cold","line":0,"px_len":320},"geometry":{"type":"LineString","coordinates":[[1.262,35.798],[1.455,35.811],[1.633,35.823],[1.818,35.84],[2.002,35.868],[2.186,35.896],[2.371,35.917],[2.557,35.927],[2.743,35.936],[2.929,35.945],[3.115,35.954],[3.302,35.962],[3.488,35.969],[3.674,35.976],[3.861,35.982],[4.047,35.988],[4.234,35.994],[4.42,35.998],[4.607,35.986],[4.795,35.962],[4.982,35.938],[5.168,35.963],[5.353,36.021],[5.539,36.107],[5.725,36.182],[5.912,36.25],[6.1,36.306],[6.288,36.357],[6.476,36.401],[6.665,36.445],[6.854,36.483],[7.043,36.526],[7.233,36.569],[7.424,36.622],[7.614,36.675],[7.806,36.727],[7.997,36.773],[8.189,36.824],[8.383,36.886],[8.576,36.948],[8.77,37.009],[8.965,37.069],[9.16,37.13],[9.356,37.183],[9.55,37.22],[9.744,37.25],[9.939,37.274],[10.133,37.298],[10.328,37.327],[10.504,37.379],[10.656,37.472],[10.798,37.6],[10.95,37.743],[11.123,37.88],[11.311,38.004],[11.513,38.121],[11.723,38.231],[11.936,38.353],[12.128,38.481],[12.323,38.62],[12.498,38.761],[12.673,38.901],[12.828,39.043],[12.969,39.186],[13.118,39.329],[13.247,39.474],[13.398,39.616],[13.542,39.759],[13.71,39.899],[13.894,40.038],[14.079,40.171],[14.262,40.292],[14.378,40.42],[14.436,40.56],[14.458,40.716],[14.465,40.875],[14.51,41.029],[14.548,41.184],[14.602,41.337],[14.648,41.492],[14.703,41.646],[14.757,41.8],[14.797,41.956],[14.845,42.111],[14.877,42.268],[14.909,42.426],[14.926,42.585],[14.951,42.744],[14.961,42.904],[14.962,43.066],[14.955,43.229],[14.965,43.39],[14.958,43.553],[14.967,43.715],[14.952,43.879],[14.962,44.041],[14.963,44.204],[14.917,44.343],[14.788,44.454],[14.587,44.548],[14.377,44.648],[14.168,44.754],[13.959,44.865],[13.75,44.982],[13.543,45.117],[13.337,45.263],[13.177,45.386],[13.064,45.481]]}},{"type":"Feature","properties":{"kind":"warm","line":0,"px_len":64},"geometry":{"type":"LineString","coordinates":[[13.064,45.481],[13.153,45.643],[13.232,45.795],[13.286,45.955],[13.333,46.116],[13.388,46.276],[13.444,46.436],[13.527,46.594],[13.584,46.755],[13.651,46.915],[13.735,47.074],[13.883,47.226],[14.095,47.373],[14.335,47.517],[14.568,47.662],[14.775,47.808],[14.948,47.958],[15.095,48.111],[15.216,48.266],[15.319,48.423],[15.394,48.577],[15.455,48.746]]}},{"type":"Feature","properties":{"kind":"cold","line":0,"px_len":127},"geometry":{"type":"LineString","coordinates":[[15.455,48.746],[15.562,48.91],[15.648,49.063],[15.718,49.225],[15.789,49.387],[15.832,49.552],[15.875,49.717],[15.948,49.879],[16.03,50.04],[16.133,50.2],[16.236,50.359],[16.33,50.519],[16.358,50.687],[16.308,50.864],[16.217,51.046],[16.126,51.228],[16.054,51.408],[15.982,51.588],[15.928,51.766],[15.884,51.943],[15.85,52.119],[15.815,52.295],[15.78,52.472],[15.745,52.648],[15.698,52.826],[15.642,53.005],[15.594,53.183],[15.568,53.36],[15.562,53.534],[15.546,53.71],[15.55,53.883],[15.544,54.058],[15.49,54.219],[15.331,54.363],[15.085,54.483],[14.817,54.604],[14.552,54.749],[14.293,54.926],[14.058,55.12],[13.876,55.309],[13.749,55.493],[13.697,55.666],[13.694,55.848]]}},{"type":"Feature","properties":{"kind":"warm","line":1,"px_len":493},"geometry":{"type":"LineString","coordinates":[[50.977,46.223],[50.746,46.304],[50.54,46.384],[50.32,46.464],[50.088,46.534],[49.854,46.604],[49.62,46.673],[49.396,46.75],[49.178,46.831],[48.966,46.916],[48.746,46.996],[48.531,47.081],[48.316,47.164],[48.111,47.256],[47.9,47.344],[47.7,47.44],[47.498,47.535],[47.296,47.63],[47.092,47.725],[46.894,47.824],[46.707,47.931],[46.518,48.039],[46.334,48.151],[46.161,48.272],[45.987,48.392],[45.824,48.522],[45.654,48.647],[45.5,48.786],[45.357,48.935],[45.231,49.098],[45.11,49.265],[44.981,49.428],[44.828,49.572],[44.631,49.681],[44.41,49.77],[44.188,49.859],[43.982,49.962],[43.775,50.065],[43.567,50.167],[43.358,50.269],[43.159,50.38],[42.971,50.501],[42.799,50.637],[42.626,50.773],[42.458,50.913],[42.288,51.053],[42.123,51.198],[41.956,51.343],[41.788,51.488],[41.619,51.632],[41.454,51.782],[41.288,51.931],[41.12,52.08],[40.951,52.229],[40.793,52.388],[40.65,52.563],[40.524,52.754],[40.408,52.954],[40.326,53.164],[40.281,53.374],[40.257,53.591],[40.209,53.809],[40.115,54.024],[39.974,54.209],[39.795,54.363],[39.59,54.496],[39.383,54.628],[39.187,54.771],[38.995,54.918],[38.814,55.076],[38.643,55.245],[38.488,55.43],[38.344,55.626],[38.204,55.827],[38.062,56.029],[37.919,56.23],[37.767,56.426],[37.614,56.622],[37.452,56.812],[37.282,56.996],[37.111,57.181],[36.931,57.36],[36.755,57.544],[36.565,57.717],[36.379,57.895],[36.191,58.074],[36.018,58.269],[35.844,58.464],[35.686,58.676],[35.538,58.899],[35.394,59.128],[35.223,59.334],[34.993,59.489],[34.717,59.602],[34.403,59.681],[34.074,59.747],[33.744,59.812],[33.424,59.887],[33.115,59.974],[32.798,60.054],[32.491,60.145],[32.182,60.235],[31.882,60.336],[31.575,60.43],[31.265,60.524],[30.948,60.611],[30.618,60.685],[30.286,60.758],[29.952,60.83],[29.617,60.902],[29.28,60.972],[28.925,61.023],[28.569,61.073],[28.207,61.116],[27.848,61.164],[27.484,61.205],[27.113,61.238],[26.751,61.283],[26.393,61.332],[26.043,61.394],[25.682,61.441],[25.315,61.482],[24.947,61.521],[24.592,61.578],[24.226,61.621],[23.834,61.625],[23.435,61.574],[23.027,61.481],[22.65,61.362],[22.281,61.228],[21.93,61.091],[21.555,60.956],[21.145,60.826],[20.723,60.716],[20.291,60.607],[19.862,60.496],[19.428,60.364],[19.011,60.23],[18.623,60.091],[18.239,59.951],[17.885,59.807],[17.508,59.665],[17.136,59.521],[16.736,59.4],[16.344,59.289],[15.963,59.204],[15.585,59.117],[15.23,59.014],[14.882,58.883],[14.607,58.726],[14.421,58.562],[14.336,58.39],[14.289,58.216],[14.242,58.042],[14.16,57.871],[14.078,57.699],[13.962,57.531],[13.882,57.36],[13.779,57.191],[13.702,57.02],[13.625,56.849],[13.572,56.677],[13.543,56.503],[13.539,56.334],[13.555,56.15]]}},{"type":"Feature","properties":{"kind":"warm","line":2,"px_len":199},"geometry":{"type":"LineString","coordinates":[[-54.343,38.111],[-54.23,38.244],[-54.118,38.365],[-54.001,38.49],[-53.884,38.615],[-53.772,38.744],[-53.673,38.877],[-53.573,39.011],[-53.485,39.151],[-53.383,39.285],[-53.314,39.434],[-53.237,39.579],[-53.173,39.731],[-53.088,39.874],[-52.971,40.002],[-52.814,40.113],[-52.624,40.208],[-52.44,40.305],[-52.248,40.4],[-52.062,40.497],[-51.882,40.596],[-51.713,40.702],[-51.57,40.819],[-51.42,40.934],[-51.282,41.054],[-51.13,41.168],[-50.984,41.285],[-50.83,41.399],[-50.676,41.512],[-50.521,41.625],[-50.365,41.738],[-50.208,41.851],[-50.044,41.96],[-49.879,42.069],[-49.72,42.181],[-49.58,42.303],[-49.452,42.431],[-49.316,42.556],[-49.187,42.684],[-49.056,42.812],[-48.945,42.95],[-48.8,43.071],[-48.621,43.174],[-48.394,43.254],[-48.133,43.315],[-47.845,43.362],[-47.556,43.407],[-47.287,43.462],[-47.043,43.531],[-46.811,43.606],[-46.592,43.688],[-46.378,43.772],[-46.17,43.86],[-45.962,43.947],[-45.758,44.037],[-45.554,44.127],[-45.356,44.221],[-45.157,44.313],[-44.956,44.406],[-44.755,44.498],[-44.553,44.589],[-44.357,44.684],[-44.166,44.782],[-43.981,44.884],[-43.795,44.985],[-43.619,45.085],[-43.439,45.198]]}},{"type":"Feature","properties":{"kind":"cold","line":2,"px_len":357},"geometry":{"type":"LineString","coordinates":[[-43.439,45.198],[-43.238,45.299],[-43.054,45.395],[-42.869,45.498],[-42.684,45.601],[-42.504,45.708],[-42.323,45.815],[-42.148,45.925],[-41.959,46.027],[-41.782,46.136],[-41.604,46.246],[-41.425,46.355],[-41.245,46.463],[-41.064,46.572],[-40.888,46.684],[-40.705,46.792],[-40.521,46.899],[-40.349,47.015],[-40.169,47.126],[-39.982,47.232],[-39.794,47.338],[-39.611,47.448],[-39.408,47.545],[-39.184,47.629],[-38.947,47.703],[-38.721,47.786],[-38.527,47.889],[-38.364,48.015],[-38.212,48.148],[-38.06,48.282],[-37.9,48.411],[-37.739,48.54],[-37.564,48.66],[-37.381,48.775],[-37.198,48.889],[-37.013,49.004],[-36.814,49.109],[-36.607,49.209],[-36.4,49.309],[-36.204,49.417],[-36.014,49.53],[-35.822,49.642],[-35.629,49.754],[-35.416,49.852],[-35.201,49.949],[-34.986,50.046],[-34.788,50.157],[-34.59,50.267],[-34.39,50.376],[-34.189,50.486],[-33.986,50.595],[-33.789,50.708],[-33.604,50.831],[-33.417,50.953],[-33.222,51.07],[-33.013,51.178],[-32.785,51.27],[-32.555,51.361],[-32.318,51.448],[-32.085,51.538],[-31.865,51.638],[-31.674,51.762],[-31.525,51.921],[-31.381,52.085],[-31.236,52.249],[-31.077,52.402],[-30.917,52.556],[-30.743,52.699],[-30.561,52.837],[-30.371,52.969],[-30.186,53.107],[-29.999,53.244],[-29.811,53.381],[-29.622,53.517],[-29.431,53.654],[-29.245,53.795],[-29.057,53.936],[-28.874,54.082],[-28.689,54.228],[-28.503,54.373],[-28.321,54.524],[-28.131,54.669],[-27.934,54.808],[-27.728,54.942],[-27.515,55.07],[-27.287,55.188],[-27.052,55.299],[-26.815,55.41],[-26.595,55.537],[-26.436,55.694],[-26.325,55.871],[-26.257,56.063],[-26.163,56.257],[-26.047,56.458],[-25.91,56.666],[-25.753,56.857],[-25.594,57.048],[-25.426,57.234],[-25.262,57.425],[-25.103,57.622],[-24.955,57.83],[-24.811,58.043],[-24.671,58.262],[-24.535,58.487],[-24.404,58.717],[-24.264,58.942],[-24.122,59.167],[-23.978,59.392],[-23.825,59.611],[-23.638,59.802],[-23.428,59.975],[-23.197,60.131],[-22.962,60.287],[-22.732,60.448],[-22.519,60.626],[-22.296,60.798],[-22.057,60.959],[-21.797,61.101],[-21.564,61.228],[-21.353,61.333]]}},{"type":"Feature","properties":{"kind":"warm","line":2,"px_len":160},"geometry":{"type":"LineString","coordinates":[[-21.353,61.333],[-21.092,61.495],[-20.783,61.585],[-20.385,61.607],[-19.931,61.544],[-19.518,61.441],[-19.171,61.322],[-18.876,61.192],[-18.596,61.058],[-18.343,60.918],[-18.093,60.778],[-17.858,60.634],[-17.626,60.49],[-17.407,60.343],[-17.204,60.193],[-17.002,60.043],[-16.803,59.893],[-16.593,59.745],[-16.374,59.599],[-16.157,59.453],[-15.93,59.309],[-15.705,59.165],[-15.471,59.023],[-15.263,58.875],[-15.103,58.718],[-15.016,58.547],[-14.975,58.366],[-14.97,58.178],[-14.976,57.988],[-14.994,57.796],[-14.988,57.609],[-14.972,57.425],[-14.944,57.242],[-14.928,57.058],[-14.879,56.881],[-14.82,56.706],[-14.739,56.536],[-14.67,56.364],[-14.58,56.197],[-14.502,56.027],[-14.404,55.862],[-14.284,55.702],[-14.188,55.537],[-14.166,55.356],[-14.24,55.156],[-14.347,54.955],[-14.472,54.764],[-14.585,54.575],[-14.683,54.382],[-14.761,54.18],[-14.818,53.983],[-14.855,53.791],[-14.865,53.611],[-14.857,53.422]]}},{"type":"Feature","properties":{"kind":"occl","line":3,"px_len":130},"geometry":{"type":"LineString","coordinates":[[-20.806,61.869],[-21.012,62.029],[-21.219,62.173],[-21.434,62.323],[-21.627,62.478],[-21.81,62.637],[-21.994,62.795],[-22.181,62.954],[-22.37,63.112],[-22.536,63.276],[-22.664,63.45],[-22.768,63.631],[-22.86,63.814],[-22.953,63.998],[-23.035,64.185],[-23.131,64.369],[-23.228,64.553],[-23.341,64.734],[-23.469,64.911],[-23.599,65.088],[-23.731,65.266],[-23.837,65.45],[-23.958,65.631],[-24.125,65.802],[-24.379,65.952],[-24.693,66.087],[-25.04,66.215],[-25.376,66.346],[-25.716,66.476],[-26.046,66.609],[-26.365,66.745],[-26.702,66.877],[-27.072,67.0],[-27.548,67.097],[-28.114,67.169],[-28.716,67.197],[-29.303,67.202],[-29.869,67.194],[-30.463,67.21],[-31.061,67.247],[-31.656,67.301],[-32.225,67.361],[-32.745,67.427],[-33.291,67.501]]}},{"type":"Feature","properties":{"kind":"occl","line":4,"px_len":401},"geometry":{"type":"LineString","coordinates":[[71.433,55.318],[71.228,55.462],[71.052,55.6],[70.89,55.749],[70.726,55.897],[70.571,56.049],[70.404,56.197],[70.236,56.345],[70.087,56.499],[69.947,56.656],[69.817,56.815],[69.706,56.98],[69.594,57.146],[69.471,57.308],[69.356,57.473],[69.273,57.647],[69.233,57.833],[69.214,58.025],[69.217,58.223],[69.208,58.419],[69.155,58.602],[69.057,58.774],[68.945,58.943],[68.844,59.115],[68.765,59.293],[68.719,59.48],[68.719,59.68],[68.706,59.877],[68.636,60.058],[68.494,60.222],[68.362,60.388],[68.228,60.555],[68.093,60.721],[67.945,60.884],[67.806,61.051],[67.702,61.226],[67.597,61.402],[67.503,61.581],[67.407,61.76],[67.311,61.939],[67.225,62.122],[67.125,62.301],[67.012,62.477],[66.897,62.653],[66.781,62.83],[66.663,63.006],[66.543,63.182],[66.409,63.355],[66.312,63.538],[66.24,63.727],[66.193,63.924],[66.172,64.127],[66.164,64.334],[66.156,64.541],[66.093,64.734],[65.947,64.908],[65.758,65.071],[65.58,65.238],[65.413,65.407],[65.272,65.584],[65.143,65.764],[65.054,65.955],[64.95,66.142],[64.758,66.308],[64.491,66.456],[64.206,66.6],[63.946,66.751],[63.698,66.905],[63.446,67.059],[63.191,67.213],[62.932,67.366],[62.669,67.519],[62.448,67.682],[62.222,67.846],[62.039,68.02],[61.807,68.183],[61.617,68.358],[61.379,68.52],[61.167,68.69],[60.921,68.852],[60.64,69.006],[60.308,69.147],[59.956,69.284],[59.631,69.428],[59.3,69.572],[58.918,69.702],[58.469,69.815],[57.967,69.914],[57.46,70.012],[56.964,70.112],[56.525,70.229],[56.143,70.362],[55.802,70.507],[55.44,70.648],[55.058,70.783],[54.67,70.917],[54.26,71.046],[53.83,71.17],[53.393,71.292],[53.029,71.437],[52.723,71.6],[52.442,71.772],[52.125,71.934],[51.785,72.091],[51.423,72.243],[51.039,72.389],[50.649,72.534],[50.251,72.678],[49.88,72.832],[49.485,72.98],[49.067,73.122],[48.626,73.259],[48.194,73.399],[47.754,73.539],[47.29,73.672],[46.819,73.804],[46.453,73.973],[46.225,74.188],[46.146,74.432],[46.178,74.668],[46.253,74.896],[46.308,75.128],[46.282,75.378],[46.212,75.637],[46.117,75.901],[46.153,76.139],[46.324,76.349],[46.661,76.528],[47.029,76.702],[47.385,76.88],[47.68,77.072],[47.914,77.277],[48.083,77.496],[48.201,77.67],[48.262,77.799]]}},{"type":"Feature","properties":{"kind":"warm","line":5,"px_len":86},"geometry":{"type":"LineString","coordinates":[[-67.407,47.88],[-67.519,48.081],[-67.647,48.273],[-67.792,48.473],[-67.937,48.674],[-68.094,48.876],[-68.225,49.074],[-68.302,49.261],[-68.353,49.444],[-68.386,49.623],[-68.447,49.808],[-68.527,49.996],[-68.662,50.175],[-68.835,50.34],[-69.051,50.454],[-69.287,50.545],[-69.537,50.605],[-69.788,50.664],[-70.041,50.717],[-70.294,50.775],[-70.544,50.838],[-70.794,50.907],[-71.044,50.975],[-71.293,51.049],[-71.543,51.122],[-71.799,51.182],[-72.059,51.229],[-72.324,51.263],[-72.53,51.289],[-72.678,51.307]]}}]}