{"type": "FeatureCollection", "properties": {"chart": "fc", "src": "fc_202610020000_000036.png"}, "features": [{"type": "Feature", "properties": {"kind": "warm", "line": 0, "px_len": 73}, "geometry": {"type": "LineString", "coordinates": [[11.725, 51.714], [12.017, 51.753], [12.292, 51.805], [12.58, 51.874], [12.872, 51.949], [13.166, 52.035], [13.467, 52.139], [13.773, 52.261], [14.085, 52.4], [14.4, 52.539], [14.713, 52.658], [15.021, 52.751], [15.322, 52.806], [15.616, 52.834], [15.905, 52.843], [16.197, 52.858], [16.49, 52.878], [16.788, 52.909], [17.088, 52.946], [17.395, 53.0], [17.707, 53.066], [18.031, 53.161], [18.362, 53.268], [18.684, 53.376], [19.029, 53.479]]}}, {"type": "Feature", "properties": {"kind": "cold", "line": 0, "px_len": 79}, "geometry": {"type": "LineString", "coordinates": [[19.029, 53.479], [19.388, 53.613], [19.724, 53.735], [20.065, 53.863], [20.388, 53.993], [20.713, 54.122], [21.02, 54.253], [21.35, 54.38], [21.68, 54.5], [22.038, 54.601], [22.386, 54.676], [22.732, 54.744], [23.022, 54.834], [23.263, 54.959], [23.427, 55.112], [23.581, 55.265], [23.737, 55.419], [23.906, 55.571], [24.087, 55.721], [24.291, 55.866], [24.519, 56.007], [24.749, 56.148], [24.97, 56.29], [25.182, 56.434], [25.396, 56.578], [25.586, 56.719], [25.808, 56.869]]}}, {"type": "Feature", "properties": {"kind": "occl", "line": 0, "px_len": 170}, "geometry": {"type": "LineString", "coordinates": [[25.808, 56.869], [25.987, 57.026], [26.16, 57.171], [26.338, 57.323], [26.507, 57.476], [26.701, 57.624], [26.907, 57.77], [27.139, 57.911], [27.384, 58.05], [27.631, 58.187], [27.846, 58.332], [28.006, 58.488], [28.131, 58.652], [28.259, 58.815], [28.388, 58.979], [28.518, 59.143], [28.649, 59.306], [28.782, 59.47], [28.953, 59.625], [29.101, 59.786], [29.215, 59.955], [29.257, 60.139], [29.251, 60.333], [29.232, 60.53], [29.201, 60.73], [29.194, 60.925], [29.2, 61.118], [29.231, 61.305], [29.276, 61.49], [29.321, 61.675], [29.353, 61.863], [29.386, 62.051], [29.433, 62.237], [29.48, 62.423], [29.568, 62.601], [29.657, 62.779], [29.774, 62.952], [29.893, 63.124], [30.027, 63.295], [30.067, 63.484], [29.983, 63.697], [29.829, 63.924], [29.686, 64.149], [29.611, 64.36], [29.549, 64.568], [29.544, 64.766], [29.495, 64.973], [29.41, 65.178], [29.221, 65.387], [28.974, 65.577], [28.674, 65.752], [28.356, 65.915], [28.035, 66.077], [27.721, 66.251], [27.427, 66.449], [27.183, 66.667], [27.024, 66.843], [26.938, 66.965]]}}, {"type": "Feature", "properties": {"kind": "warm", "line": 1, "px_len": 403}, "geometry": {"type": "LineString", "coordinates": [[-37.695, 40.352], [-37.61, 40.519], [-37.54, 40.683], [-37.475, 40.859], [-37.409, 41.035], [-37.359, 41.224], [-37.314, 41.418], [-37.302, 41.612], [-37.295, 41.811], [-37.316, 42.007], [-37.343, 42.207], [-37.353, 42.395], [-37.33, 42.582], [-37.255, 42.757], [-37.163, 42.918], [-37.038, 43.054], [-36.905, 43.185], [-36.761, 43.307], [-36.633, 43.442], [-36.504, 43.578], [-36.379, 43.717], [-36.26, 43.861], [-36.145, 44.009], [-36.046, 44.171], [-35.941, 44.328], [-35.834, 44.485], [-35.722, 44.638], [-35.62, 44.8], [-35.528, 44.971], [-35.447, 45.151], [-35.371, 45.335], [-35.311, 45.534], [-35.251, 45.732], [-35.173, 45.917], [-35.053, 46.071], [-34.893, 46.192], [-34.714, 46.3], [-34.517, 46.393], [-34.342, 46.505], [-34.166, 46.616], [-34.001, 46.736], [-33.817, 46.842], [-33.649, 46.961], [-33.492, 47.09], [-33.351, 47.233], [-33.204, 47.371], [-33.061, 47.514], [-32.911, 47.651], [-32.766, 47.794], [-32.619, 47.936], [-32.472, 48.078], [-32.324, 48.22], [-32.168, 48.357], [-32.018, 48.498], [-31.86, 48.635], [-31.707, 48.777], [-31.565, 48.928], [-31.438, 49.093], [-31.328, 49.274], [-31.223, 49.459], [-31.122, 49.649], [-31.003, 49.825], [-30.859, 49.981], [-30.668, 50.097], [-30.452, 50.193], [-30.205, 50.263], [-29.97, 50.342], [-29.739, 50.426], [-29.525, 50.525], [-29.309, 50.623], [-29.092, 50.721], [-28.874, 50.818], [-28.654, 50.915], [-28.434, 51.011], [-28.224, 51.117], [-28.018, 51.228], [-27.81, 51.339], [-27.591, 51.438], [-27.364, 51.532], [-27.136, 51.626], [-26.907, 51.719], [-26.683, 51.817], [-26.468, 51.925], [-26.252, 52.032], [-26.029, 52.134], [-25.794, 52.224], [-25.574, 52.33], [-25.368, 52.452], [-25.178, 52.589], [-24.965, 52.705], [-24.717, 52.788], [-24.426, 52.826], [-24.108, 52.837], [-23.774, 52.829], [-23.435, 52.815], [-23.101, 52.806], [-22.768, 52.795], [-22.45, 52.8], [-22.131, 52.803], [-21.813, 52.806], [-21.485, 52.796], [-21.152, 52.78], [-20.82, 52.762], [-20.478, 52.732], [-20.133, 52.695], [-19.788, 52.657], [-19.462, 52.64], [-19.145, 52.634], [-18.838, 52.638], [-18.512, 52.618], [-18.17, 52.574], [-17.846, 52.489], [-17.591, 52.372], [-17.422, 52.231], [-17.302, 52.077], [-17.192, 51.921], [-17.083, 51.765], [-16.975, 51.609], [-16.858, 51.456], [-16.725, 51.307], [-16.592, 51.159], [-16.442, 51.015], [-16.284, 50.873], [-16.091, 50.741], [-15.899, 50.608], [-15.699, 50.478], [-15.492, 50.349], [-15.268, 50.225], [-15.001, 50.111], [-14.699, 50.006], [-14.362, 49.908], [-14.037, 49.827], [-13.727, 49.768], [-13.443, 49.735], [-13.148, 49.717]]}}, {"type": "Feature", "properties": {"kind": "cold", "line": 1, "px_len": 191}, "geometry": {"type": "LineString", "coordinates": [[-13.148, 49.717], [-12.862, 49.715], [-12.598, 49.715], [-12.331, 49.727], [-12.067, 49.745], [-11.802, 49.761], [-11.543, 49.789], [-11.286, 49.822], [-11.038, 49.872], [-10.789, 49.922], [-10.539, 49.97], [-10.289, 50.018], [-10.038, 50.066], [-9.786, 50.112], [-9.534, 50.158], [-9.286, 50.216], [-9.04, 50.278], [-8.793, 50.34], [-8.541, 50.389], [-8.285, 50.432], [-8.029, 50.474], [-7.772, 50.515], [-7.512, 50.549], [-7.247, 50.57], [-6.993, 50.621], [-6.754, 50.714], [-6.531, 50.855], [-6.307, 50.996], [-6.076, 51.124], [-5.841, 51.246], [-5.601, 51.354], [-5.358, 51.456], [-5.109, 51.545], [-4.86, 51.64], [-4.611, 51.734], [-4.36, 51.827], [-4.108, 51.92], [-3.856, 52.018], [-3.605, 52.122], [-3.353, 52.231], [-3.101, 52.34], [-2.848, 52.454], [-2.594, 52.568], [-2.339, 52.688], [-2.083, 52.806], [-1.826, 52.931], [-1.569, 53.061], [-1.308, 53.178], [-1.04, 53.276], [-0.769, 53.36], [-0.495, 53.437], [-0.218, 53.507], [0.06, 53.576], [0.3, 53.681], [0.491, 53.827], [0.646, 54.002], [0.813, 54.185], [1.026, 54.369], [1.273, 54.555], [1.547, 54.735], [1.825, 54.902], [2.106, 55.068], [2.389, 55.24], [2.61, 55.383], [2.769, 55.485]]}}, {"type": "Feature", "properties": {"kind": "occl", "line": 1, "px_len": 237}, "geometry": {"type": "LineString", "coordinates": [[2.769, 55.485], [3.069, 55.675], [3.351, 55.845], [3.648, 56.001], [3.95, 56.13], [4.257, 56.233], [4.566, 56.323], [4.864, 56.437], [5.104, 56.582], [5.298, 56.758], [5.471, 56.934], [5.682, 57.111], [5.907, 57.286], [6.171, 57.462], [6.462, 57.637], [6.745, 57.812], [6.969, 57.986], [7.084, 58.161], [7.152, 58.336], [7.195, 58.512], [7.263, 58.688], [7.333, 58.864], [7.416, 59.039], [7.513, 59.215], [7.65, 59.39], [7.801, 59.565], [7.954, 59.74], [8.109, 59.915], [8.266, 60.09], [8.425, 60.265], [8.599, 60.439], [8.788, 60.613], [9.021, 60.786], [9.256, 60.959], [9.536, 61.13], [9.805, 61.301], [10.022, 61.473], [10.13, 61.649], [10.17, 61.827], [10.239, 62.004], [10.323, 62.181], [10.451, 62.356], [10.58, 62.532], [10.755, 62.705], [10.903, 62.88], [11.008, 63.057], [11.012, 63.237], [10.957, 63.42], [10.871, 63.604], [10.814, 63.787], [10.771, 63.97], [10.743, 64.152], [10.729, 64.334], [10.747, 64.515], [10.796, 64.694], [10.878, 64.873], [10.976, 65.052], [11.092, 65.23], [11.226, 65.407], [11.378, 65.584], [11.516, 65.761], [11.607, 65.94], [11.666, 66.121], [11.709, 66.302], [11.736, 66.484], [11.73, 66.668], [11.723, 66.852], [11.768, 67.033], [11.866, 67.213], [11.966, 67.393], [11.996, 67.576], [11.938, 67.762], [11.807, 67.951], [11.655, 68.141], [11.538, 68.329], [11.455, 68.516], [11.408, 68.702], [11.398, 68.887], [11.42, 69.051], [11.457, 69.193]]}}, {"type": "Feature", "properties": {"kind": "occl", "line": 2, "px_len": 66}, "geometry": {"type": "LineString", "coordinates": [[-38.374, 61.629], [-38.134, 61.778], [-37.931, 61.927], [-37.726, 62.085], [-37.518, 62.242], [-37.307, 62.399], [-37.154, 62.586], [-37.068, 62.806], [-37.01, 63.04], [-36.911, 63.256], [-36.77, 63.452], [-36.586, 63.628], [-36.409, 63.81], [-36.22, 63.986], [-36.079, 64.187], [-35.978, 64.407], [-35.928, 64.653], [-35.855, 64.889], [-35.749, 65.11], [-35.587, 65.306], [-35.369, 65.477], [-35.119, 65.604], [-34.861, 65.698]]}}, {"type": "Feature", "properties": {"kind": "warm", "line": 3, "px_len": 159}, "geometry": {"type": "LineString", "coordinates": [[-10.649, 65.319], [-10.781, 65.499], [-10.905, 65.666], [-11.036, 65.84], [-11.121, 66.02], [-11.191, 66.202], [-11.231, 66.388], [-11.384, 66.56], [-11.605, 66.723], [-11.961, 66.87], [-12.37, 67.009], [-12.817, 67.143], [-13.236, 67.279], [-13.661, 67.415], [-14.091, 67.55], [-14.56, 67.679], [-15.017, 67.808], [-15.514, 67.932], [-16.016, 68.053], [-16.557, 68.168], [-17.088, 68.284], [-17.607, 68.4], [-18.048, 68.529], [-18.443, 68.666], [-18.843, 68.801], [-19.299, 68.926], [-19.864, 69.033], [-20.478, 69.107], [-21.094, 69.133], [-21.64, 69.108], [-22.149, 69.057], [-22.654, 69.005], [-23.176, 68.963], [-23.696, 68.92], [-24.233, 68.886], [-24.768, 68.851], [-25.31, 68.819], [-25.832, 68.775], [-26.341, 68.723], [-26.847, 68.669], [-27.33, 68.602], [-27.82, 68.54], [-28.297, 68.47], [-28.781, 68.405], [-29.262, 68.338], [-29.762, 68.28], [-30.237, 68.21], [-30.666, 68.117], [-30.977, 67.978], [-31.158, 67.799], [-31.206, 67.588], [-31.183, 67.365], [-31.095, 67.186], [-30.957, 67.048]]}}, {"type": "Feature", "properties": {"kind": "cold", "line": 3, "px_len": 200}, "geometry": {"type": "LineString", "coordinates": [[-30.957, 67.048], [-30.597, 66.917], [-30.247, 66.8], [-29.891, 66.677], [-29.525, 66.557], [-29.163, 66.436], [-28.79, 66.319], [-28.422, 66.2], [-28.071, 66.076], [-27.738, 65.948], [-27.394, 65.823], [-27.054, 65.698], [-26.814, 65.545], [-26.698, 65.36], [-26.692, 65.146], [-26.699, 64.928], [-26.719, 64.706], [-26.713, 64.492], [-26.72, 64.275], [-26.688, 64.069], [-26.72, 63.844], [-26.777, 63.613], [-26.896, 63.364], [-26.975, 63.125], [-27.016, 62.898], [-27.02, 62.682], [-27.031, 62.472], [-27.141, 62.296], [-27.34, 62.147], [-27.627, 62.025], [-27.92, 61.909], [-28.194, 61.781], [-28.457, 61.647], [-28.702, 61.501], [-28.952, 61.361], [-29.192, 61.214], [-29.421, 61.062], [-29.656, 60.915], [-29.889, 60.768], [-30.126, 60.626], [-30.362, 60.483], [-30.595, 60.34], [-30.834, 60.201], [-31.078, 60.068], [-31.328, 59.939], [-31.576, 59.81], [-31.813, 59.675], [-32.065, 59.55], [-32.322, 59.43], [-32.569, 59.304], [-32.798, 59.168], [-33.001, 59.016], [-33.21, 58.868], [-33.448, 58.741], [-33.733, 58.643], [-34.057, 58.569], [-34.395, 58.505], [-34.715, 58.429], [-35.034, 58.353], [-35.318, 58.256], [-35.617, 58.168], [-35.889, 58.065], [-36.185, 57.976], [-36.462, 57.877], [-36.753, 57.786], [-37.044, 57.694], [-37.271, 57.624], [-37.428, 57.571]]}}, {"type": "Feature", "properties": {"kind": "warm", "line": 3, "px_len": 209}, "geometry": {"type": "LineString", "coordinates": [[-37.428, 57.571], [-37.731, 57.478], [-38.015, 57.394], [-38.314, 57.308], [-38.612, 57.222], [-38.925, 57.144], [-39.262, 57.079], [-39.632, 57.031], [-40.026, 56.995], [-40.42, 56.976], [-40.806, 56.96], [-41.2, 56.947], [-41.583, 56.91], [-41.929, 56.846], [-42.221, 56.754], [-42.467, 56.64], [-42.72, 56.53], [-42.971, 56.42], [-43.256, 56.325], [-43.53, 56.226], [-43.829, 56.139], [-44.127, 56.05], [-44.458, 55.978], [-44.788, 55.904], [-45.134, 55.837], [-45.479, 55.769], [-45.831, 55.704], [-46.2, 55.646], [-46.595, 55.598], [-47.009, 55.565], [-47.418, 55.544], [-47.827, 55.522], [-48.223, 55.486], [-48.566, 55.411], [-48.852, 55.314], [-49.072, 55.19], [-49.29, 55.066], [-49.488, 54.934], [-49.712, 54.812], [-49.944, 54.694], [-50.193, 54.582], [-50.448, 54.474], [-50.712, 54.368], [-50.992, 54.269], [-51.27, 54.168], [-51.556, 54.071], [-51.832, 53.969], [-52.114, 53.87], [-52.395, 53.77], [-52.693, 53.676], [-53.007, 53.588], [-53.348, 53.508], [-53.714, 53.437], [-54.089, 53.367], [-54.443, 53.29], [-54.749, 53.196], [-54.98, 53.077], [-55.153, 52.939], [-55.289, 52.789], [-55.451, 52.648], [-55.611, 52.507], [-55.77, 52.365], [-55.928, 52.223], [-56.112, 52.091], [-56.322, 51.966], [-56.539, 51.844], [-56.755, 51.722], [-56.96, 51.596], [-57.155, 51.467], [-57.294, 51.363], [-57.388, 51.287]]}}, {"type": "Feature", "properties": {"kind": "cold", "line": 3, "px_len": 208}, "geometry": {"type": "LineString", "coordinates": [[-57.388, 51.287], [-57.584, 51.152], [-57.779, 51.031], [-57.968, 50.901], [-58.155, 50.77], [-58.324, 50.634], [-58.473, 50.493], [-58.604, 50.346], [-58.715, 50.194], [-58.826, 50.041], [-58.936, 49.889], [-59.098, 49.752], [-59.31, 49.631], [-59.556, 49.519], [-59.801, 49.407], [-60.018, 49.287], [-60.234, 49.166], [-60.422, 49.037], [-60.6, 48.906], [-60.76, 48.77], [-60.919, 48.633], [-61.076, 48.496], [-61.233, 48.36], [-61.388, 48.223], [-61.542, 48.085], [-61.704, 47.95], [-61.864, 47.815], [-62.007, 47.675], [-62.148, 47.535], [-62.263, 47.388], [-62.386, 47.244], [-62.499, 47.097], [-62.612, 46.95], [-62.715, 46.801], [-62.826, 46.654], [-62.986, 46.52], [-63.219, 46.405], [-63.475, 46.296], [-63.729, 46.187], [-63.95, 46.068], [-64.161, 45.947], [-64.354, 45.821], [-64.538, 45.693], [-64.712, 45.563], [-64.886, 45.432], [-65.066, 45.304], [-65.261, 45.178], [-65.456, 45.053], [-65.649, 44.927], [-65.832, 44.799], [-66.023, 44.672], [-66.212, 44.545], [-66.409, 44.42], [-66.596, 44.292], [-66.774, 44.162], [-66.927, 44.027], [-67.071, 43.89], [-67.206, 43.751], [-67.332, 43.611], [-67.442, 43.467], [-67.544, 43.321], [-67.66, 43.179], [-67.798, 43.041], [-67.979, 42.925], [-68.186, 42.845], [-68.418, 42.806], [-68.651, 42.785], [-68.882, 42.77], [-69.105, 42.752], [-69.342, 42.742]]}}, {"type": "Feature", "properties": {"kind": "occl", "line": 4, "px_len": 123}, "geometry": {"type": "LineString", "coordinates": [[22.052, 73.995], [22.393, 74.17], [22.75, 74.329], [23.148, 74.491], [23.578, 74.652], [23.993, 74.813], [24.417, 74.974], [24.85, 75.133], [25.293, 75.293], [25.745, 75.451], [26.234, 75.606], [26.786, 75.755], [27.403, 75.898], [28.059, 76.037], [28.729, 76.173], [29.277, 76.322], [29.728, 76.48], [30.135, 76.644], [30.552, 76.807], [30.952, 76.972], [31.305, 77.142], [31.668, 77.312], [32.099, 77.475], [32.57, 77.635], [33.054, 77.793], [33.432, 77.964], [33.7, 78.147], [33.885, 78.34], [34.015, 78.539], [34.149, 78.738], [34.288, 78.937], [34.465, 79.133], [34.714, 79.322], [35.006, 79.508], [35.309, 79.693], [35.554, 79.885], [35.773, 80.081], [36.0, 80.276], [36.237, 80.471], [36.447, 80.669], [36.456, 80.839], [36.254, 80.979]]}}, {"type": "Feature", "properties": {"kind": "occl", "line": 5, "px_len": 56}, "geometry": {"type": "LineString", "coordinates": [[-4.306, 79.045], [-5.01, 79.218], [-5.5, 79.385], [-5.9, 79.562], [-6.083, 79.748], [-6.079, 79.942], [-5.834, 80.144], [-5.539, 80.347], [-5.23, 80.551], [-4.994, 80.751], [-4.79, 80.95], [-4.667, 81.146], [-4.584, 81.341], [-4.544, 81.535], [-4.18, 81.709], [-3.415, 81.856], [-2.237, 81.975], [-0.96, 82.077], [0.053, 82.157], [0.786, 82.216]]}}]}