{"type":"FeatureCollection","properties":{"valid_time":"2026-10-03T18:00:00+00:00","run":"2026-10-03T12:00:00+00:00","lead_hours":6,"source":"ICON-EU theta_e850, Renard-Clarke (icon_front_very_far_snapshot.py)"},"features":[{"type":"Feature","properties":{"seg":0,"kind":"warm","km":1520},"geometry":{"type":"LineString","coordinates":[[3.938,48.458],[3.636,48.39],[3.325,48.348],[3.009,48.325],[2.693,48.302],[2.379,48.27],[2.065,48.242],[1.749,48.219],[1.44,48.168],[1.145,48.088],[0.855,48.0],[0.562,47.915],[0.266,47.837],[-0.031,47.759],[-0.326,47.679],[-0.618,47.594],[-0.905,47.501],[-1.186,47.4],[-1.463,47.293],[-1.738,47.184],[-2.01,47.072],[-2.271,46.948],[-2.518,46.812]]}},{"type":"Feature","properties":{"seg":0,"kind":"stat","km":1520},"geometry":{"type":"LineString","coordinates":[[-2.518,46.812],[-2.757,46.668],[-3.0,46.528],[-3.259,46.402],[-3.535,46.295],[-3.827,46.21],[-4.135,46.156],[-4.448,46.121],[-4.76,46.081],[-5.066,46.023],[-5.357,45.936],[-5.634,45.83],[-5.905,45.717],[-6.174,45.6],[-6.442,45.484],[-6.731,45.395],[-7.045,45.366],[-7.358,45.332],[-7.664,45.274],[-7.957,45.19],[-8.225,45.074],[-8.469,44.935],[-8.7,44.786],[-8.933,44.638],[-9.181,44.502],[-9.448,44.384],[-9.727,44.281],[-10.009,44.18],[-10.287,44.075],[-10.562,43.967],[-10.379,43.699],[-10.195,43.431],[-10.011,43.162],[-9.827,42.894],[-9.643,42.626],[-9.46,42.358],[-9.276,42.09],[-9.092,41.822],[-9.0,41.688]]}},{"type":"Feature","properties":{"seg":1,"kind":"cold","km":621},"geometry":{"type":"LineString","coordinates":[[11.665,59.46],[11.435,59.275],[11.207,59.089],[10.988,58.9],[10.767,58.712],[10.532,58.529],[10.288,58.349],[10.056,58.165],[9.841,57.975],[9.632,57.783],[9.425,57.59],[9.222,57.395],[9.033,57.197],[8.858,56.995],[8.688,56.792],[8.511,56.591],[8.318,56.393],[8.113,56.2],[7.904,56.008],[7.699,55.814],[7.501,55.619],[7.307,55.422],[7.11,55.226],[6.897,55.035],[6.654,54.855],[6.382,54.688]]}},{"type":"Feature","properties":{"seg":2,"kind":"warm","km":555},"geometry":{"type":"LineString","coordinates":[[34.996,55.625],[34.942,55.845],[34.878,56.064],[34.801,56.282],[34.708,56.498],[34.605,56.713],[34.506,56.928],[34.423,57.146],[34.368,57.365],[34.344,57.587],[34.351,57.808],[34.383,58.029],[34.426,58.25],[34.466,58.471],[34.491,58.692],[34.497,58.914],[34.488,59.135],[34.481,59.357],[34.489,59.579],[34.519,59.8],[34.573,60.019],[34.647,60.238],[34.734,60.455],[34.782,60.563]]}},{"type":"Feature","properties":{"seg":3,"kind":"cold","km":523},"geometry":{"type":"LineString","coordinates":[[26.548,60.562],[26.437,60.347],[26.301,60.135],[26.157,59.924],[26.029,59.711],[25.925,59.494],[25.836,59.276],[25.75,59.057],[25.658,58.838],[25.561,58.621],[25.459,58.403],[25.346,58.188],[25.205,57.977],[25.014,57.777],[24.782,57.59],[24.529,57.411],[24.268,57.234],[24.005,57.059],[23.74,56.884],[23.474,56.71],[23.197,56.54],[22.875,56.395]]}},{"type":"Feature","properties":{"seg":4,"kind":"warm","km":471},"geometry":{"type":"LineString","coordinates":[[34.75,49.285],[34.838,49.501],[34.91,49.719],[34.933,49.941],[34.906,50.163],[34.851,50.383],[34.799,50.603],[34.772,50.825],[34.778,51.048],[34.798,51.27],[34.81,51.493],[34.804,51.715],[34.78,51.938],[34.739,52.159],[34.68,52.378],[34.624,52.598],[34.597,52.82],[34.606,53.043],[34.637,53.264],[34.674,53.486]]}},{"type":"Feature","properties":{"seg":5,"kind":"stat","km":427},"geometry":{"type":"LineString","coordinates":[[20.241,36.625],[20.203,36.402],[20.171,36.177],[20.131,35.954],[20.08,35.732],[20.008,35.514],[19.919,35.301],[19.825,35.088],[19.742,34.873],[19.669,34.655],[19.595,34.438],[19.513,34.222],[19.427,34.007],[19.342,33.793],[19.265,33.576],[19.19,33.358],[19.103,33.144],[18.993,32.938]]}},{"type":"Feature","properties":{"seg":6,"kind":"stat","km":376},"geometry":{"type":"LineString","coordinates":[[36.188,56.016],[36.287,56.233],[36.307,56.458],[36.307,56.683],[36.298,56.909],[36.285,57.134],[36.271,57.36],[36.262,57.585],[36.26,57.81],[36.267,58.036],[36.283,58.261],[36.31,58.486],[36.348,58.711],[36.403,58.934],[36.478,59.156],[36.577,59.375]]}},{"type":"Feature","properties":{"seg":7,"kind":"warm","km":335},"geometry":{"type":"LineString","coordinates":[[16.872,42.812],[17.122,42.675],[17.361,42.526],[17.594,42.373],[17.82,42.214],[18.029,42.043],[18.195,41.847],[18.272,41.624],[18.321,41.395],[18.392,41.169],[18.456,40.942],[18.498,40.713],[18.523,40.482],[18.531,40.25]]}},{"type":"Feature","properties":{"seg":8,"kind":"warm","km":317},"geometry":{"type":"LineString","coordinates":[[-2.394,52.707],[-2.227,52.906],[-2.248,53.133],[-2.311,53.358],[-2.211,53.576],[-2.002,53.768],[-1.775,53.953],[-1.561,54.144],[-1.383,54.346],[-1.246,54.56],[-1.136,54.779],[-1.027,54.998],[-0.889,55.211],[-0.798,55.312]]}},{"type":"Feature","properties":{"seg":9,"kind":"stat","km":308},"geometry":{"type":"LineString","coordinates":[[32.707,41.457],[32.404,41.489],[32.098,41.484],[31.796,41.447],[31.503,41.38],[31.217,41.297],[30.935,41.207],[30.655,41.113],[30.375,41.02],[30.089,40.937],[29.797,40.867],[29.502,40.806],[29.204,40.75]]}},{"type":"Feature","properties":{"type":"L","hPa":1016.8},"geometry":{"type":"Point","coordinates":[-7.375,32.0]}},{"type":"Feature","properties":{"type":"L","hPa":1018.2},"geometry":{"type":"Point","coordinates":[2.75,37.125]}},{"type":"Feature","properties":{"type":"L","hPa":1018.9},"geometry":{"type":"Point","coordinates":[-9.0,41.688]}},{"type":"Feature","properties":{"type":"L","hPa":1006.6},"geometry":{"type":"Point","coordinates":[-11.5,61.5]}},{"type":"Feature","properties":{"type":"H","hPa":1030.5},"geometry":{"type":"Point","coordinates":[-3.75,52.875]}},{"type":"Feature","properties":{"type":"H","hPa":1029.3},"geometry":{"type":"Point","coordinates":[41.625,61.5]}}]}