{"type":"FeatureCollection","properties":{"valid_time":"2026-10-07T06:00:00+00:00","run":"2026-10-07T00:00:00+00:00","lead_hours":6,"source":"ICON-EU theta_e850, Renard-Clarke (icon_front_very_far_snapshot.py)"},"features":[{"type":"Feature","properties":{"seg":0,"kind":"warm","km":692},"geometry":{"type":"LineString","coordinates":[[19.933,34.753],[19.912,34.97],[19.895,35.188],[19.881,35.406],[19.865,35.624],[19.839,35.841],[19.797,36.057],[19.736,36.27],[19.653,36.478],[19.551,36.682],[19.433,36.88],[19.302,37.072],[19.16,37.261],[19.009,37.445],[18.854,37.626],[18.708,37.813],[18.588,38.01],[18.495,38.216],[18.418,38.425],[18.35,38.637],[18.289,38.85],[18.232,39.064],[18.181,39.278],[18.136,39.494],[18.097,39.71],[18.056,39.926],[18.003,40.14],[17.93,40.351],[17.825,40.553],[17.758,40.648]]}},{"type":"Feature","properties":{"seg":1,"kind":"warm","km":637},"geometry":{"type":"LineString","coordinates":[[13.68,34.812],[13.82,35.002],[13.951,35.196],[14.037,35.405],[14.07,35.623],[14.077,35.843],[14.066,36.063],[14.045,36.282],[14.014,36.501],[13.978,36.719],[13.942,36.937],[13.915,37.156],[13.907,37.376],[13.93,37.595],[13.987,37.81],[14.071,38.02],[14.175,38.224],[14.294,38.423],[14.42,38.619],[14.542,38.816],[14.638,39.023],[14.695,39.238],[14.717,39.457],[14.717,39.677],[14.715,39.897],[14.741,40.116],[14.875,40.303]]}},{"type":"Feature","properties":{"seg":2,"kind":"warm","km":582},"geometry":{"type":"LineString","coordinates":[[6.312,57.039],[5.942,57.026],[5.582,56.974],[5.24,56.891],[4.914,56.786],[4.601,56.67],[4.293,56.547],[3.987,56.424],[3.676,56.305],[3.357,56.194],[3.034,56.086],[2.713,55.976],[2.391,55.868],[2.065,55.764],[1.736,55.663],[1.399,55.573],[1.066,55.476],[0.784,55.336],[0.532,55.176],[0.281,55.015],[0.028,54.855],[-0.224,54.695],[-0.479,54.537],[-0.756,54.392],[-1.081,54.29]]}},{"type":"Feature","properties":{"seg":3,"kind":"cold","km":533},"geometry":{"type":"LineString","coordinates":[[40.812,54.488],[40.614,54.298],[40.424,54.105],[40.163,53.946],[39.8,53.896],[39.43,53.943],[39.064,54.002],[38.689,54.031],[38.31,54.021],[37.933,53.994],[37.557,53.965],[37.184,53.925],[36.813,53.879],[36.436,53.862],[36.065,53.905],[35.724,54.003],[35.376,54.091],[35.007,54.14],[34.628,54.15],[34.251,54.129],[33.879,54.086],[33.507,54.046],[33.326,54.076]]}},{"type":"Feature","properties":{"seg":4,"kind":"cold","km":473},"geometry":{"type":"LineString","coordinates":[[-2.775,53.237],[-3.011,53.069],[-3.299,52.933],[-3.626,52.83],[-3.981,52.767],[-4.307,52.667],[-4.551,52.503],[-4.756,52.322],[-4.953,52.137],[-5.156,51.954],[-5.368,51.775],[-5.589,51.6],[-5.816,51.428],[-6.052,51.26],[-6.302,51.099],[-6.56,50.942],[-6.81,50.781],[-7.05,50.614],[-7.281,50.444],[-7.51,50.272],[-7.627,50.188]]}},{"type":"Feature","properties":{"seg":5,"kind":"cold","km":670},"geometry":{"type":"LineString","coordinates":[[43.557,36.812],[43.594,36.589],[43.679,36.373],[43.77,36.158],[43.855,35.942],[43.924,35.722],[43.96,35.498],[43.937,35.272],[43.865,35.053],[43.76,34.843],[43.638,34.639],[43.504,34.44],[43.359,34.247],[43.204,34.059],[43.039,33.877],[42.868,33.698],[42.691,33.523],[42.777,33.404],[43.13,33.337],[43.484,33.271],[43.837,33.204],[44.19,33.138],[44.543,33.071],[44.897,33.004],[45.25,32.938]]}},{"type":"Feature","properties":{"seg":6,"kind":"cold","km":415},"geometry":{"type":"LineString","coordinates":[[-3.89,48.97],[-4.059,48.784],[-4.249,48.608],[-4.447,48.436],[-4.635,48.258],[-4.797,48.069],[-4.936,47.871],[-5.066,47.671],[-5.199,47.471],[-5.343,47.275],[-5.494,47.082],[-5.653,46.892],[-5.823,46.706],[-6.013,46.529],[-6.223,46.364],[-6.441,46.204],[-6.654,46.04],[-6.849,45.866]]}},{"type":"Feature","properties":{"seg":7,"kind":"warm","km":346},"geometry":{"type":"LineString","coordinates":[[5.493,50.25],[5.154,50.311],[4.802,50.271],[4.449,50.23],[4.141,50.117],[3.848,49.987],[3.529,49.881],[3.212,49.774],[2.86,49.747],[2.502,49.764],[2.153,49.811],[1.832,49.914],[1.493,49.984],[1.135,49.983],[0.956,49.982]]}},{"type":"Feature","properties":{"seg":8,"kind":"cold","km":335},"geometry":{"type":"LineString","coordinates":[[-5.25,35.164],[-5.456,35.008],[-5.653,34.843],[-5.844,34.674],[-6.037,34.506],[-6.231,34.339],[-6.423,34.17],[-6.608,33.996],[-6.787,33.818],[-6.963,33.637],[-7.142,33.459],[-7.326,33.285],[-7.513,33.112],[-7.697,32.938]]}},{"type":"Feature","properties":{"seg":9,"kind":"stat","km":322},"geometry":{"type":"LineString","coordinates":[[27.227,43.812],[27.327,44.033],[27.417,44.255],[27.486,44.481],[27.535,44.71],[27.576,44.939],[27.623,45.168],[27.68,45.396],[27.702,45.626],[27.644,45.853],[27.533,46.071],[27.415,46.287],[27.334,46.51],[27.312,46.625]]}},{"type":"Feature","properties":{"seg":10,"kind":"cold","km":311},"geometry":{"type":"LineString","coordinates":[[16.692,45.879],[16.839,45.676],[17.12,45.556],[17.441,45.513],[17.741,45.452],[17.889,45.244],[18.01,45.027],[18.169,44.823],[18.428,44.685],[18.744,44.618],[19.04,44.515],[19.344,44.426],[19.667,44.375]]}},{"type":"Feature","properties":{"seg":11,"kind":"warm","km":306},"geometry":{"type":"LineString","coordinates":[[17.028,52.09],[16.681,52.101],[16.334,52.105],[15.996,52.059],[15.665,51.992],[15.325,51.948],[14.993,51.884],[14.651,51.878],[14.305,51.899],[13.96,51.881],[13.629,51.817],[13.308,51.733],[12.972,51.678],[12.8,51.666]]}},{"type":"Feature","properties":{"type":"L","hPa":1014.3},"geometry":{"type":"Point","coordinates":[45.25,32.938]}},{"type":"Feature","properties":{"type":"L","hPa":1009.4},"geometry":{"type":"Point","coordinates":[3.875,43.125]}},{"type":"Feature","properties":{"type":"L","hPa":993.1},"geometry":{"type":"Point","coordinates":[45.25,61.5]}},{"type":"Feature","properties":{"type":"H","hPa":1023.6},"geometry":{"type":"Point","coordinates":[-11.5,50.812]}}]}