{"type":"FeatureCollection","properties":{"valid_time":"2026-10-06T18:00:00+00:00","run":"2026-10-06T12:00:00+00:00","lead_hours":6,"source":"ICON-EU theta_e850, Renard-Clarke (icon_front_very_far_snapshot.py)"},"features":[{"type":"Feature","properties":{"seg":0,"kind":"stat","km":1326},"geometry":{"type":"LineString","coordinates":[[10.14,56.202],[9.763,56.201],[9.387,56.192],[9.011,56.181],[8.635,56.172],[8.258,56.164],[7.882,56.154],[7.506,56.14],[7.132,56.119],[6.758,56.092],[6.384,56.067],[6.009,56.046],[5.634,56.026],[5.26,56.003],[4.886,55.975],[4.513,55.949],[4.139,55.924],[3.765,55.898],[3.391,55.87],[3.019,55.835],[2.654,55.783],[2.293,55.722],[1.929,55.664],[1.565,55.61],[1.203,55.548],[0.849,55.474],[0.498,55.395],[0.147,55.316],[-0.202,55.234],[-0.544,55.143],[-0.877,55.041],[-1.204,54.932],[-1.528,54.821],[-1.856,54.713],[-2.196,54.62],[-2.549,54.544],[-2.909,54.48],[-3.264,54.407]]}},{"type":"Feature","properties":{"seg":0,"kind":"cold","km":1326},"geometry":{"type":"LineString","coordinates":[[-3.264,54.407],[-3.593,54.302],[-3.896,54.172],[-4.195,54.039],[-4.499,53.91],[-4.805,53.783],[-5.114,53.659],[-5.43,53.54],[-5.753,53.427],[-6.076,53.315],[-6.394,53.198],[-6.71,53.079],[-7.027,52.961],[-7.344,52.844],[-7.658,52.723],[-7.964,52.596],[-8.266,52.466],[-8.582,52.347],[-8.753,52.302]]}},{"type":"Feature","properties":{"seg":1,"kind":"cold","km":935},"geometry":{"type":"LineString","coordinates":[[-5.211,40.125],[-5.293,39.915],[-5.331,39.696],[-5.35,39.476],[-5.39,39.257],[-5.453,39.042],[-5.533,38.831],[-5.627,38.624],[-5.729,38.419],[-5.821,38.211],[-5.894,37.998],[-5.966,37.785],[-6.052,37.575],[-6.143,37.367],[-6.231,37.157],[-6.317,36.948],[-6.405,36.739],[-6.489,36.528],[-6.565,36.316],[-6.633,36.102],[-6.698,35.887],[-6.769,35.674],[-6.856,35.465],[-6.961,35.261],[-7.077,35.061],[-7.199,34.863],[-7.327,34.668],[-7.473,34.481],[-7.646,34.31],[-7.845,34.159],[-8.059,34.022],[-8.282,33.893],[-8.505,33.766],[-8.725,33.636],[-8.943,33.502],[-9.159,33.366],[-9.372,33.228],[-9.582,33.086],[-9.784,32.938]]}},{"type":"Feature","properties":{"seg":2,"kind":"warm","km":558},"geometry":{"type":"LineString","coordinates":[[5.688,48.8],[5.383,48.854],[5.06,48.784],[4.754,48.689],[4.469,48.568],[4.188,48.443],[3.879,48.352],[3.543,48.329],[3.206,48.353],[2.87,48.385],[2.532,48.411],[2.201,48.458],[1.904,48.564],[1.638,48.702],[1.375,48.843],[1.124,48.993],[0.888,49.153],[0.657,49.317],[0.42,49.476],[0.168,49.625],[-0.103,49.76],[-0.393,49.875],[-0.712,49.948],[-0.879,49.938]]}},{"type":"Feature","properties":{"seg":3,"kind":"stat","km":469},"geometry":{"type":"LineString","coordinates":[[17.196,39.875],[17.105,40.086],[17.036,40.301],[16.998,40.521],[16.986,40.742],[16.977,40.964],[16.958,41.185],[16.927,41.406],[16.827,41.613],[16.655,41.792],[16.457,41.956],[16.254,42.116],[16.056,42.279],[15.87,42.451],[15.699,42.631],[15.54,42.817],[15.392,43.009],[15.261,43.207],[15.151,43.413],[15.066,43.625]]}},{"type":"Feature","properties":{"seg":4,"kind":"warm","km":460},"geometry":{"type":"LineString","coordinates":[[13.427,32.938],[13.534,33.143],[13.633,33.351],[13.726,33.561],[13.818,33.771],[13.911,33.982],[14.004,34.192],[14.09,34.404],[14.166,34.618],[14.229,34.836],[14.286,35.054],[14.35,35.271],[14.425,35.486],[14.505,35.7],[14.58,35.914],[14.649,36.131],[14.718,36.347],[14.804,36.559],[14.95,36.746],[15.058,36.813]]}},{"type":"Feature","properties":{"seg":5,"kind":"warm","km":450},"geometry":{"type":"LineString","coordinates":[[-10.562,34.287],[-10.375,34.452],[-10.17,34.602],[-9.957,34.745],[-9.742,34.887],[-9.529,35.03],[-9.315,35.172],[-9.094,35.307],[-8.873,35.442],[-8.667,35.592],[-8.485,35.761],[-8.329,35.946],[-8.192,36.141],[-8.047,36.332],[-7.862,36.499],[-7.679,36.666],[-7.543,36.861],[-7.309,36.965],[-7.064,37.062]]}},{"type":"Feature","properties":{"seg":6,"kind":"warm","km":356},"geometry":{"type":"LineString","coordinates":[[40.41,50.465],[40.69,50.612],[40.971,50.759],[41.264,50.895],[41.576,51.014],[41.909,51.11],[42.227,51.221],[42.463,51.394],[42.641,51.593],[42.798,51.799],[42.945,52.008],[43.086,52.219],[43.229,52.429],[43.382,52.636],[43.562,52.835]]}},{"type":"Feature","properties":{"seg":7,"kind":"stat","km":323},"geometry":{"type":"LineString","coordinates":[[29.33,40.295],[29.109,40.155],[28.898,40.005],[28.703,39.843],[28.527,39.667],[28.372,39.48],[28.238,39.284],[28.128,39.078],[28.035,38.868],[27.945,38.656],[27.846,38.447],[27.742,38.24],[27.641,38.031],[27.551,37.82]]}},{"type":"Feature","properties":{"seg":8,"kind":"cold","km":661},"geometry":{"type":"LineString","coordinates":[[11.062,40.188],[11.15,39.899],[11.237,39.611],[11.324,39.322],[11.411,39.034],[11.498,38.745],[11.585,38.457],[11.573,38.209],[11.469,37.999],[11.356,37.792],[11.225,37.591],[11.077,37.399],[10.915,37.214],[10.745,37.033],[10.572,36.854],[10.386,36.684],[10.151,36.562],[9.87,36.545],[9.591,36.517],[9.312,36.483],[9.688,36.327],[10.062,36.171],[10.438,36.015],[10.625,35.938]]}},{"type":"Feature","properties":{"seg":9,"kind":"warm","km":305},"geometry":{"type":"LineString","coordinates":[[27.466,44.312],[27.534,44.536],[27.588,44.761],[27.625,44.988],[27.642,45.216],[27.637,45.444],[27.612,45.671],[27.577,45.898],[27.529,46.124],[27.457,46.347],[27.367,46.566],[27.268,46.784],[27.163,47.0]]}},{"type":"Feature","properties":{"type":"L","hPa":1015.6},"geometry":{"type":"Point","coordinates":[10.625,35.938]}},{"type":"Feature","properties":{"type":"L","hPa":1015.6},"geometry":{"type":"Point","coordinates":[34.312,36.062]}},{"type":"Feature","properties":{"type":"L","hPa":1014.7},"geometry":{"type":"Point","coordinates":[39.188,36.375]}},{"type":"Feature","properties":{"type":"L","hPa":1014.8},"geometry":{"type":"Point","coordinates":[11.062,40.188]}},{"type":"Feature","properties":{"type":"L","hPa":989.8},"geometry":{"type":"Point","coordinates":[42.438,61.5]}},{"type":"Feature","properties":{"type":"H","hPa":1021.2},"geometry":{"type":"Point","coordinates":[-11.5,52.75]}}]}