{"type":"FeatureCollection","properties":{"valid_time":"2026-10-07T12:00:00+00:00","run":"2026-10-07T06:00:00+00:00","lead_hours":6,"source":"ICON-EU theta_e850, Renard-Clarke (icon_front_very_far_snapshot.py)"},"features":[{"type":"Feature","properties":{"seg":0,"kind":"cold","km":1052},"geometry":{"type":"LineString","coordinates":[[0.724,51.464],[0.561,51.274],[0.382,51.091],[0.196,50.911],[0.003,50.734],[-0.207,50.567],[-0.417,50.399],[-0.608,50.222],[-0.779,50.035],[-0.93,49.841],[-1.061,49.64],[-1.181,49.435],[-1.295,49.23],[-1.404,49.023],[-1.507,48.814],[-1.606,48.605],[-1.706,48.396],[-1.815,48.189],[-1.942,47.987],[-2.094,47.793],[-2.269,47.608],[-2.455,47.428],[-2.632,47.244],[-2.783,47.049],[-2.911,46.847],[-3.031,46.643],[-3.153,46.44],[-3.281,46.238],[-3.417,46.038],[-3.559,45.84],[-3.704,45.644],[-3.853,45.449],[-4.005,45.255],[-4.162,45.062],[-4.32,44.87],[-4.474,44.677],[-4.625,44.482],[-4.785,44.292],[-4.968,44.11],[-5.164,43.935],[-5.358,43.759],[-5.545,43.579],[-5.724,43.396],[-5.898,43.211]]}},{"type":"Feature","properties":{"seg":1,"kind":"cold","km":848},"geometry":{"type":"LineString","coordinates":[[-0.336,53.805],[-0.446,53.597],[-0.563,53.391],[-0.692,53.187],[-0.832,52.986],[-0.982,52.787],[-1.138,52.591],[-1.303,52.396],[-1.481,52.206],[-1.676,52.022],[-1.889,51.845],[-2.127,51.679],[-2.391,51.529],[-2.648,51.374],[-2.874,51.203],[-3.084,51.024],[-3.296,50.847],[-3.522,50.675],[-3.75,50.505],[-3.918,50.312],[-4.028,50.105],[-4.121,49.894],[-4.219,49.684],[-4.336,49.478],[-4.48,49.278],[-4.657,49.088],[-4.866,48.909],[-5.105,48.744],[-5.363,48.59],[-5.623,48.436],[-5.865,48.273],[-6.082,48.098],[-6.283,47.916],[-6.479,47.732],[-6.681,47.55],[-6.898,47.375]]}},{"type":"Feature","properties":{"seg":2,"kind":"warm","km":752},"geometry":{"type":"LineString","coordinates":[[35.498,42.022],[35.282,42.164],[35.043,42.282],[34.789,42.38],[34.523,42.459],[34.25,42.522],[33.973,42.572],[33.69,42.602],[33.406,42.597],[33.128,42.55],[32.866,42.465],[32.63,42.344],[32.435,42.185],[32.274,42.006],[32.198,41.913]]}},{"type":"Feature","properties":{"seg":2,"kind":"stat","km":752},"geometry":{"type":"LineString","coordinates":[[32.198,41.913],[32.047,41.729],[31.881,41.552],[31.692,41.389],[31.479,41.244],[31.247,41.118],[31.005,41.003],[30.761,40.89],[30.521,40.772],[30.283,40.652],[30.035,40.545],[29.775,40.456],[29.518,40.362],[29.273,40.251],[29.037,40.128],[28.803,40.004],[28.569,39.879],[28.344,39.746],[28.238,39.673]]}},{"type":"Feature","properties":{"seg":3,"kind":"warm","km":889},"geometry":{"type":"LineString","coordinates":[[10.392,57.329],[10.026,57.326],[9.661,57.309],[9.297,57.283],[8.934,57.253],[8.571,57.224],[8.207,57.199],[7.842,57.187],[7.476,57.198],[7.112,57.219],[6.746,57.224],[6.383,57.197],[6.024,57.155],[5.66,57.13],[5.294,57.128],[4.93,57.108],[4.576,57.052],[4.238,56.968],[3.936,56.846],[3.695,56.683],[3.505,56.497],[3.335,56.304],[3.166,56.111],[2.977,55.925],[2.749,55.755],[2.48,55.607],[2.193,55.472],[1.906,55.337],[1.629,55.194],[1.337,55.064],[1.867,55.098],[2.396,55.131],[2.926,55.165],[3.456,55.199],[3.985,55.233],[4.25,55.25]]}},{"type":"Feature","properties":{"seg":4,"kind":"warm","km":675},"geometry":{"type":"LineString","coordinates":[[20.121,35.941],[20.051,36.155],[19.951,36.362],[19.823,36.559],[19.676,36.748],[19.526,36.936],[19.389,37.13],[19.278,37.334],[19.19,37.543],[19.117,37.757],[19.052,37.972],[18.993,38.188],[18.94,38.405],[18.893,38.622],[18.851,38.84],[18.808,39.059],[18.76,39.276],[18.704,39.493],[18.64,39.708],[18.574,39.922],[18.509,40.137],[18.446,40.353],[18.382,40.568],[18.312,40.782],[18.231,40.993],[18.134,41.201],[18.02,41.403],[17.881,41.596],[17.798,41.686]]}},{"type":"Feature","properties":{"seg":5,"kind":"cold","km":590},"geometry":{"type":"LineString","coordinates":[[11.002,42.312],[11.174,42.137],[11.336,41.955],[11.498,41.774],[11.667,41.597],[11.845,41.425],[12.028,41.256],[12.209,41.086],[12.379,40.909],[12.528,40.721],[12.651,40.522],[12.751,40.315],[12.832,40.104],[12.892,39.888],[12.945,39.671],[13.014,39.457],[13.102,39.247],[13.197,39.039],[13.277,38.827],[13.324,38.609],[13.344,38.389],[13.352,38.168],[13.362,37.947],[13.386,37.727],[13.424,37.508]]}},{"type":"Feature","properties":{"seg":6,"kind":"stat","km":434},"geometry":{"type":"LineString","coordinates":[[-0.515,37.009],[-0.708,36.849],[-0.909,36.696],[-1.117,36.548],[-1.332,36.408],[-1.557,36.278],[-1.791,36.159],[-2.032,36.05],[-2.279,35.948],[-2.531,35.855],[-2.788,35.773],[-3.049,35.698],[-3.311,35.626],[-3.572,35.551],[-3.83,35.469],[-4.081,35.376],[-4.322,35.266],[-4.546,35.135],[-4.651,35.062]]}},{"type":"Feature","properties":{"seg":7,"kind":"cold","km":362},"geometry":{"type":"LineString","coordinates":[[2.908,41.0],[2.716,40.831],[2.487,40.693],[2.258,40.553],[2.067,40.384],[1.895,40.202],[1.721,40.021],[1.544,39.843],[1.364,39.666],[1.178,39.493],[0.977,39.329],[0.757,39.182],[0.517,39.054],[0.266,38.939],[0.019,38.819],[-0.097,38.75]]}},{"type":"Feature","properties":{"seg":8,"kind":"cold","km":347},"geometry":{"type":"LineString","coordinates":[[37.958,51.102],[37.665,51.225],[37.327,51.287],[36.974,51.306],[36.621,51.296],[36.269,51.272],[35.919,51.237],[35.574,51.188],[35.235,51.124],[34.897,51.058],[34.549,51.02],[34.198,51.037],[33.861,51.105],[33.547,51.207],[33.25,51.329]]}},{"type":"Feature","properties":{"seg":9,"kind":"warm","km":328},"geometry":{"type":"LineString","coordinates":[[13.798,53.015],[13.461,52.963],[13.137,52.884],[12.822,52.792],[12.505,52.702],[12.179,52.628],[11.844,52.57],[11.527,52.482],[11.249,52.351],[10.974,52.218],[10.742,52.056],[10.517,51.89],[10.249,51.751],[9.93,51.669],[9.757,51.668]]}},{"type":"Feature","properties":{"seg":10,"kind":"cold","km":315},"geometry":{"type":"LineString","coordinates":[[27.76,37.462],[27.906,37.275],[28.065,37.094],[28.232,36.918],[28.402,36.743],[28.569,36.567],[28.716,36.38],[28.83,36.181],[28.917,35.973],[28.995,35.763],[29.085,35.557],[29.208,35.36],[29.359,35.176],[29.527,35.0]]}},{"type":"Feature","properties":{"seg":11,"kind":"stat","km":315},"geometry":{"type":"LineString","coordinates":[[41.062,41.275],[40.795,41.2],[40.515,41.17],[40.272,41.272],[40.093,41.442],[39.826,41.488],[39.541,41.476],[39.257,41.488],[38.973,41.506],[38.688,41.507],[38.403,41.491],[38.12,41.468],[37.836,41.446],[37.554,41.418]]}},{"type":"Feature","properties":{"type":"L","hPa":1008.4},"geometry":{"type":"Point","coordinates":[4.25,55.25]}},{"type":"Feature","properties":{"type":"L","hPa":996.6},"geometry":{"type":"Point","coordinates":[45.25,61.5]}},{"type":"Feature","properties":{"type":"H","hPa":1021.4},"geometry":{"type":"Point","coordinates":[21.812,32.875]}},{"type":"Feature","properties":{"type":"H","hPa":1026.3},"geometry":{"type":"Point","coordinates":[-11.5,48.938]}}]}