{"type":"FeatureCollection","properties":{"valid_time":"2026-10-05T06:00:00+00:00","run":"2026-10-05T00:00:00+00:00","lead_hours":6,"source":"ICON-EU theta_e850, Renard-Clarke (icon_front_very_far_snapshot.py)"},"features":[{"type":"Feature","properties":{"seg":0,"kind":"warm","km":989},"geometry":{"type":"LineString","coordinates":[[30.903,47.125],[31.056,47.321],[31.182,47.525],[31.277,47.736],[31.364,47.948],[31.462,48.158],[31.577,48.365],[31.71,48.567],[31.861,48.764],[32.035,48.953],[32.254,49.121],[32.551,49.225],[32.886,49.266],[33.213,49.326],[33.47,49.468],[33.663,49.649],[33.833,49.839],[34.002,50.03],[34.182,50.217],[34.385,50.393],[34.626,50.548],[34.913,50.666],[35.228,50.751],[35.55,50.824],[35.878,50.887],[36.211,50.935],[36.55,50.962],[36.89,50.945],[37.216,50.882],[37.533,50.799],[37.856,50.728],[38.195,50.717],[38.525,50.773],[38.854,50.831],[39.186,50.882],[39.508,50.953],[39.754,51.103],[39.94,51.287],[40.118,51.475],[40.336,51.643],[40.643,51.729],[40.812,51.719]]}},{"type":"Feature","properties":{"seg":1,"kind":"warm","km":921},"geometry":{"type":"LineString","coordinates":[[44.312,52.482],[44.228,52.697],[44.13,52.911],[44.02,53.123],[43.898,53.333],[43.764,53.541],[43.619,53.746],[43.465,53.95],[43.311,54.153],[43.16,54.357],[43.016,54.563],[42.879,54.77],[42.754,54.98],[42.653,55.193],[42.576,55.41],[42.512,55.627],[42.455,55.846],[42.404,56.065],[42.362,56.284],[42.333,56.504],[42.322,56.725],[42.333,56.945],[42.362,57.166],[42.397,57.385],[42.426,57.605],[42.444,57.826],[42.45,58.047],[42.449,58.267],[42.445,58.488],[42.443,58.709],[42.446,58.929],[42.46,59.15],[42.488,59.37],[42.538,59.589],[42.613,59.806],[42.706,60.02],[42.797,60.235],[42.863,60.453],[42.883,60.562]]}},{"type":"Feature","properties":{"seg":2,"kind":"warm","km":747},"geometry":{"type":"LineString","coordinates":[[29.844,52.25],[29.958,52.46],[30.088,52.667],[30.223,52.874],[30.367,53.078],[30.521,53.28],[30.683,53.479],[30.851,53.677],[31.027,53.873],[31.214,54.066],[31.412,54.255],[31.616,54.441],[31.821,54.628],[32.03,54.813],[32.257,54.99],[32.525,55.148],[32.832,55.281],[33.15,55.405],[33.442,55.548],[33.683,55.72],[33.884,55.907],[34.073,56.099],[34.267,56.289],[34.473,56.476],[34.687,56.659],[34.896,56.843],[35.094,57.032],[35.278,57.226],[35.443,57.425],[35.589,57.628],[35.726,57.834],[35.792,57.938]]}},{"type":"Feature","properties":{"seg":3,"kind":"cold","km":582},"geometry":{"type":"LineString","coordinates":[[30.633,55.938],[30.533,55.723],[30.44,55.507],[30.338,55.293],[30.225,55.081],[30.105,54.87],[29.983,54.659],[29.856,54.449],[29.708,54.245],[29.507,54.057],[29.217,53.916],[28.863,53.841],[28.493,53.792],[28.128,53.737],[27.777,53.654],[27.434,53.56],[27.089,53.47],[26.738,53.386],[26.387,53.304],[26.037,53.22],[25.686,53.137],[25.331,53.06],[24.974,52.987],[24.617,52.913],[24.44,52.875]]}},{"type":"Feature","properties":{"seg":4,"kind":"stat","km":443},"geometry":{"type":"LineString","coordinates":[[26.171,39.062],[25.944,38.94],[25.739,38.794],[25.547,38.636],[25.37,38.468],[25.212,38.287],[25.069,38.099],[24.934,37.906],[24.798,37.715],[24.655,37.527],[24.503,37.343],[24.349,37.16],[24.201,36.974],[24.067,36.781],[23.949,36.582],[23.844,36.378],[23.744,36.173],[23.644,35.967],[23.542,35.762]]}},{"type":"Feature","properties":{"seg":5,"kind":"warm","km":407},"geometry":{"type":"LineString","coordinates":[[15.938,40.562],[15.893,40.788],[15.844,41.014],[15.793,41.24],[15.739,41.465],[15.677,41.689],[15.602,41.911],[15.516,42.13],[15.42,42.347],[15.319,42.563],[15.214,42.778],[15.104,42.992],[14.988,43.204],[14.858,43.412],[14.707,43.611],[14.527,43.796],[14.312,43.961]]}},{"type":"Feature","properties":{"seg":6,"kind":"cold","km":360},"geometry":{"type":"LineString","coordinates":[[22.734,32.938],[22.703,33.159],[22.635,33.375],[22.546,33.586],[22.453,33.796],[22.366,34.008],[22.289,34.222],[22.217,34.438],[22.151,34.654],[22.091,34.872],[22.037,35.091],[21.983,35.31],[21.913,35.526],[21.804,35.73],[21.639,35.907],[21.538,35.982]]}},{"type":"Feature","properties":{"seg":7,"kind":"warm","km":341},"geometry":{"type":"LineString","coordinates":[[-8.792,36.566],[-8.914,36.369],[-9.013,36.165],[-9.081,35.953],[-9.127,35.737],[-9.181,35.522],[-9.26,35.312],[-9.366,35.11],[-9.496,34.917],[-9.649,34.735],[-9.821,34.564],[-10.008,34.402],[-10.197,34.242],[-10.382,34.08],[-10.562,33.914]]}},{"type":"Feature","properties":{"seg":8,"kind":"warm","km":334},"geometry":{"type":"LineString","coordinates":[[29.977,43.312],[29.815,43.115],[29.668,42.911],[29.525,42.706],[29.377,42.502],[29.216,42.304],[29.043,42.112],[28.862,41.924],[28.682,41.734],[28.512,41.541],[28.344,41.346],[28.102,41.213],[27.797,41.168],[27.521,41.062]]}},{"type":"Feature","properties":{"seg":9,"kind":"warm","km":328},"geometry":{"type":"LineString","coordinates":[[-9.374,43.938],[-9.348,43.712],[-9.319,43.487],[-9.353,43.263],[-9.443,43.046],[-9.564,42.838],[-9.677,42.627],[-9.768,42.411],[-9.85,42.193],[-9.941,41.976],[-10.049,41.764],[-10.18,41.56],[-10.34,41.367],[-10.528,41.188]]}},{"type":"Feature","properties":{"seg":10,"kind":"stat","km":311},"geometry":{"type":"LineString","coordinates":[[41.562,41.677],[41.257,41.646],[40.97,41.557],[40.694,41.453],[40.392,41.403],[40.082,41.391],[39.773,41.38],[39.463,41.372],[39.153,41.368],[38.844,41.347],[38.547,41.283],[38.271,41.177],[38.006,41.057]]}},{"type":"Feature","properties":{"seg":11,"kind":"stat","km":307},"geometry":{"type":"LineString","coordinates":[[8.341,37.75],[8.336,37.98],[8.294,38.207],[8.227,38.431],[8.138,38.65],[8.028,38.864],[7.903,39.073],[7.764,39.276],[7.604,39.469],[7.424,39.652],[7.249,39.837],[7.104,40.037],[6.991,40.25]]}},{"type":"Feature","properties":{"type":"L","hPa":989.1},"geometry":{"type":"Point","coordinates":[-11.5,61.5]}},{"type":"Feature","properties":{"type":"H","hPa":1026.7},"geometry":{"type":"Point","coordinates":[45.25,41.562]}},{"type":"Feature","properties":{"type":"H","hPa":1028.3},"geometry":{"type":"Point","coordinates":[25.375,46.125]}},{"type":"Feature","properties":{"type":"H","hPa":1026.0},"geometry":{"type":"Point","coordinates":[-11.5,48.125]}},{"type":"Feature","properties":{"type":"H","hPa":1027.9},"geometry":{"type":"Point","coordinates":[12.188,50.125]}}]}