{"type":"FeatureCollection","properties":{"valid_time":"2026-10-06T06:00:00+00:00","run":"2026-10-06T00:00:00+00:00","lead_hours":6,"source":"ICON-EU theta_e850, Renard-Clarke (icon_front_very_far_snapshot.py)"},"features":[{"type":"Feature","properties":{"seg":0,"kind":"stat","km":1026},"geometry":{"type":"LineString","coordinates":[[4.184,55.809],[3.806,55.78],[3.425,55.774],[3.045,55.793],[2.666,55.816],[2.285,55.829],[1.904,55.835],[1.523,55.827],[1.145,55.798],[0.77,55.755],[0.396,55.714],[0.021,55.675],[-0.355,55.636],[-0.732,55.601],[-1.109,55.568]]}},{"type":"Feature","properties":{"seg":0,"kind":"cold","km":1026},"geometry":{"type":"LineString","coordinates":[[-1.109,55.568],[-1.486,55.534],[-1.863,55.502],[-2.24,55.47],[-2.614,55.427],[-2.983,55.37],[-3.346,55.304],[-3.707,55.232],[-4.066,55.157],[-4.418,55.073],[-4.757,54.973],[-5.094,54.87],[-5.441,54.779],[-5.797,54.699],[-6.147,54.613],[-6.483,54.509],[-6.814,54.4],[-7.144,54.29],[-7.472,54.178],[-7.798,54.064],[-8.125,53.951],[-8.458,53.844],[-8.794,53.74],[-9.114,53.621],[-9.408,53.481],[-9.688,53.332],[-9.968,53.183],[-10.259,53.041],[-10.562,52.909]]}},{"type":"Feature","properties":{"seg":1,"kind":"cold","km":960},"geometry":{"type":"LineString","coordinates":[[-8.107,40.812],[-7.954,40.631],[-7.805,40.448],[-7.658,40.264],[-7.517,40.077],[-7.381,39.887],[-7.261,39.691],[-7.171,39.485],[-7.116,39.271],[-7.094,39.054],[-7.102,38.836],[-7.136,38.619],[-7.198,38.406],[-7.285,38.199],[-7.397,38.0],[-7.534,37.811],[-7.694,37.634],[-7.873,37.47],[-8.069,37.317],[-8.276,37.175],[-8.487,37.036],[-8.677,36.879],[-8.827,36.697],[-8.95,36.502],[-9.059,36.301],[-9.162,36.099],[-9.263,35.896],[-9.36,35.692],[-9.448,35.485],[-9.523,35.275],[-9.586,35.063],[-9.639,34.848],[-9.69,34.634],[-9.748,34.42],[-9.822,34.21],[-9.916,34.005],[-10.03,33.807],[-10.163,33.616],[-10.313,33.434],[-10.478,33.259],[-10.562,33.173]]}},{"type":"Feature","properties":{"seg":2,"kind":"stat","km":838},"geometry":{"type":"LineString","coordinates":[[37.451,42.508],[37.182,42.599],[36.903,42.668],[36.614,42.713],[36.32,42.734],[36.025,42.735],[35.731,42.725],[35.436,42.717],[35.14,42.717],[34.845,42.719],[34.551,42.707],[34.26,42.671],[33.976,42.611],[33.699,42.536],[33.426,42.453],[33.157,42.364],[32.894,42.264],[32.635,42.16],[32.368,42.067],[32.091,41.992],[31.813,41.919],[31.54,41.837],[31.272,41.745],[31.009,41.647],[30.748,41.544],[30.483,41.449],[30.207,41.371],[29.927,41.302],[29.649,41.229],[29.383,41.135],[29.145,41.007],[28.929,40.858],[28.693,40.728],[28.42,40.646],[28.138,40.582],[28.0,40.543]]}},{"type":"Feature","properties":{"seg":3,"kind":"stat","km":679},"geometry":{"type":"LineString","coordinates":[[17.325,38.238],[17.29,38.452],[17.054,38.574],[16.899,38.755],[16.844,38.969],[16.818,39.187],[16.791,39.404],[16.746,39.619],[16.688,39.833],[16.632,40.048],[16.571,40.261],[16.495,40.472],[16.405,40.68],[16.303,40.884],[16.191,41.087],[16.074,41.287],[15.956,41.487],[15.84,41.688],[15.736,41.892],[15.647,42.1],[15.58,42.312],[15.533,42.528],[15.505,42.745],[15.489,42.963],[15.475,43.181],[15.451,43.398],[15.405,43.614],[15.334,43.825],[15.234,44.031]]}},{"type":"Feature","properties":{"seg":4,"kind":"stat","km":678},"geometry":{"type":"LineString","coordinates":[[11.062,49.708],[10.809,49.564],[10.544,49.43],[10.257,49.319],[9.95,49.234],[9.63,49.174],[9.3,49.147],[8.968,49.134],[8.644,49.087],[8.358,48.974],[8.08,48.852],[7.792,48.742],[7.493,48.644],[7.184,48.563],[6.883,48.469],[6.626,48.329],[6.399,48.167],[6.186,47.997],[6.002,47.813],[5.873,47.609],[5.79,47.395],[5.718,47.178],[5.617,46.968],[5.482,46.765],[5.35,46.562],[5.255,46.35],[5.178,46.134],[5.097,45.919],[5.052,45.812]]}},{"type":"Feature","properties":{"seg":5,"kind":"warm","km":535},"geometry":{"type":"LineString","coordinates":[[16.403,37.0],[16.238,37.182],[16.02,37.327],[15.832,37.495],[15.697,37.692],[15.581,37.896],[15.459,38.099],[15.321,38.295],[15.161,38.48],[14.973,38.649],[14.755,38.794],[14.517,38.918],[14.277,39.041],[14.046,39.174],[13.832,39.323],[13.629,39.481],[13.428,39.64],[13.233,39.804],[13.056,39.98],[12.907,40.171],[12.782,40.372],[12.681,40.581],[12.636,40.688]]}},{"type":"Feature","properties":{"seg":6,"kind":"warm","km":518},"geometry":{"type":"LineString","coordinates":[[34.913,56.027],[34.896,56.248],[34.902,56.469],[34.941,56.69],[35.008,56.908],[35.084,57.126],[35.157,57.344],[35.231,57.561],[35.315,57.778],[35.418,57.992],[35.535,58.204],[35.64,58.418],[35.719,58.635],[35.781,58.854],[35.842,59.073],[35.911,59.291],[35.993,59.508],[36.094,59.723],[36.214,59.934],[36.347,60.143],[36.482,60.352],[36.608,60.562]]}},{"type":"Feature","properties":{"seg":7,"kind":"warm","km":427},"geometry":{"type":"LineString","coordinates":[[38.181,54.688],[38.229,54.911],[38.254,55.136],[38.264,55.362],[38.276,55.587],[38.309,55.812],[38.384,56.033],[38.492,56.251],[38.554,56.473],[38.553,56.698],[38.546,56.924],[38.545,57.149],[38.544,57.375],[38.538,57.6],[38.526,57.825],[38.511,58.051],[38.5,58.276],[38.499,58.501]]}},{"type":"Feature","properties":{"seg":8,"kind":"cold","km":425},"geometry":{"type":"LineString","coordinates":[[25.625,56.737],[25.299,56.606],[24.952,56.493],[24.637,56.354],[24.364,56.19],[24.075,56.034],[23.752,55.9],[23.395,55.797],[23.013,55.73],[22.616,55.694],[22.215,55.681],[21.814,55.696],[21.423,55.746],[21.041,55.816],[20.654,55.875],[20.266,55.935],[19.884,56.003],[19.5,56.07]]}},{"type":"Feature","properties":{"seg":9,"kind":"stat","km":635},"geometry":{"type":"LineString","coordinates":[[31.312,36.25],[30.954,36.242],[30.595,36.234],[30.237,36.227],[29.878,36.219],[29.52,36.211],[29.161,36.203],[28.803,36.195],[28.444,36.188],[28.391,35.966],[28.368,35.741],[28.351,35.515],[28.329,35.29],[28.293,35.066],[28.249,34.843],[28.249,34.618],[28.323,34.401],[28.43,34.192],[28.55,33.989],[28.678,33.789],[28.802,33.588],[28.91,33.38],[28.982,33.162],[29.014,32.938]]}},{"type":"Feature","properties":{"seg":10,"kind":"warm","km":315},"geometry":{"type":"LineString","coordinates":[[29.938,42.557],[30.221,42.648],[30.5,42.747],[30.777,42.85],[31.053,42.953],[31.329,43.057],[31.605,43.159],[31.885,43.256],[32.167,43.35],[32.45,43.444],[32.732,43.538],[33.021,43.621],[33.311,43.7],[33.45,43.75]]}},{"type":"Feature","properties":{"seg":11,"kind":"cold","km":303},"geometry":{"type":"LineString","coordinates":[[8.812,42.326],[8.53,42.238],[8.233,42.181],[7.929,42.154],[7.622,42.147],[7.316,42.135],[7.012,42.105],[6.708,42.079],[6.401,42.082],[6.102,42.129],[5.822,42.221],[5.563,42.342],[5.288,42.438]]}},{"type":"Feature","properties":{"type":"L","hPa":1011.5},"geometry":{"type":"Point","coordinates":[43.812,32.875]}},{"type":"Feature","properties":{"type":"L","hPa":1015.2},"geometry":{"type":"Point","coordinates":[-6.625,34.312]}},{"type":"Feature","properties":{"type":"L","hPa":1015.7},"geometry":{"type":"Point","coordinates":[31.312,36.25]}},{"type":"Feature","properties":{"type":"L","hPa":1017.2},"geometry":{"type":"Point","coordinates":[1.375,37.0]}},{"type":"Feature","properties":{"type":"L","hPa":1013.4},"geometry":{"type":"Point","coordinates":[-3.812,44.312]}},{"type":"Feature","properties":{"type":"L","hPa":989.1},"geometry":{"type":"Point","coordinates":[31.062,61.5]}},{"type":"Feature","properties":{"type":"H","hPa":1020.2},"geometry":{"type":"Point","coordinates":[-11.5,53.938]}}]}