{"type":"FeatureCollection","properties":{"valid_time":"2026-10-10T12:00:00+00:00","run":"2026-10-10T06:00:00+00:00","lead_hours":6,"source":"ICON-EU theta_e850, Renard-Clarke (icon_front_very_far_snapshot.py)"},"features":[{"type":"Feature","properties":{"seg":0,"kind":"cold","km":1187},"geometry":{"type":"LineString","coordinates":[[6.539,47.664],[6.258,47.562],[5.977,47.461],[5.694,47.364],[5.405,47.274],[5.115,47.185],[4.833,47.086],[4.554,46.983],[4.268,46.888],[3.97,46.816],[3.663,46.764],[3.353,46.72],[3.042,46.679],[2.732,46.636],[2.441,46.552],[2.183,46.425],[1.94,46.285],[1.693,46.148],[1.43,46.026],[1.145,45.93],[0.845,45.86],[0.54,45.804],[0.232,45.752],[-0.077,45.707],[-0.389,45.668],[-0.701,45.634],[-1.014,45.603],[-1.328,45.577],[-1.642,45.553],[-1.955,45.521],[-2.262,45.468],[-2.56,45.394],[-2.855,45.315],[-3.156,45.248],[-3.463,45.196],[-3.773,45.151],[-4.083,45.108],[-4.394,45.07],[-4.708,45.044],[-5.024,45.035],[-5.34,45.039],[-5.656,45.05],[-5.972,45.062],[-6.287,45.08],[-6.602,45.103],[-6.917,45.119],[-7.233,45.115],[-7.547,45.088],[-7.854,45.035],[-8.004,45.0]]}},{"type":"Feature","properties":{"seg":1,"kind":"cold","km":944},"geometry":{"type":"LineString","coordinates":[[44.312,53.108],[44.085,52.942],[43.84,52.786],[43.58,52.641],[43.312,52.501],[43.042,52.363],[42.776,52.222],[42.514,52.078],[42.257,51.931],[42.005,51.779],[41.754,51.627],[41.498,51.479],[41.231,51.339],[40.956,51.205],[40.674,51.077],[40.385,50.956],[40.086,50.845],[39.783,50.738],[39.484,50.627],[39.19,50.511],[38.896,50.394],[38.601,50.278],[38.305,50.164],[38.009,50.049],[37.714,49.934],[37.42,49.817],[37.132,49.696],[36.849,49.569],[36.569,49.438],[36.287,49.311],[35.997,49.19],[35.702,49.075],[35.41,48.957],[35.131,48.826],[34.866,48.684],[34.601,48.543],[34.331,48.405],[34.062,48.266],[33.792,48.128],[33.653,48.062]]}},{"type":"Feature","properties":{"seg":2,"kind":"cold","km":868},"geometry":{"type":"LineString","coordinates":[[14.105,40.855],[14.22,40.655],[14.32,40.45],[14.417,40.245],[14.515,40.039],[14.601,39.831],[14.661,39.616],[14.689,39.398],[14.69,39.178],[14.669,38.959],[14.63,38.742],[14.579,38.526],[14.52,38.311],[14.455,38.097],[14.382,37.885],[14.294,37.677],[14.18,37.477],[14.04,37.288],[13.886,37.105],[13.727,36.926],[13.559,36.752],[13.379,36.585],[13.191,36.424],[12.998,36.267],[12.801,36.113],[12.602,35.96],[12.402,35.809],[12.2,35.659],[11.992,35.515],[11.774,35.38],[11.547,35.254],[11.314,35.137],[11.075,35.027],[10.824,34.936],[10.558,34.877],[10.285,34.846],[10.148,34.835]]}},{"type":"Feature","properties":{"seg":3,"kind":"warm","km":803},"geometry":{"type":"LineString","coordinates":[[34.59,44.058],[34.74,44.25],[34.919,44.429],[35.09,44.613],[35.243,44.803],[35.375,45.002],[35.487,45.206],[35.592,45.412],[35.7,45.617],[35.821,45.819],[35.963,46.014],[36.125,46.2],[36.306,46.379],[36.501,46.55],[36.709,46.714],[36.928,46.871],[37.159,47.02],[37.399,47.161],[37.647,47.295],[37.901,47.423],[38.161,47.546],[38.428,47.661],[38.705,47.765],[38.989,47.859],[39.276,47.947],[39.562,48.038],[39.833,48.148],[40.074,48.288],[40.27,48.459],[40.41,48.653],[40.521,48.858],[40.643,49.059],[40.785,49.254],[40.955,49.438]]}},{"type":"Feature","properties":{"seg":4,"kind":"cold","km":739},"geometry":{"type":"LineString","coordinates":[[18.114,52.891],[17.912,52.709],[17.689,52.537],[17.421,52.393],[17.107,52.29],[16.779,52.204],[16.463,52.103],[16.164,51.984],[15.871,51.858],[15.566,51.744],[15.242,51.654],[14.907,51.58],[14.582,51.491],[14.279,51.376],[13.983,51.254],[13.67,51.149],[13.336,51.073],[13.001,51.001],[12.696,50.888],[12.453,50.727],[12.261,50.541],[12.106,50.342],[11.983,50.135],[11.883,49.922],[11.787,49.709],[11.67,49.501],[11.503,49.305],[11.291,49.128],[11.052,48.964],[10.79,48.814],[10.5,48.688]]}},{"type":"Feature","properties":{"seg":5,"kind":"stat","km":578},"geometry":{"type":"LineString","coordinates":[[-4.005,37.558],[-4.27,37.516],[-4.532,37.459],[-4.788,37.387],[-5.037,37.3],[-5.279,37.202],[-5.509,37.086],[-5.709,36.937],[-5.837,36.744],[-5.919,36.534],[-6.008,36.325],[-6.131,36.128],[-6.286,35.948],[-6.456,35.776],[-6.63,35.607],[-6.802,35.436],[-6.969,35.262],[-7.136,35.088],[-7.31,34.919],[-7.495,34.758],[-7.69,34.604],[-7.883,34.449],[-8.053,34.278],[-8.187,34.086],[-8.242,33.985]]}},{"type":"Feature","properties":{"seg":6,"kind":"stat","km":572},"geometry":{"type":"LineString","coordinates":[[25.122,35.542],[24.997,35.737],[24.889,35.938],[24.817,36.149],[24.787,36.366],[24.787,36.585],[24.807,36.803],[24.844,37.02],[24.906,37.233],[24.989,37.441],[25.087,37.646],[25.197,37.846],[25.317,38.043],[25.449,38.235],[25.585,38.425],[25.718,38.616],[25.837,38.813],[25.934,39.017],[26.014,39.227],[26.093,39.436],[26.184,39.643],[26.289,39.845],[26.428,40.033],[26.602,40.202],[26.671,40.296]]}},{"type":"Feature","properties":{"seg":7,"kind":"warm","km":487},"geometry":{"type":"LineString","coordinates":[[6.986,38.639],[6.918,38.857],[6.812,39.066],[6.675,39.264],[6.536,39.462],[6.43,39.671],[6.353,39.887],[6.286,40.106],[6.221,40.325],[6.161,40.544],[6.114,40.765],[6.087,40.988],[6.083,41.213],[6.099,41.436],[6.129,41.659],[6.164,41.882],[6.197,42.105],[6.227,42.328],[6.268,42.55],[6.336,42.768],[6.378,42.875]]}},{"type":"Feature","properties":{"seg":8,"kind":"warm","km":589},"geometry":{"type":"LineString","coordinates":[[25.312,58.087],[24.935,58.196],[24.549,58.296],[24.145,58.374],[23.722,58.412],[23.291,58.415],[22.86,58.408],[22.432,58.429],[22.011,58.476],[21.592,58.53],[21.167,58.566],[20.737,58.575],[20.306,58.577],[19.877,58.596],[19.45,58.627],[19.02,58.632],[18.602,58.581],[18.223,58.474],[17.896,58.328],[18.005,58.192],[18.545,58.044],[19.085,57.897],[19.625,57.75]]}},{"type":"Feature","properties":{"seg":9,"kind":"stat","km":389},"geometry":{"type":"LineString","coordinates":[[-6.562,38.536],[-6.302,38.437],[-6.015,38.412],[-5.73,38.45],[-5.456,38.523],[-5.191,38.615],[-4.93,38.714],[-4.666,38.807],[-4.396,38.89],[-4.124,38.969],[-3.854,39.051],[-3.585,39.135],[-3.315,39.217],[-3.043,39.297],[-2.775,39.383],[-2.509,39.473],[-2.367,39.492]]}},{"type":"Feature","properties":{"seg":10,"kind":"cold","km":318},"geometry":{"type":"LineString","coordinates":[[43.352,36.812],[43.203,36.618],[43.039,36.432],[42.831,36.278],[42.578,36.177],[42.302,36.127],[42.022,36.093],[41.747,36.042],[41.501,35.93],[41.278,35.79],[41.044,35.661],[40.788,35.564],[40.515,35.505],[40.375,35.487]]}},{"type":"Feature","properties":{"type":"L","hPa":1017.6},"geometry":{"type":"Point","coordinates":[45.25,41.5]}},{"type":"Feature","properties":{"type":"L","hPa":996.6},"geometry":{"type":"Point","coordinates":[19.625,57.75]}},{"type":"Feature","properties":{"type":"L","hPa":994.2},"geometry":{"type":"Point","coordinates":[12.5,58.75]}},{"type":"Feature","properties":{"type":"L","hPa":997.4},"geometry":{"type":"Point","coordinates":[-7.438,60.562]}},{"type":"Feature","properties":{"type":"L","hPa":989.8},"geometry":{"type":"Point","coordinates":[35.625,61.5]}},{"type":"Feature","properties":{"type":"H","hPa":1016.2},"geometry":{"type":"Point","coordinates":[21.688,32.0]}},{"type":"Feature","properties":{"type":"H","hPa":1023.3},"geometry":{"type":"Point","coordinates":[-11.5,42.438]}},{"type":"Feature","properties":{"type":"H","hPa":1003.0},"geometry":{"type":"Point","coordinates":[14.438,61.5]}}]}