{"type":"FeatureCollection","properties":{"valid_time":"2026-10-06T00:00:00+00:00","run":"2026-10-05T18:00:00+00:00","lead_hours":6,"source":"ICON-EU theta_e850, Renard-Clarke (icon_front_very_far_snapshot.py)"},"features":[{"type":"Feature","properties":{"seg":0,"kind":"warm","km":699},"geometry":{"type":"LineString","coordinates":[[11.423,32.938],[11.515,33.145],[11.619,33.349],[11.732,33.549],[11.846,33.75],[11.95,33.953],[12.038,34.162],[12.109,34.374],[12.162,34.591],[12.2,34.809],[12.224,35.029],[12.237,35.249],[12.243,35.469],[12.247,35.69],[12.248,35.91],[12.237,36.13],[12.201,36.349],[12.125,36.56],[12.008,36.759],[11.869,36.948],[11.731,37.139],[11.61,37.336],[11.514,37.542],[11.454,37.757],[11.439,37.977],[11.464,38.196],[11.495,38.415],[11.499,38.635],[11.49,38.855],[11.553,38.947]]}},{"type":"Feature","properties":{"seg":1,"kind":"stat","km":634},"geometry":{"type":"LineString","coordinates":[[17.609,38.622],[17.445,38.804],[17.316,39.0],[17.234,39.21],[17.2,39.428],[17.19,39.647],[17.168,39.865],[17.112,40.08],[17.017,40.288],[16.893,40.486],[16.755,40.679],[16.617,40.873],[16.49,41.07],[16.376,41.272],[16.274,41.478],[16.182,41.686],[16.094,41.895],[16.004,42.104],[15.91,42.311],[15.814,42.518],[15.719,42.726],[15.635,42.936],[15.562,43.148],[15.491,43.361],[15.412,43.572],[15.313,43.778],[15.177,43.972]]}},{"type":"Feature","properties":{"seg":2,"kind":"stat","km":553},"geometry":{"type":"LineString","coordinates":[[19.778,38.75],[19.831,38.533],[19.916,38.323],[20.036,38.125],[20.172,37.933],[20.315,37.744],[20.459,37.556],[20.582,37.358],[20.678,37.152],[20.765,36.942],[20.852,36.732],[20.937,36.522],[21.008,36.309],[21.056,36.091],[21.084,35.872],[21.128,35.654],[21.272,35.47],[21.492,35.338],[21.699,35.193],[21.902,35.044],[22.102,34.892],[22.309,34.747],[22.532,34.619],[22.625,34.538]]}},{"type":"Feature","properties":{"seg":3,"kind":"stat","km":542},"geometry":{"type":"LineString","coordinates":[[39.152,41.734],[38.855,41.724],[38.568,41.781],[38.298,41.875],[38.026,41.965],[37.746,42.042],[37.462,42.108],[37.175,42.17],[36.889,42.232],[36.603,42.294],[36.317,42.359],[36.032,42.423],[35.745,42.484],[35.454,42.533],[35.159,42.566],[34.862,42.576],[34.564,42.561],[34.271,42.522],[33.985,42.459],[33.709,42.376],[33.442,42.276],[33.19,42.159],[32.985,42.0]]}},{"type":"Feature","properties":{"seg":4,"kind":"cold","km":659},"geometry":{"type":"LineString","coordinates":[[23.938,61.5],[23.613,61.247],[23.288,60.993],[22.962,60.74],[22.637,60.486],[22.312,60.233],[22.076,60.049],[21.865,59.857],[21.622,59.676],[21.344,59.509],[21.064,59.343],[20.805,59.168],[20.576,58.982],[20.381,58.785],[20.205,58.584],[19.992,58.394],[19.592,58.342],[19.235,58.232],[19.012,58.045],[18.801,57.853],[18.514,57.691],[18.172,57.56],[17.79,57.465],[17.387,57.398],[16.978,57.339],[16.562,57.296]]}},{"type":"Feature","properties":{"seg":5,"kind":"warm","km":488},"geometry":{"type":"LineString","coordinates":[[14.698,37.948],[14.501,38.109],[14.31,38.273],[14.119,38.438],[13.929,38.604],[13.742,38.771],[13.554,38.938],[13.364,39.104],[13.17,39.266],[12.969,39.424],[12.765,39.579],[12.567,39.74],[12.391,39.914],[12.249,40.104],[12.149,40.31],[12.087,40.524],[12.05,40.742],[12.027,40.96],[12.003,41.179],[11.966,41.396],[11.914,41.612]]}},{"type":"Feature","properties":{"seg":6,"kind":"cold","km":470},"geometry":{"type":"LineString","coordinates":[[-3.858,55.517],[-4.22,55.44],[-4.584,55.366],[-4.953,55.304],[-5.329,55.253],[-5.707,55.211],[-6.087,55.173],[-6.465,55.13],[-6.838,55.074],[-7.201,54.998],[-7.553,54.908],[-7.897,54.808],[-8.228,54.694],[-8.546,54.568],[-8.865,54.444],[-9.197,54.331],[-9.535,54.224],[-9.877,54.122],[-10.221,54.022],[-10.562,53.918]]}},{"type":"Feature","properties":{"seg":7,"kind":"stat","km":429},"geometry":{"type":"LineString","coordinates":[[11.062,49.81],[10.781,49.694],[10.524,49.554],[10.265,49.416],[9.99,49.293],[9.696,49.19],[9.388,49.108],[9.072,49.04],[8.77,48.949],[8.498,48.822],[8.218,48.704],[7.923,48.602],[7.619,48.513],[7.303,48.444],[6.99,48.371],[6.704,48.26],[6.457,48.113],[6.232,47.951],[6.122,47.868]]}},{"type":"Feature","properties":{"seg":8,"kind":"warm","km":923},"geometry":{"type":"LineString","coordinates":[[-3.188,43.875],[-3.209,44.16],[-3.231,44.444],[-3.253,44.729],[-3.274,45.014],[-3.296,45.299],[-3.318,45.583],[-3.34,45.868],[-3.361,46.153],[-3.383,46.438],[-3.436,46.215],[-3.554,46.007],[-3.749,45.829],[-3.966,45.664],[-4.195,45.506],[-4.436,45.358],[-4.682,45.214],[-4.92,45.064],[-5.14,44.9],[-5.343,44.726],[-5.552,44.556],[-5.816,44.431],[-6.121,44.364],[-6.425,44.295],[-6.373,44.228],[-5.974,44.184],[-5.576,44.14],[-5.178,44.096],[-4.78,44.051],[-4.382,44.007],[-3.984,43.963],[-3.586,43.919],[-3.188,43.875]]}},{"type":"Feature","properties":{"seg":9,"kind":"stat","km":328},"geometry":{"type":"LineString","coordinates":[[32.382,42.062],[32.098,42.126],[31.799,42.088],[31.517,42.006],[31.243,41.909],[30.953,41.845],[30.655,41.799],[30.365,41.735],[30.088,41.642],[29.828,41.526],[29.584,41.392],[29.355,41.243],[29.12,41.101],[28.849,41.0]]}},{"type":"Feature","properties":{"seg":10,"kind":"stat","km":309},"geometry":{"type":"LineString","coordinates":[[8.812,42.375],[8.501,42.369],[8.19,42.403],[7.879,42.43],[7.565,42.441],[7.252,42.44],[6.938,42.435],[6.624,42.436],[6.311,42.453],[6.002,42.49],[5.699,42.55],[5.407,42.634],[5.136,42.75]]}},{"type":"Feature","properties":{"seg":11,"kind":"stat","km":302},"geometry":{"type":"LineString","coordinates":[[34.54,36.727],[34.718,36.554],[34.925,36.404],[35.13,36.25],[35.301,36.073],[35.428,35.872],[35.517,35.658],[35.577,35.438],[35.609,35.213],[35.613,34.988],[35.594,34.762],[35.568,34.537],[35.58,34.312]]}},{"type":"Feature","properties":{"type":"L","hPa":1015.8},"geometry":{"type":"Point","coordinates":[-7.625,33.812]}},{"type":"Feature","properties":{"type":"L","hPa":1017.7},"geometry":{"type":"Point","coordinates":[0.188,36.25]}},{"type":"Feature","properties":{"type":"L","hPa":1014.2},"geometry":{"type":"Point","coordinates":[-9.188,42.375]}},{"type":"Feature","properties":{"type":"L","hPa":1016.1},"geometry":{"type":"Point","coordinates":[-3.188,43.875]}},{"type":"Feature","properties":{"type":"L","hPa":1005.3},"geometry":{"type":"Point","coordinates":[2.375,61.5]}},{"type":"Feature","properties":{"type":"L","hPa":991.9},"geometry":{"type":"Point","coordinates":[23.938,61.5]}},{"type":"Feature","properties":{"type":"H","hPa":1024.3},"geometry":{"type":"Point","coordinates":[41.625,44.25]}}]}