{"type":"FeatureCollection","properties":{"valid_time":"2026-10-10T18:00:00+00:00","run":"2026-10-10T12:00:00+00:00","lead_hours":6,"source":"ICON-EU theta_e850, Renard-Clarke (icon_front_very_far_snapshot.py)"},"features":[{"type":"Feature","properties":{"seg":0,"kind":"warm","km":986},"geometry":{"type":"LineString","coordinates":[[31.528,53.778],[31.385,53.986],[31.231,54.191],[31.142,54.407],[31.14,54.629],[31.165,54.851],[31.175,55.073],[31.149,55.294],[31.076,55.513],[30.959,55.725],[30.804,55.931],[30.618,56.128],[30.398,56.316],[30.139,56.487],[29.869,56.654],[29.651,56.841],[29.483,57.043],[29.333,57.25],[29.178,57.455],[29.011,57.658],[28.834,57.858],[28.657,58.058],[28.497,58.263],[28.383,58.475],[28.285,58.69],[28.022,58.859],[27.706,58.999],[27.368,59.124],[27.009,59.229],[26.644,59.329],[26.288,59.438],[25.766,59.321],[25.245,59.204],[24.723,59.088],[24.201,58.971],[23.679,58.854],[23.158,58.738],[22.636,58.621],[22.375,58.562]]}},{"type":"Feature","properties":{"seg":1,"kind":"cold","km":680},"geometry":{"type":"LineString","coordinates":[[44.312,51.285],[44.039,51.149],[43.768,51.012],[43.491,50.88],[43.198,50.764],[42.888,50.667],[42.568,50.584],[42.246,50.505],[41.923,50.427],[41.6,50.35],[41.278,50.27],[40.96,50.185],[40.646,50.093],[40.333,50.0],[40.019,49.909],[39.705,49.817],[39.395,49.72],[39.09,49.616],[38.789,49.509],[38.492,49.395],[38.203,49.275],[37.923,49.146],[37.655,49.006],[37.397,48.859],[37.135,48.714],[36.855,48.584],[36.552,48.479],[36.229,48.402],[36.062,48.375]]}},{"type":"Feature","properties":{"seg":2,"kind":"warm","km":571},"geometry":{"type":"LineString","coordinates":[[22.109,48.203],[21.785,48.16],[21.478,48.078],[21.168,47.998],[20.853,47.93],[20.535,47.868],[20.215,47.811],[19.891,47.766],[19.564,47.731],[19.239,47.687],[18.916,47.64],[18.588,47.611],[18.258,47.596],[17.927,47.603],[17.601,47.588],[17.338,47.455],[17.125,47.284],[16.913,47.112],[16.688,46.948],[16.46,46.786],[16.247,46.614],[16.05,46.435],[15.843,46.26],[15.572,46.197]]}},{"type":"Feature","properties":{"seg":3,"kind":"cold","km":569},"geometry":{"type":"LineString","coordinates":[[2.557,45.506],[2.318,45.362],[2.09,45.21],[1.848,45.069],[1.58,44.954],[1.285,44.883],[0.975,44.85],[0.664,44.827],[0.353,44.8],[0.041,44.776],[-0.271,44.761],[-0.584,44.755],[-0.897,44.75],[-1.21,44.739],[-1.522,44.719],[-1.833,44.691],[-2.144,44.669],[-2.457,44.658],[-2.77,44.654],[-3.083,44.655],[-3.396,44.665],[-3.707,44.69],[-4.014,44.736],[-4.312,44.802]]}},{"type":"Feature","properties":{"seg":4,"kind":"cold","km":801},"geometry":{"type":"LineString","coordinates":[[13.25,39.125],[13.573,38.967],[13.897,38.808],[14.22,38.65],[14.543,38.492],[14.867,38.333],[15.19,38.175],[15.513,38.017],[15.699,37.827],[15.741,37.604],[15.756,37.379],[15.734,37.155],[15.684,36.933],[15.612,36.716],[15.527,36.501],[15.433,36.29],[15.332,36.08],[15.231,35.87],[15.132,35.66],[15.033,35.449],[14.929,35.241],[14.79,35.047],[14.558,34.932],[14.299,34.851],[14.068,34.728],[13.871,34.569],[13.703,34.391],[13.55,34.203],[13.402,34.012],[13.24,33.83],[13.143,33.75]]}},{"type":"Feature","properties":{"seg":5,"kind":"stat","km":482},"geometry":{"type":"LineString","coordinates":[[25.562,35.185],[25.428,35.38],[25.3,35.578],[25.192,35.783],[25.111,35.996],[25.052,36.213],[25.006,36.432],[24.971,36.652],[24.951,36.873],[24.951,37.095],[24.972,37.317],[25.016,37.536],[25.078,37.753],[25.16,37.965],[25.264,38.171],[25.388,38.371],[25.524,38.565],[25.662,38.758],[25.789,38.957],[25.878,39.167],[25.903,39.276]]}},{"type":"Feature","properties":{"seg":6,"kind":"warm","km":480},"geometry":{"type":"LineString","coordinates":[[7.897,39.667],[7.85,39.885],[7.812,40.104],[7.775,40.324],[7.731,40.542],[7.679,40.759],[7.624,40.976],[7.575,41.194],[7.537,41.413],[7.51,41.633],[7.499,41.854],[7.514,42.075],[7.55,42.294],[7.597,42.512],[7.647,42.73],[7.694,42.948],[7.737,43.166],[7.78,43.385],[7.824,43.603],[7.865,43.822],[7.881,43.932]]}},{"type":"Feature","properties":{"seg":7,"kind":"warm","km":451},"geometry":{"type":"LineString","coordinates":[[14.159,32.938],[14.329,33.113],[14.528,33.267],[14.726,33.423],[14.91,33.589],[15.073,33.77],[15.205,33.966],[15.321,34.17],[15.481,34.352],[15.686,34.5],[15.886,34.654],[16.07,34.82],[16.236,34.999],[16.38,35.19],[16.505,35.39],[16.62,35.594],[16.731,35.8],[16.837,36.008],[16.938,36.217]]}},{"type":"Feature","properties":{"seg":8,"kind":"stat","km":309},"geometry":{"type":"LineString","coordinates":[[6.366,33.625],[6.138,33.756],[5.866,33.803],[5.59,33.831],[5.314,33.869],[5.04,33.91],[4.767,33.958],[4.491,33.986],[4.213,33.973],[3.936,33.945],[3.66,33.916],[3.382,33.899],[3.104,33.916]]}},{"type":"Feature","properties":{"type":"L","hPa":1011.4},"geometry":{"type":"Point","coordinates":[35.312,35.062]}},{"type":"Feature","properties":{"type":"L","hPa":1009.3},"geometry":{"type":"Point","coordinates":[13.25,39.125]}},{"type":"Feature","properties":{"type":"L","hPa":1010.2},"geometry":{"type":"Point","coordinates":[20.188,44.625]}},{"type":"Feature","properties":{"type":"L","hPa":998.4},"geometry":{"type":"Point","coordinates":[22.375,58.562]}},{"type":"Feature","properties":{"type":"L","hPa":996.9},"geometry":{"type":"Point","coordinates":[12.938,59.062]}},{"type":"Feature","properties":{"type":"L","hPa":993.9},"geometry":{"type":"Point","coordinates":[40.062,61.5]}},{"type":"Feature","properties":{"type":"H","hPa":1021.0},"geometry":{"type":"Point","coordinates":[-11.5,41.438]}},{"type":"Feature","properties":{"type":"H","hPa":1004.8},"geometry":{"type":"Point","coordinates":[13.188,61.5]}}]}