{"type":"FeatureCollection","properties":{"valid_time":"2026-10-04T18:00:00+00:00","run":"2026-10-04T12:00:00+00:00","lead_hours":6,"source":"ICON-EU theta_e850, Renard-Clarke (icon_front_very_far_snapshot.py)"},"features":[{"type":"Feature","properties":{"seg":0,"kind":"warm","km":1203},"geometry":{"type":"LineString","coordinates":[[41.426,49.696],[41.37,49.912],[41.333,50.129],[41.308,50.346],[41.291,50.564],[41.276,50.782],[41.255,51.0],[41.221,51.218],[41.172,51.434],[41.11,51.649],[41.042,51.864],[40.975,52.078],[40.913,52.293],[40.857,52.509],[40.803,52.725],[40.751,52.941],[40.698,53.157],[40.64,53.373],[40.574,53.587],[40.493,53.8],[40.399,54.012],[40.3,54.222],[40.208,54.433],[40.133,54.647],[40.074,54.862],[40.026,55.079],[39.987,55.296],[39.954,55.513],[39.927,55.731],[39.905,55.949],[39.887,56.167],[39.871,56.385],[39.856,56.603],[39.842,56.821],[39.83,57.039],[39.82,57.257],[39.813,57.475],[39.807,57.693],[39.803,57.912],[39.798,58.13],[39.791,58.348],[39.776,58.566],[39.746,58.784],[39.689,58.999],[39.587,59.209],[39.458,59.413],[39.347,59.621],[39.281,59.836],[39.261,60.054],[39.287,60.271],[39.317,60.379]]}},{"type":"Feature","properties":{"seg":1,"kind":"cold","km":713},"geometry":{"type":"LineString","coordinates":[[35.971,59.375],[35.954,59.154],[35.955,58.934],[35.966,58.713],[35.979,58.492],[35.987,58.271],[35.974,58.05],[35.912,57.833],[35.775,57.626],[35.587,57.432],[35.385,57.243],[35.172,57.057],[34.943,56.878],[34.707,56.701],[34.467,56.526],[34.204,56.362],[33.923,56.208],[33.678,56.036],[33.499,55.84],[33.378,55.63],[33.248,55.421],[33.029,55.239],[32.781,55.068],[32.477,54.932],[32.118,54.842],[31.776,54.734],[31.402,54.669],[31.011,54.67],[30.631,54.725],[30.262,54.802]]}},{"type":"Feature","properties":{"seg":2,"kind":"stat","km":692},"geometry":{"type":"LineString","coordinates":[[14.398,38.211],[14.114,38.255],[13.838,38.322],[13.577,38.417],[13.337,38.541],[13.107,38.676],[12.871,38.804],[12.623,38.919],[12.372,39.031],[12.125,39.147],[11.883,39.268],[11.648,39.398],[11.425,39.539],[11.219,39.695],[11.032,39.865],[10.871,40.049],[10.74,40.247],[10.628,40.452],[10.515,40.656],[10.386,40.855],[10.241,41.046],[10.09,41.236],[9.946,41.428],[9.815,41.626],[9.699,41.829],[9.595,42.036],[9.501,42.246],[9.414,42.458],[9.33,42.67]]}},{"type":"Feature","properties":{"seg":3,"kind":"warm","km":519},"geometry":{"type":"LineString","coordinates":[[6.252,42.673],[5.989,42.786],[5.719,42.889],[5.439,42.977],[5.144,43.032],[4.841,43.054],[4.538,43.083],[4.238,43.126],[3.939,43.169],[3.642,43.22],[3.357,43.299],[3.091,43.407],[2.84,43.533],[2.608,43.678],[2.403,43.842],[2.216,44.018],[2.033,44.195],[1.83,44.361],[1.591,44.498],[1.324,44.606],[1.042,44.691],[0.75,44.755]]}},{"type":"Feature","properties":{"seg":4,"kind":"warm","km":507},"geometry":{"type":"LineString","coordinates":[[38.625,56.104],[38.394,56.286],[38.241,56.494],[38.141,56.71],[38.092,56.931],[38.066,57.153],[38.044,57.375],[38.017,57.597],[37.981,57.818],[37.934,58.039],[37.879,58.26],[37.818,58.48],[37.754,58.7],[37.692,58.92],[37.638,59.141],[37.601,59.362],[37.594,59.585],[37.624,59.807],[37.692,60.026],[37.789,60.243],[37.906,60.456],[37.969,60.563]]}},{"type":"Feature","properties":{"seg":5,"kind":"warm","km":502},"geometry":{"type":"LineString","coordinates":[[19.277,40.348],[19.236,40.13],[19.199,39.912],[19.181,39.692],[19.193,39.473],[19.233,39.255],[19.293,39.04],[19.357,38.826],[19.43,38.614],[19.538,38.412],[19.7,38.235],[19.888,38.075],[19.998,37.875],[20.04,37.657],[20.071,37.439],[20.105,37.22],[20.153,37.004],[20.223,36.791],[20.318,36.585],[20.441,36.388],[20.576,36.196],[20.641,36.099]]}},{"type":"Feature","properties":{"seg":6,"kind":"stat","km":437},"geometry":{"type":"LineString","coordinates":[[-5.92,46.812],[-6.196,46.696],[-6.472,46.581],[-6.751,46.469],[-7.035,46.363],[-7.325,46.266],[-7.62,46.177],[-7.918,46.091],[-8.212,46.001],[-8.502,45.902],[-8.785,45.796],[-9.063,45.683],[-9.333,45.561],[-9.593,45.428],[-9.84,45.284],[-10.073,45.129],[-10.287,44.962],[-10.478,44.782],[-10.562,44.686]]}},{"type":"Feature","properties":{"seg":7,"kind":"cold","km":420},"geometry":{"type":"LineString","coordinates":[[24.25,57.293],[24.073,57.095],[23.928,56.888],[23.78,56.682],[23.613,56.481],[23.416,56.289],[23.191,56.107],[22.941,55.935],[22.671,55.773],[22.383,55.621],[22.074,55.484],[21.748,55.359],[21.411,55.243],[21.067,55.134],[20.733,55.016],[20.417,54.883],[20.103,54.749],[19.775,54.625]]}},{"type":"Feature","properties":{"seg":8,"kind":"cold","km":411},"geometry":{"type":"LineString","coordinates":[[35.304,36.5],[35.342,36.279],[35.415,36.063],[35.477,35.846],[35.522,35.625],[35.551,35.402],[35.562,35.179],[35.548,34.956],[35.495,34.737],[35.406,34.525],[35.316,34.314],[35.243,34.098],[35.181,33.881],[35.11,33.665],[35.015,33.455],[34.906,33.25],[34.803,33.043],[34.759,32.938]]}},{"type":"Feature","properties":{"seg":9,"kind":"stat","km":536},"geometry":{"type":"LineString","coordinates":[[-1.625,37.192],[-1.345,37.226],[-1.064,37.258],[-0.782,37.274],[-0.499,37.287],[-0.221,37.332],[0.03,37.433],[0.244,37.58],[0.421,37.755],[0.577,37.942],[0.734,38.129],[0.911,38.304],[1.132,38.443],[1.405,38.384],[1.692,38.174],[1.978,37.964],[2.265,37.754],[2.552,37.545],[2.838,37.335],[3.125,37.125]]}},{"type":"Feature","properties":{"seg":10,"kind":"warm","km":305},"geometry":{"type":"LineString","coordinates":[[27.625,44.73],[27.747,44.943],[27.839,45.162],[27.91,45.385],[27.965,45.61],[27.994,45.837],[27.982,46.065],[27.925,46.29],[27.84,46.51],[27.728,46.725],[27.593,46.933],[27.427,47.13],[27.229,47.312]]}},{"type":"Feature","properties":{"seg":11,"kind":"warm","km":304},"geometry":{"type":"LineString","coordinates":[[-5.403,59.25],[-5.721,59.104],[-6.165,59.114],[-6.605,59.151],[-7.047,59.184],[-7.481,59.237],[-7.909,59.303],[-8.341,59.36],[-8.783,59.394],[-9.229,59.402],[-9.674,59.386],[-10.12,59.378],[-10.562,59.409]]}},{"type":"Feature","properties":{"type":"L","hPa":1015.6},"geometry":{"type":"Point","coordinates":[-7.5,32.0]}},{"type":"Feature","properties":{"type":"L","hPa":1016.1},"geometry":{"type":"Point","coordinates":[38.375,34.062]}},{"type":"Feature","properties":{"type":"L","hPa":1018.0},"geometry":{"type":"Point","coordinates":[3.125,37.125]}},{"type":"Feature","properties":{"type":"H","hPa":1028.5},"geometry":{"type":"Point","coordinates":[-10.375,48.75]}}]}