{"type":"FeatureCollection","properties":{"valid_time":"2026-10-09T18:00:00+00:00","run":"2026-10-09T12:00:00+00:00","lead_hours":6,"source":"ICON-EU theta_e850, Renard-Clarke (icon_front_very_far_snapshot.py)"},"features":[{"type":"Feature","properties":{"seg":0,"kind":"cold","km":1075},"geometry":{"type":"LineString","coordinates":[[31.062,61.5],[31.349,61.188],[31.635,60.875],[31.922,60.562],[32.284,60.49],[32.649,60.424],[33.014,60.355],[33.372,60.277],[33.72,60.185],[34.061,60.084],[34.39,59.973],[34.702,59.845],[34.991,59.701],[35.261,59.546],[35.522,59.386],[35.775,59.222],[36.009,59.049],[36.214,58.864],[36.388,58.67],[36.532,58.467],[36.647,58.259],[36.736,58.046],[36.8,57.831],[36.836,57.614],[36.841,57.395],[36.813,57.178],[36.751,56.962],[36.664,56.749],[36.568,56.538],[36.475,56.326],[36.383,56.114],[36.28,55.903],[36.162,55.696],[36.033,55.49],[35.904,55.284],[35.777,55.078],[35.647,54.872],[35.507,54.669],[35.347,54.471],[35.159,54.28],[34.95,54.097],[34.765,53.906],[34.637,53.7],[34.593,53.594]]}},{"type":"Feature","properties":{"seg":1,"kind":"cold","km":918},"geometry":{"type":"LineString","coordinates":[[0.979,51.262],[0.724,51.116],[0.46,50.976],[0.198,50.834],[-0.055,50.686],[-0.302,50.535],[-0.549,50.383],[-0.806,50.238],[-1.078,50.104],[-1.363,49.982],[-1.656,49.867],[-1.956,49.759],[-2.261,49.658],[-2.572,49.564],[-2.887,49.475],[-3.205,49.391],[-3.525,49.309],[-3.847,49.231],[-4.172,49.158],[-4.495,49.081],[-4.807,48.989],[-5.106,48.88],[-5.397,48.764],[-5.692,48.651],[-6.0,48.553],[-6.322,48.474],[-6.649,48.405],[-6.974,48.332],[-7.296,48.253],[-7.617,48.174],[-7.942,48.101],[-8.273,48.039],[-8.608,47.986],[-8.939,47.924],[-9.262,47.849],[-9.586,47.774],[-9.915,47.707],[-10.241,47.636],[-10.562,47.557]]}},{"type":"Feature","properties":{"seg":2,"kind":"warm","km":738},"geometry":{"type":"LineString","coordinates":[[31.128,43.409],[31.153,43.625],[31.204,43.839],[31.27,44.05],[31.343,44.26],[31.416,44.47],[31.482,44.682],[31.535,44.895],[31.576,45.11],[31.611,45.326],[31.648,45.541],[31.702,45.755],[31.777,45.964],[31.873,46.169],[31.985,46.369],[32.105,46.565],[32.23,46.761],[32.353,46.957],[32.473,47.154],[32.593,47.351],[32.72,47.545],[32.855,47.737],[32.997,47.925],[33.144,48.111],[33.298,48.293],[33.463,48.471],[33.64,48.641],[33.829,48.803],[34.033,48.955],[34.255,49.09],[34.498,49.203],[34.625,49.252]]}},{"type":"Feature","properties":{"seg":3,"kind":"stat","km":605},"geometry":{"type":"LineString","coordinates":[[25.8,36.162],[25.71,36.369],[25.639,36.579],[25.602,36.794],[25.622,37.01],[25.689,37.221],[25.782,37.427],[25.895,37.626],[26.022,37.82],[26.155,38.012],[26.285,38.206],[26.409,38.401],[26.53,38.598],[26.653,38.794],[26.784,38.987],[26.922,39.177],[27.064,39.365],[27.202,39.555],[27.333,39.748],[27.46,39.943],[27.589,40.137],[27.728,40.326],[27.874,40.513],[28.027,40.695],[28.196,40.87],[28.378,41.037]]}},{"type":"Feature","properties":{"seg":4,"kind":"cold","km":471},"geometry":{"type":"LineString","coordinates":[[6.147,57.0],[6.17,56.792],[6.095,56.58],[6.048,56.365],[6.042,56.148],[6.054,55.931],[6.065,55.714],[6.063,55.497],[6.033,55.281],[5.968,55.067],[5.867,54.86],[5.733,54.66],[5.571,54.468],[5.391,54.283],[5.216,54.096],[5.065,53.901],[4.933,53.7],[4.791,53.502],[4.614,53.316],[4.388,53.152],[4.258,53.081]]}},{"type":"Feature","properties":{"seg":5,"kind":"warm","km":448},"geometry":{"type":"LineString","coordinates":[[19.51,32.938],[19.716,33.087],[19.936,33.225],[20.161,33.358],[20.381,33.496],[20.584,33.648],[20.773,33.81],[20.964,33.972],[21.17,34.121],[21.398,34.251],[21.645,34.358],[21.911,34.434],[22.19,34.478],[22.473,34.493],[22.758,34.491],[23.042,34.484],[23.326,34.485],[23.611,34.492],[23.895,34.493],[24.037,34.484]]}},{"type":"Feature","properties":{"seg":6,"kind":"warm","km":423},"geometry":{"type":"LineString","coordinates":[[-10.562,40.32],[-10.326,40.456],[-10.121,40.617],[-9.927,40.787],[-9.728,40.953],[-9.501,41.097],[-9.233,41.192],[-8.944,41.245],[-8.651,41.283],[-8.356,41.31],[-8.059,41.316],[-7.762,41.321],[-7.466,41.342],[-7.17,41.359],[-6.879,41.403],[-6.607,41.492],[-6.343,41.595],[-6.072,41.688]]}},{"type":"Feature","properties":{"seg":7,"kind":"cold","km":410},"geometry":{"type":"LineString","coordinates":[[37.688,47.17],[37.622,46.952],[37.535,46.737],[37.435,46.526],[37.34,46.313],[37.262,46.097],[37.205,45.878],[37.166,45.656],[37.137,45.434],[37.11,45.212],[37.083,44.989],[37.057,44.767],[37.04,44.544],[37.052,44.321],[37.112,44.102],[37.221,43.894],[37.362,43.694],[37.437,43.596]]}},{"type":"Feature","properties":{"seg":8,"kind":"warm","km":557},"geometry":{"type":"LineString","coordinates":[[11.25,57.266],[10.862,57.248],[10.568,57.416],[10.273,57.583],[9.944,57.733],[9.583,57.86],[9.2,57.967],[8.799,58.053],[8.384,58.118],[7.971,58.187],[7.582,58.288],[7.224,58.417],[6.902,58.57],[6.634,58.75],[6.151,58.902],[5.667,59.054],[5.184,59.205],[4.7,59.357],[4.217,59.509],[3.733,59.661],[3.25,59.812]]}},{"type":"Feature","properties":{"seg":9,"kind":"warm","km":325},"geometry":{"type":"LineString","coordinates":[[35.213,36.537],[35.101,36.332],[35.027,36.116],[35.007,35.892],[35.009,35.668],[34.999,35.443],[34.974,35.22],[34.962,34.995],[34.993,34.772],[35.072,34.558],[35.173,34.349],[35.264,34.137],[35.319,33.917],[35.318,33.693]]}},{"type":"Feature","properties":{"type":"L","hPa":1016.2},"geometry":{"type":"Point","coordinates":[-6.188,34.875]}},{"type":"Feature","properties":{"type":"L","hPa":1013.0},"geometry":{"type":"Point","coordinates":[7.562,41.312]}},{"type":"Feature","properties":{"type":"L","hPa":1014.5},"geometry":{"type":"Point","coordinates":[14.75,42.625]}},{"type":"Feature","properties":{"type":"L","hPa":1014.8},"geometry":{"type":"Point","coordinates":[27.812,45.25]}},{"type":"Feature","properties":{"type":"L","hPa":989.0},"geometry":{"type":"Point","coordinates":[3.25,59.812]}},{"type":"Feature","properties":{"type":"L","hPa":986.0},"geometry":{"type":"Point","coordinates":[31.062,61.5]}},{"type":"Feature","properties":{"type":"H","hPa":1020.5},"geometry":{"type":"Point","coordinates":[22.062,32.688]}},{"type":"Feature","properties":{"type":"H","hPa":1026.5},"geometry":{"type":"Point","coordinates":[-11.5,43.188]}}]}