{"type":"FeatureCollection","properties":{"valid_time":"2026-10-09T12:00:00+00:00","run":"2026-10-09T06:00:00+00:00","lead_hours":6,"source":"ICON-EU theta_e850, Renard-Clarke (icon_front_very_far_snapshot.py)"},"features":[{"type":"Feature","properties":{"seg":0,"kind":"cold","km":1942},"geometry":{"type":"LineString","coordinates":[[20.375,58.438],[20.728,58.676],[21.082,58.914],[21.435,59.152],[21.789,59.39],[22.142,59.628],[22.496,59.867],[22.849,60.105],[23.219,60.23],[23.598,60.271],[23.961,60.347],[24.315,60.434],[24.679,60.508],[25.057,60.552],[25.443,60.557],[25.823,60.517],[26.189,60.447],[26.547,60.364],[26.893,60.268],[27.217,60.149],[27.518,60.013],[27.811,59.871],[28.115,59.736],[28.43,59.61],[28.736,59.477],[29.015,59.327],[29.269,59.163],[29.497,58.988],[29.692,58.8],[29.866,58.606],[30.034,58.41],[30.205,58.215],[30.379,58.021],[30.546,57.825],[30.696,57.625],[30.822,57.419],[30.923,57.21],[31.004,56.997],[31.068,56.783],[31.121,56.568],[31.165,56.352],[31.199,56.135],[31.218,55.918],[31.221,55.701],[31.209,55.484],[31.183,55.267],[31.146,55.051],[31.1,54.835],[31.044,54.62],[30.981,54.406],[30.906,54.193],[30.806,53.983],[30.653,53.784],[30.409,53.617],[30.102,53.485],[29.909,53.3],[29.82,53.088],[29.767,52.873],[29.721,52.657],[29.66,52.443],[29.57,52.231],[29.434,52.028],[29.242,51.84],[29.007,51.667],[28.81,51.481],[28.702,51.273],[28.624,51.06],[28.536,50.848],[28.418,50.641],[28.267,50.441],[28.093,50.247],[27.91,50.056],[27.73,49.863],[27.559,49.669],[27.396,49.471],[27.235,49.274],[27.056,49.081],[26.799,48.921],[26.625,48.874]]}},{"type":"Feature","properties":{"seg":1,"kind":"cold","km":887},"geometry":{"type":"LineString","coordinates":[[-0.656,54.147],[-0.825,53.953],[-0.961,53.75],[-1.107,53.55],[-1.297,53.363],[-1.562,53.213],[-1.887,53.11],[-2.214,53.01],[-2.5,52.872],[-2.738,52.706],[-2.958,52.531],[-3.187,52.36],[-3.442,52.202],[-3.724,52.061],[-4.017,51.928],[-4.293,51.784],[-4.55,51.627],[-4.8,51.467],[-5.05,51.306],[-5.307,51.149],[-5.582,51.004],[-5.869,50.867],[-6.152,50.727],[-6.42,50.577],[-6.673,50.418],[-6.923,50.257],[-7.179,50.1],[-7.45,49.952],[-7.743,49.82],[-8.059,49.707],[-8.387,49.608],[-8.723,49.517],[-9.061,49.431],[-9.4,49.344],[-9.734,49.252],[-10.065,49.155],[-10.395,49.058],[-10.562,49.012]]}},{"type":"Feature","properties":{"seg":2,"kind":"warm","km":833},"geometry":{"type":"LineString","coordinates":[[29.732,43.213],[29.721,43.433],[29.728,43.653],[29.753,43.873],[29.796,44.091],[29.851,44.308],[29.914,44.523],[29.976,44.739],[30.031,44.956],[30.069,45.175],[30.077,45.394],[30.037,45.612],[29.934,45.82],[29.873,46.034],[29.894,46.254],[29.933,46.472],[29.968,46.691],[29.996,46.91],[30.022,47.13],[30.049,47.349],[30.08,47.568],[30.122,47.786],[30.183,48.002],[30.263,48.215],[30.359,48.425],[30.469,48.631],[30.592,48.834],[30.729,49.033],[30.88,49.226],[31.044,49.414],[31.217,49.599],[31.396,49.781],[31.591,49.954],[31.831,50.096],[32.133,50.125]]}},{"type":"Feature","properties":{"seg":3,"kind":"warm","km":692},"geometry":{"type":"LineString","coordinates":[[9.5,56.007],[9.198,56.16],[8.937,56.335],[8.673,56.508],[8.381,56.668],[8.05,56.805],[7.714,56.939],[7.42,57.098],[7.156,57.271],[6.884,57.441],[6.578,57.593],[6.227,57.716],[5.842,57.806],[5.484,57.922],[5.176,58.073],[4.907,58.244],[4.677,58.431],[4.473,58.625],[4.267,58.819],[4.029,59.002],[3.749,59.168],[3.464,59.331],[3.183,59.497],[2.901,59.662],[2.626,59.83],[2.358,60.002],[2.118,60.184],[1.902,60.375],[1.675,60.562]]}},{"type":"Feature","properties":{"seg":4,"kind":"warm","km":635},"geometry":{"type":"LineString","coordinates":[[32.286,49.188],[32.427,49.393],[32.579,49.596],[32.738,49.797],[32.9,49.997],[33.061,50.197],[33.192,50.406],[33.253,50.625],[33.227,50.848],[33.185,51.071],[33.166,51.294],[33.163,51.518],[33.173,51.741],[33.208,51.964],[33.276,52.183],[33.374,52.398],[33.492,52.61],[33.616,52.82],[33.733,53.032],[33.835,53.246],[33.917,53.464],[33.982,53.684],[34.03,53.906],[34.062,54.129],[34.077,54.352],[34.082,54.576],[34.084,54.688]]}},{"type":"Feature","properties":{"seg":5,"kind":"warm","km":544},"geometry":{"type":"LineString","coordinates":[[44.312,55.93],[44.222,56.147],[44.132,56.364],[44.024,56.578],[43.877,56.786],[43.686,56.984],[43.483,57.179],[43.302,57.379],[43.156,57.587],[43.04,57.801],[42.942,58.017],[42.86,58.234],[42.789,58.453],[42.721,58.672],[42.636,58.89],[42.505,59.101],[42.325,59.301],[42.13,59.498],[41.956,59.7],[41.815,59.909],[41.703,60.123],[41.627,60.342],[41.584,60.562]]}},{"type":"Feature","properties":{"seg":6,"kind":"cold","km":427},"geometry":{"type":"LineString","coordinates":[[2.312,39.743],[2.116,39.578],[1.891,39.436],[1.647,39.316],[1.399,39.2],[1.164,39.069],[0.943,38.924],[0.718,38.782],[0.482,38.652],[0.24,38.528],[-0.006,38.409],[-0.256,38.296],[-0.521,38.206],[-0.803,38.161],[-1.092,38.161],[-1.378,38.193],[-1.658,38.25],[-1.938,38.307]]}},{"type":"Feature","properties":{"seg":7,"kind":"stat","km":402},"geometry":{"type":"LineString","coordinates":[[-2.912,38.338],[-3.196,38.312],[-3.482,38.304],[-3.768,38.316],[-4.053,38.341],[-4.338,38.365],[-4.624,38.372],[-4.909,38.351],[-5.182,38.287],[-5.43,38.174],[-5.647,38.028],[-5.849,37.868],[-6.06,37.715],[-6.31,37.608],[-6.578,37.528],[-6.834,37.426],[-7.081,37.312]]}},{"type":"Feature","properties":{"seg":8,"kind":"warm","km":322},"geometry":{"type":"LineString","coordinates":[[35.709,52.416],[35.855,52.631],[35.971,52.851],[36.054,53.078],[36.118,53.306],[36.183,53.534],[36.251,53.762],[36.316,53.99],[36.369,54.219],[36.409,54.449],[36.436,54.68],[36.452,54.911],[36.424,55.142],[36.358,55.25]]}},{"type":"Feature","properties":{"seg":9,"kind":"stat","km":313},"geometry":{"type":"LineString","coordinates":[[19.478,32.938],[19.661,33.103],[19.866,33.25],[20.084,33.383],[20.308,33.509],[20.534,33.633],[20.757,33.761],[20.964,33.905],[21.141,34.075],[21.286,34.265],[21.421,34.46],[21.574,34.645],[21.763,34.806],[21.869,34.875]]}},{"type":"Feature","properties":{"seg":10,"kind":"cold","km":309},"geometry":{"type":"LineString","coordinates":[[9.121,38.75],[8.966,38.554],[8.819,38.354],[8.656,38.163],[8.47,37.984],[8.263,37.82],[8.04,37.671],[7.803,37.535],[7.555,37.413],[7.299,37.301],[7.037,37.197],[6.771,37.102],[6.5,37.015]]}},{"type":"Feature","properties":{"type":"L","hPa":1016.6},"geometry":{"type":"Point","coordinates":[-5.438,34.25]}},{"type":"Feature","properties":{"type":"L","hPa":1013.6},"geometry":{"type":"Point","coordinates":[7.125,42.062]}},{"type":"Feature","properties":{"type":"L","hPa":1014.9},"geometry":{"type":"Point","coordinates":[14.5,43.125]}},{"type":"Feature","properties":{"type":"L","hPa":984.7},"geometry":{"type":"Point","coordinates":[20.375,58.438]}},{"type":"Feature","properties":{"type":"H","hPa":1020.6},"geometry":{"type":"Point","coordinates":[22.188,34.375]}},{"type":"Feature","properties":{"type":"H","hPa":1028.6},"geometry":{"type":"Point","coordinates":[-11.5,43.625]}}]}