{"type":"FeatureCollection","properties":{"valid_time":"2026-10-04T00:00:00+00:00","run":"2026-10-03T18:00:00+00:00","lead_hours":6,"source":"ICON-EU theta_e850, Renard-Clarke (icon_front_very_far_snapshot.py)"},"features":[{"type":"Feature","properties":{"seg":0,"kind":"warm","km":1114},"geometry":{"type":"LineString","coordinates":[[2.141,49.008],[1.854,48.911],[1.573,48.807],[1.294,48.7],[1.018,48.59],[0.746,48.475],[0.474,48.361],[0.2,48.248],[-0.077,48.138],[-0.354,48.029],[-0.631,47.92],[-0.91,47.814],[-1.191,47.71],[-1.473,47.607],[-1.755,47.504],[-2.035,47.398],[-2.311,47.287],[-2.58,47.17],[-2.843,47.046],[-3.101,46.917],[-3.357,46.786],[-3.61,46.653],[-3.86,46.516],[-4.107,46.379],[-4.359,46.244],[-4.618,46.116]]}},{"type":"Feature","properties":{"seg":0,"kind":"stat","km":1114},"geometry":{"type":"LineString","coordinates":[[-4.618,46.116],[-4.882,45.993],[-5.149,45.873],[-5.418,45.755],[-5.69,45.64],[-5.967,45.531],[-6.268,45.466],[-6.565,45.541],[-6.877,45.572],[-7.18,45.503],[-7.454,45.391],[-7.71,45.261],[-7.963,45.128],[-8.222,45.0],[-8.49,44.881],[-8.768,44.773],[-9.06,44.683],[-9.363,44.613],[-9.67,44.553],[-9.978,44.494],[-10.28,44.422],[-10.562,44.32]]}},{"type":"Feature","properties":{"seg":1,"kind":"cold","km":611},"geometry":{"type":"LineString","coordinates":[[33.916,60.562],[33.885,60.339],[33.86,60.115],[33.845,59.891],[33.841,59.667],[33.85,59.443],[33.87,59.219],[33.9,58.996],[33.934,58.772],[33.967,58.549],[33.996,58.325],[34.02,58.101],[34.041,57.877],[34.061,57.654],[34.081,57.43],[34.101,57.206],[34.121,56.982],[34.142,56.758],[34.162,56.534],[34.179,56.31],[34.187,56.086],[34.178,55.862],[34.148,55.638],[34.093,55.416],[34.012,55.196],[33.962,55.087]]}},{"type":"Feature","properties":{"seg":2,"kind":"warm","km":835},"geometry":{"type":"LineString","coordinates":[[4.457,42.605],[4.336,42.402],[4.221,42.196],[3.965,42.091],[3.67,42.055],[3.373,42.026],[3.08,41.982],[2.796,41.911],[2.523,41.821],[2.256,41.719],[1.983,41.629],[1.688,41.609],[1.39,41.633],[1.091,41.634],[0.794,41.607],[0.497,41.58],[0.198,41.576],[-0.099,41.552],[-0.373,41.466],[-0.634,41.378],[-0.896,41.484],[-1.15,41.602],[-1.397,41.728],[-1.666,41.939],[-1.934,42.149],[-2.202,42.36],[-2.471,42.571],[-2.739,42.782],[-3.007,42.993],[-3.276,43.203],[-3.544,43.414],[-3.812,43.625]]}},{"type":"Feature","properties":{"seg":3,"kind":"cold","km":488},"geometry":{"type":"LineString","coordinates":[[28.989,60.562],[28.87,60.347],[28.784,60.126],[28.73,59.903],[28.692,59.679],[28.653,59.455],[28.603,59.232],[28.537,59.009],[28.454,58.789],[28.356,58.57],[28.249,58.352],[28.146,58.134],[28.057,57.914],[27.975,57.693],[27.869,57.475],[27.684,57.273],[27.413,57.1],[27.101,56.946],[26.768,56.805],[26.427,56.67],[26.25,56.607]]}},{"type":"Feature","properties":{"seg":4,"kind":"cold","km":431},"geometry":{"type":"LineString","coordinates":[[13.62,58.057],[13.384,57.87],[13.174,57.675],[12.983,57.473],[12.798,57.27],[12.61,57.067],[12.413,56.867],[12.203,56.671],[11.98,56.48],[11.745,56.293],[11.5,56.11],[11.239,55.934],[10.957,55.768],[10.655,55.614],[10.344,55.464],[10.038,55.312],[9.739,55.156],[9.439,55.0]]}},{"type":"Feature","properties":{"seg":5,"kind":"cold","km":375},"geometry":{"type":"LineString","coordinates":[[42.981,46.356],[42.659,46.395],[42.341,46.445],[42.026,46.506],[41.708,46.556],[41.383,46.578],[41.056,46.579],[40.73,46.574],[40.403,46.562],[40.077,46.546],[39.751,46.541],[39.429,46.574],[39.121,46.65],[38.802,46.672],[38.514,46.568],[38.228,46.46]]}},{"type":"Feature","properties":{"seg":6,"kind":"stat","km":332},"geometry":{"type":"LineString","coordinates":[[18.117,37.625],[17.969,37.429],[17.807,37.241],[17.624,37.065],[17.412,36.912],[17.2,36.758],[17.025,36.578],[16.88,36.38],[16.717,36.192],[16.572,35.996],[16.47,35.781],[16.391,35.561],[16.321,35.339],[16.22,35.125]]}},{"type":"Feature","properties":{"seg":7,"kind":"warm","km":324},"geometry":{"type":"LineString","coordinates":[[29.75,57.704],[29.74,57.925],[29.818,58.146],[29.896,58.366],[29.959,58.587],[30.01,58.81],[30.051,59.033],[30.088,59.256],[30.135,59.478],[30.207,59.699],[30.314,59.916],[30.442,60.13],[30.563,60.345],[30.669,60.562]]}},{"type":"Feature","properties":{"seg":8,"kind":"warm","km":318},"geometry":{"type":"LineString","coordinates":[[32.875,44.246],[33.185,44.201],[33.502,44.207],[33.819,44.195],[34.122,44.128],[34.41,44.032],[34.689,43.924],[34.963,43.808],[35.242,43.699],[35.537,43.614],[35.847,43.566],[36.101,43.44],[36.235,43.233],[36.288,43.125]]}},{"type":"Feature","properties":{"seg":9,"kind":"stat","km":307},"geometry":{"type":"LineString","coordinates":[[9.188,39.944],[8.956,40.094],[8.751,40.263],[8.587,40.455],[8.446,40.659],[8.306,40.863],[8.145,41.058],[7.948,41.232],[7.718,41.382],[7.47,41.515],[7.218,41.644],[6.976,41.782],[6.752,41.938]]}},{"type":"Feature","properties":{"type":"L","hPa":1018.7},"geometry":{"type":"Point","coordinates":[2.5,37.438]}},{"type":"Feature","properties":{"type":"L","hPa":1021.4},"geometry":{"type":"Point","coordinates":[-3.812,43.625]}},{"type":"Feature","properties":{"type":"L","hPa":1000.0},"geometry":{"type":"Point","coordinates":[-11.5,61.5]}},{"type":"Feature","properties":{"type":"H","hPa":1031.3},"geometry":{"type":"Point","coordinates":[-3.438,52.25]}}]}