{"type":"FeatureCollection","properties":{"valid_time":"2026-10-03T12:00:00+00:00","run":"2026-10-03T06:00:00+00:00","lead_hours":6,"source":"ICON-EU theta_e850, Renard-Clarke (icon_front_very_far_snapshot.py)"},"features":[{"type":"Feature","properties":{"seg":0,"kind":"stat","km":777},"geometry":{"type":"LineString","coordinates":[[0.25,47.444],[-0.045,47.382],[-0.338,47.314],[-0.625,47.235],[-0.906,47.146],[-1.184,47.051],[-1.459,46.953],[-1.731,46.851],[-1.999,46.743],[-2.264,46.632],[-2.539,46.534],[-2.836,46.478],[-3.143,46.458],[-3.45,46.44],[-3.757,46.421],[-4.057,46.374],[-4.334,46.28],[-4.585,46.154],[-4.836,46.027],[-5.125,45.955],[-5.432,45.943],[-5.739,45.926],[-6.044,45.893],[-6.339,45.831],[-6.617,45.737],[-6.877,45.62],[-7.125,45.491],[-7.377,45.365],[-7.645,45.258],[-7.925,45.168],[-8.209,45.083],[-8.49,44.994],[-8.767,44.899]]}},{"type":"Feature","properties":{"seg":1,"kind":"stat","km":712},"geometry":{"type":"LineString","coordinates":[[35.209,50.0],[35.141,50.217],[35.071,50.434],[35.005,50.651],[34.947,50.869],[34.904,51.088],[34.881,51.308],[34.883,51.529],[34.904,51.749],[34.935,51.969],[34.968,52.189],[34.996,52.409],[35.011,52.629],[35.003,52.85],[34.934,53.066],[34.791,53.269],[34.704,53.483],[34.683,53.703],[34.68,53.924],[34.671,54.144],[34.641,54.364],[34.581,54.582],[34.496,54.796],[34.399,55.009],[34.305,55.223],[34.227,55.438],[34.167,55.656],[34.117,55.875],[34.07,56.094],[34.025,56.312]]}},{"type":"Feature","properties":{"seg":2,"kind":"cold","km":547},"geometry":{"type":"LineString","coordinates":[[6.284,58.812],[6.243,58.59],[6.184,58.369],[6.114,58.149],[6.038,57.93],[5.948,57.712],[5.837,57.497],[5.701,57.287],[5.558,57.078],[5.425,56.867],[5.307,56.654],[5.199,56.438],[5.095,56.223],[4.989,56.007],[4.879,55.792],[4.761,55.578],[4.631,55.367],[4.49,55.158],[4.336,54.951],[4.16,54.75],[3.959,54.557],[3.737,54.37],[3.505,54.188]]}},{"type":"Feature","properties":{"seg":3,"kind":"warm","km":489},"geometry":{"type":"LineString","coordinates":[[32.641,55.266],[32.636,55.491],[32.622,55.717],[32.611,55.942],[32.583,56.166],[32.538,56.39],[32.482,56.613],[32.421,56.836],[32.358,57.059],[32.296,57.281],[32.235,57.504],[32.177,57.727],[32.122,57.95],[32.071,58.174],[32.022,58.397],[31.973,58.621],[31.921,58.844],[31.867,59.068],[31.809,59.291],[31.75,59.513],[31.722,59.625]]}},{"type":"Feature","properties":{"seg":4,"kind":"cold","km":478},"geometry":{"type":"LineString","coordinates":[[15.875,34.028],[15.946,34.245],[15.937,34.471],[15.943,34.697],[15.991,34.919],[16.015,35.144],[15.983,35.369],[15.957,35.594],[15.965,35.82],[15.997,36.045],[16.028,36.27],[16.05,36.495],[16.064,36.721],[16.1,36.945],[16.188,37.159],[16.235,37.382],[16.273,37.606],[16.324,37.828],[16.384,38.049],[16.455,38.268]]}},{"type":"Feature","properties":{"seg":5,"kind":"cold","km":460},"geometry":{"type":"LineString","coordinates":[[30.462,60.562],[30.465,60.339],[30.48,60.116],[30.504,59.893],[30.536,59.67],[30.574,59.447],[30.615,59.225],[30.656,59.002],[30.697,58.78],[30.735,58.557],[30.773,58.335],[30.81,58.112],[30.843,57.889],[30.872,57.666],[30.892,57.443],[30.902,57.219],[30.903,56.996],[30.894,56.773],[30.88,56.549],[30.871,56.438]]}},{"type":"Feature","properties":{"seg":6,"kind":"cold","km":383},"geometry":{"type":"LineString","coordinates":[[23.522,60.563],[23.448,60.336],[23.355,60.112],[23.235,59.891],[23.101,59.672],[22.963,59.454],[22.824,59.236],[22.684,59.019],[22.538,58.802],[22.384,58.587],[22.216,58.375],[22.029,58.167],[21.825,57.963],[21.607,57.763],[21.373,57.568],[21.125,57.378]]}},{"type":"Feature","properties":{"seg":7,"kind":"stat","km":330},"geometry":{"type":"LineString","coordinates":[[12.875,38.106],[12.618,37.999],[12.342,37.93],[12.052,37.92],[11.768,37.966],[11.498,38.05],[11.245,38.162],[11.009,38.296],[10.784,38.44],[10.564,38.589],[10.347,38.741],[10.128,38.89],[9.903,39.035],[9.69,39.19]]}},{"type":"Feature","properties":{"type":"L","hPa":1017.2},"geometry":{"type":"Point","coordinates":[-7.438,32.0]}},{"type":"Feature","properties":{"type":"L","hPa":1018.9},"geometry":{"type":"Point","coordinates":[0.625,35.875]}},{"type":"Feature","properties":{"type":"L","hPa":1017.3},"geometry":{"type":"Point","coordinates":[45.25,41.688]}},{"type":"Feature","properties":{"type":"L","hPa":1011.3},"geometry":{"type":"Point","coordinates":[-11.5,61.5]}},{"type":"Feature","properties":{"type":"H","hPa":1032.3},"geometry":{"type":"Point","coordinates":[24.562,46.375]}},{"type":"Feature","properties":{"type":"H","hPa":1031.2},"geometry":{"type":"Point","coordinates":[-6.688,51.812]}},{"type":"Feature","properties":{"type":"H","hPa":1030.5},"geometry":{"type":"Point","coordinates":[40.125,61.5]}}]}