{"type":"FeatureCollection","properties":{"valid_time":"2026-10-08T18:00:00+00:00","run":"2026-10-08T12:00:00+00:00","lead_hours":6,"source":"ICON-EU theta_e850, Renard-Clarke (icon_front_very_far_snapshot.py)"},"features":[{"type":"Feature","properties":{"seg":0,"kind":"stat","km":854},"geometry":{"type":"LineString","coordinates":[[23.54,53.898],[23.298,53.741],[23.009,53.621],[22.772,53.467],[22.701,53.253],[22.68,53.035],[22.641,52.817],[22.562,52.604],[22.448,52.397],[22.301,52.198],[22.12,52.011],[21.916,51.834],[21.709,51.658],[21.494,51.486],[21.235,51.34],[20.934,51.232],[20.618,51.141],[20.327,51.023],[20.095,50.86],[19.862,50.698],[19.6,50.553],[19.329,50.416],[19.056,50.281],[18.787,50.142],[18.527,49.997],[18.281,49.842],[18.057,49.675],[17.867,49.491],[17.708,49.296],[17.565,49.097],[17.421,48.897],[17.257,48.704],[17.06,48.524],[16.836,48.356],[16.599,48.196],[16.312,48.076]]}},{"type":"Feature","properties":{"seg":1,"kind":"warm","km":589},"geometry":{"type":"LineString","coordinates":[[-5.336,50.437],[-5.316,50.657],[-5.275,50.876],[-5.226,51.095],[-5.175,51.313],[-5.123,51.531],[-5.07,51.75],[-5.015,51.968],[-4.963,52.186],[-4.92,52.405],[-4.893,52.624],[-4.882,52.845],[-4.88,53.065],[-4.876,53.285],[-4.864,53.505],[-4.849,53.726],[-4.84,53.946],[-4.844,54.166],[-4.867,54.386],[-4.908,54.605],[-4.96,54.823],[-5.018,55.041],[-5.077,55.259],[-5.131,55.477],[-5.187,55.695]]}},{"type":"Feature","properties":{"seg":2,"kind":"warm","km":556},"geometry":{"type":"LineString","coordinates":[[33.16,57.722],[32.824,57.863],[32.441,57.966],[32.089,58.094],[31.803,58.261],[31.533,58.435],[31.262,58.608],[30.986,58.779],[30.705,58.949],[30.417,59.115],[30.109,59.271],[29.776,59.414],[29.421,59.541],[29.048,59.654],[28.657,59.75],[28.256,59.836],[27.844,59.905],[27.42,59.952],[26.991,59.983],[26.56,60.011],[26.128,60.03],[25.694,60.042],[25.268,60.079],[25.062,60.115]]}},{"type":"Feature","properties":{"seg":3,"kind":"cold","km":680},"geometry":{"type":"LineString","coordinates":[[15.312,58.938],[15.047,58.659],[14.781,58.38],[14.516,58.102],[14.25,57.823],[14.559,57.697],[14.771,57.513],[14.939,57.314],[15.087,57.11],[15.214,56.901],[15.313,56.687],[15.391,56.47],[15.469,56.254],[15.558,56.038],[15.661,55.825],[15.775,55.614],[15.887,55.402],[15.96,55.185],[15.98,54.964],[15.956,54.743],[15.901,54.524],[15.821,54.308],[15.72,54.094],[15.601,53.884],[15.468,53.676],[15.325,53.471],[15.181,53.266]]}},{"type":"Feature","properties":{"seg":4,"kind":"cold","km":526},"geometry":{"type":"LineString","coordinates":[[17.185,53.17],[17.101,52.956],[17.018,52.743],[16.932,52.53],[16.839,52.318],[16.739,52.107],[16.633,51.898],[16.516,51.69],[16.364,51.492],[16.129,51.329],[15.821,51.222],[15.608,51.051],[15.443,50.856],[15.272,50.664],[15.087,50.477],[14.879,50.299],[14.644,50.135],[14.399,49.976],[14.156,49.816],[13.923,49.651],[13.708,49.477],[13.527,49.288],[13.457,49.188]]}},{"type":"Feature","properties":{"seg":5,"kind":"warm","km":436},"geometry":{"type":"LineString","coordinates":[[43.916,36.459],[43.652,36.5],[43.388,36.432],[43.123,36.366],[42.85,36.329],[42.575,36.299],[42.302,36.258],[42.034,36.198],[41.77,36.131],[41.502,36.074],[41.228,36.038],[40.952,36.016],[40.675,35.999],[40.398,35.987],[40.12,35.992],[39.843,36.005],[39.567,35.989],[39.318,35.897],[39.227,35.812]]}},{"type":"Feature","properties":{"seg":6,"kind":"cold","km":429},"geometry":{"type":"LineString","coordinates":[[29.753,54.997],[29.797,54.772],[29.852,54.547],[29.915,54.323],[29.981,54.1],[30.046,53.877],[30.104,53.652],[30.156,53.428],[30.206,53.203],[30.254,52.978],[30.294,52.752],[30.321,52.526],[30.339,52.3],[30.351,52.073],[30.356,51.846],[30.357,51.619],[30.356,51.392],[30.353,51.165]]}},{"type":"Feature","properties":{"seg":7,"kind":"cold","km":394},"geometry":{"type":"LineString","coordinates":[[3.171,38.188],[3.03,38.383],[2.755,38.456],[2.466,38.496],[2.179,38.544],[1.895,38.601],[1.613,38.664],[1.333,38.73],[1.057,38.807],[0.784,38.891],[0.5,38.948],[0.208,38.936],[-0.084,38.921],[-0.371,38.965],[-0.652,39.029],[-0.943,39.048],[-1.086,39.023]]}},{"type":"Feature","properties":{"seg":8,"kind":"warm","km":369},"geometry":{"type":"LineString","coordinates":[[-8.849,41.938],[-9.034,41.757],[-9.192,41.563],[-9.313,41.354],[-9.403,41.136],[-9.48,40.915],[-9.558,40.694],[-9.621,40.471],[-9.648,40.243],[-9.718,40.023],[-9.903,39.844],[-10.1,39.672],[-10.268,39.482],[-10.398,39.276],[-10.506,39.063],[-10.562,38.957]]}},{"type":"Feature","properties":{"seg":9,"kind":"warm","km":357},"geometry":{"type":"LineString","coordinates":[[0.582,50.562],[0.616,50.791],[0.646,51.02],[0.67,51.248],[0.689,51.478],[0.706,51.707],[0.724,51.936],[0.742,52.165],[0.759,52.394],[0.767,52.623],[0.755,52.853],[0.723,53.081],[0.674,53.308],[0.618,53.535],[0.562,53.762]]}},{"type":"Feature","properties":{"seg":10,"kind":"warm","km":435},"geometry":{"type":"LineString","coordinates":[[-7.349,57.852],[-7.467,58.063],[-7.607,58.272],[-7.774,58.475],[-7.966,58.671],[-8.169,58.865],[-8.369,59.059],[-8.575,59.252],[-8.821,59.431],[-9.143,59.573],[-9.476,59.709],[-9.759,59.873],[-10.001,60.054],[-10.225,60.241],[-10.446,60.429],[-10.797,60.657],[-11.266,60.927],[-11.5,61.062]]}},{"type":"Feature","properties":{"seg":11,"kind":"warm","km":350},"geometry":{"type":"LineString","coordinates":[[-6.155,35.188],[-6.253,34.979],[-6.38,34.78],[-6.527,34.591],[-6.697,34.416],[-6.883,34.253],[-7.077,34.095],[-7.269,33.937],[-7.453,33.772],[-7.63,33.602],[-7.81,33.434],[-8.014,33.286],[-8.255,33.186],[-8.5,33.089],[-8.698,32.938]]}},{"type":"Feature","properties":{"type":"L","hPa":1020.1},"geometry":{"type":"Point","coordinates":[37.688,41.5]}},{"type":"Feature","properties":{"type":"L","hPa":1009.5},"geometry":{"type":"Point","coordinates":[7.125,43.438]}},{"type":"Feature","properties":{"type":"L","hPa":992.1},"geometry":{"type":"Point","coordinates":[15.312,58.938]}},{"type":"Feature","properties":{"type":"L","hPa":997.7},"geometry":{"type":"Point","coordinates":[-11.5,61.062]}},{"type":"Feature","properties":{"type":"H","hPa":1022.8},"geometry":{"type":"Point","coordinates":[22.125,32.688]}},{"type":"Feature","properties":{"type":"H","hPa":1030.9},"geometry":{"type":"Point","coordinates":[-11.5,45.375]}}]}