{"type":"FeatureCollection","properties":{"valid_time":"2026-10-05T12:00:00+00:00","run":"2026-10-05T06:00:00+00:00","lead_hours":6,"source":"ICON-EU theta_e850, Renard-Clarke (icon_front_very_far_snapshot.py)"},"features":[{"type":"Feature","properties":{"seg":0,"kind":"stat","km":1047},"geometry":{"type":"LineString","coordinates":[[29.0,39.898],[28.76,39.794],[28.548,39.656],[28.348,39.506],[28.162,39.346],[27.982,39.181],[27.796,39.02],[27.582,38.884],[27.329,38.804],[27.058,38.818],[26.794,38.876],[26.527,38.857],[26.307,38.728],[26.094,38.591],[25.862,38.475],[25.624,38.365],[25.409,38.23],[25.239,38.06],[25.111,37.866],[25.007,37.664],[24.917,37.457],[24.833,37.249],[24.747,37.041],[24.654,36.835],[24.604,36.733]]}},{"type":"Feature","properties":{"seg":0,"kind":"cold","km":1047},"geometry":{"type":"LineString","coordinates":[[24.604,36.733],[24.497,36.532],[24.386,36.332],[24.27,36.133],[24.142,35.94],[23.989,35.758],[23.811,35.592],[23.62,35.435],[23.432,35.276],[23.27,35.1],[23.161,34.9],[23.104,34.686],[23.076,34.469],[23.055,34.25],[23.029,34.033],[22.992,33.816],[22.942,33.601],[22.874,33.389],[22.77,33.187],[22.577,33.035],[22.473,32.964]]}},{"type":"Feature","properties":{"seg":1,"kind":"warm","km":819},"geometry":{"type":"LineString","coordinates":[[16.801,36.75],[16.731,36.963],[16.685,37.18],[16.714,37.398],[16.778,37.612],[16.812,37.83],[16.856,38.047],[16.932,38.259],[17.013,38.47],[17.072,38.685],[17.083,38.904],[17.039,39.121],[16.95,39.33],[16.837,39.532],[16.776,39.631]]}},{"type":"Feature","properties":{"seg":1,"kind":"stat","km":819},"geometry":{"type":"LineString","coordinates":[[16.776,39.631],[16.652,39.83],[16.53,40.029],[16.415,40.23],[16.306,40.434],[16.203,40.639],[16.105,40.846],[16.009,41.053],[15.919,41.262],[15.834,41.472],[15.749,41.682],[15.663,41.892],[15.576,42.101],[15.489,42.31],[15.402,42.52],[15.312,42.729],[15.217,42.936],[15.112,43.141],[14.991,43.34],[14.849,43.531],[14.688,43.713]]}},{"type":"Feature","properties":{"seg":2,"kind":"warm","km":718},"geometry":{"type":"LineString","coordinates":[[13.611,38.048],[13.376,38.18],[13.152,38.324],[12.922,38.461],[12.689,38.596],[12.504,38.767],[12.373,38.966],[12.266,39.173],[12.174,39.384],[12.094,39.598],[12.022,39.814],[11.949,40.03],[11.862,40.242],[11.742,40.445],[11.584,40.632],[11.407,40.809],[11.229,40.986],[11.055,41.165],[10.894,41.35],[10.757,41.547],[10.653,41.755],[10.59,41.972],[10.569,42.193],[10.584,42.416],[10.617,42.637],[10.648,42.858],[10.668,43.08],[10.667,43.302],[10.638,43.524],[10.562,43.738]]}},{"type":"Feature","properties":{"seg":3,"kind":"stat","km":586},"geometry":{"type":"LineString","coordinates":[[36.375,42.307],[36.111,42.417],[35.839,42.516],[35.553,42.59],[35.255,42.632],[34.952,42.637],[34.651,42.615],[34.352,42.578],[34.052,42.543],[33.753,42.507],[33.454,42.472],[33.156,42.51],[32.859,42.553],[32.556,42.563],[32.256,42.534],[31.96,42.485],[31.668,42.424],[31.382,42.35],[31.105,42.26],[30.828,42.168],[30.548,42.082],[30.276,41.982],[30.014,41.869],[29.743,41.772],[29.596,41.784]]}},{"type":"Feature","properties":{"seg":4,"kind":"cold","km":523},"geometry":{"type":"LineString","coordinates":[[33.178,54.072],[32.944,53.899],[32.667,53.75],[32.36,53.626],[32.033,53.521],[31.731,53.392],[31.469,53.234],[31.196,53.083],[30.883,52.963],[30.549,52.867],[30.226,52.757],[29.91,52.64],[29.574,52.547],[29.212,52.501],[28.846,52.465],[28.486,52.413],[28.127,52.356],[27.774,52.288],[27.438,52.195],[27.123,52.077],[26.816,51.952],[26.5,51.835]]}},{"type":"Feature","properties":{"seg":5,"kind":"warm","km":473},"geometry":{"type":"LineString","coordinates":[[10.574,35.824],[10.577,36.048],[10.557,36.271],[10.524,36.493],[10.486,36.715],[10.451,36.937],[10.423,37.16],[10.408,37.383],[10.403,37.607],[10.407,37.831],[10.412,38.055],[10.415,38.279],[10.406,38.502],[10.381,38.725],[10.341,38.947],[10.292,39.167],[10.236,39.387],[10.151,39.6],[10.032,39.803],[9.938,40.014]]}},{"type":"Feature","properties":{"seg":6,"kind":"warm","km":426},"geometry":{"type":"LineString","coordinates":[[44.312,55.071],[44.291,55.296],[44.261,55.521],[44.215,55.744],[44.151,55.967],[44.076,56.188],[44.001,56.41],[43.936,56.632],[43.886,56.856],[43.847,57.08],[43.814,57.304],[43.78,57.528],[43.743,57.753],[43.702,57.977],[43.663,58.201],[43.629,58.425],[43.606,58.65],[43.594,58.875]]}},{"type":"Feature","properties":{"seg":7,"kind":"stat","km":368},"geometry":{"type":"LineString","coordinates":[[15.905,44.375],[15.943,44.149],[16.053,43.936],[16.2,43.734],[16.345,43.532],[16.471,43.323],[16.582,43.11],[16.693,42.897],[16.819,42.688],[16.96,42.484],[17.104,42.281],[17.242,42.077],[17.383,41.873],[17.549,41.68],[17.708,41.488],[17.695,41.375]]}},{"type":"Feature","properties":{"seg":8,"kind":"warm","km":348},"geometry":{"type":"LineString","coordinates":[[37.875,50.256],[38.223,50.241],[38.553,50.173],[38.827,50.035],[39.165,50.008],[39.513,50.023],[39.862,50.018],[40.21,50.005],[40.557,50.026],[40.902,50.054],[41.244,50.013],[41.582,49.958],[41.917,49.894],[42.258,49.854],[42.5,49.997]]}},{"type":"Feature","properties":{"seg":9,"kind":"cold","km":320},"geometry":{"type":"LineString","coordinates":[[-9.296,37.024],[-9.396,36.818],[-9.5,36.613],[-9.606,36.409],[-9.687,36.198],[-9.726,35.979],[-9.755,35.759],[-9.808,35.542],[-9.883,35.329],[-9.977,35.122],[-10.092,34.92],[-10.227,34.728],[-10.385,34.546],[-10.562,34.377]]}},{"type":"Feature","properties":{"seg":10,"kind":"warm","km":316},"geometry":{"type":"LineString","coordinates":[[28.312,57.914],[28.364,58.14],[28.415,58.366],[28.479,58.591],[28.585,58.811],[28.756,59.021],[28.958,59.224],[29.144,59.43],[29.336,59.635],[29.583,59.825],[29.802,60.022],[29.942,60.238],[30.074,60.455],[30.146,60.562]]}},{"type":"Feature","properties":{"seg":11,"kind":"cold","km":305},"geometry":{"type":"LineString","coordinates":[[3.219,39.719],[3.485,39.624],[3.754,39.531],[4.013,39.425],[4.258,39.3],[4.491,39.16],[4.71,39.009],[4.914,38.845],[5.096,38.666],[5.248,38.471],[5.361,38.261],[5.429,38.039],[5.456,37.812]]}},{"type":"Feature","properties":{"type":"L","hPa":1015.6},"geometry":{"type":"Point","coordinates":[-7.438,32.0]}},{"type":"Feature","properties":{"type":"L","hPa":996.4},"geometry":{"type":"Point","coordinates":[-3.562,61.5]}},{"type":"Feature","properties":{"type":"H","hPa":1024.5},"geometry":{"type":"Point","coordinates":[14.25,34.5]}},{"type":"Feature","properties":{"type":"H","hPa":1026.0},"geometry":{"type":"Point","coordinates":[-4.812,49.688]}}]}