{"type":"FeatureCollection","properties":{"valid_time":"2026-10-05T18:00:00+00:00","run":"2026-10-05T12:00:00+00:00","lead_hours":6,"source":"ICON-EU theta_e850, Renard-Clarke (icon_front_very_far_snapshot.py)"},"features":[{"type":"Feature","properties":{"seg":0,"kind":"stat","km":743},"geometry":{"type":"LineString","coordinates":[[17.271,39.093],[17.173,39.299],[17.09,39.509],[17.016,39.721],[16.938,39.932],[16.837,40.137],[16.708,40.334],[16.559,40.522],[16.411,40.711],[16.295,40.912],[16.214,41.122],[16.155,41.337],[16.102,41.552],[16.041,41.766],[15.965,41.978],[15.872,42.186],[15.763,42.389],[15.645,42.589],[15.522,42.788],[15.396,42.986],[15.266,43.182],[15.129,43.376],[14.986,43.567],[14.837,43.755],[14.685,43.942],[14.531,44.129],[14.377,44.315],[14.202,44.49],[13.974,44.626],[13.702,44.706],[13.436,44.799],[13.308,44.851]]}},{"type":"Feature","properties":{"seg":1,"kind":"stat","km":638},"geometry":{"type":"LineString","coordinates":[[40.604,40.979],[40.31,40.988],[40.041,41.078],[39.834,41.234],[39.612,41.376],[39.323,41.424],[39.027,41.435],[38.735,41.465],[38.481,41.575],[38.25,41.713],[38.008,41.841],[37.75,41.948],[37.473,42.027],[37.187,42.084],[36.9,42.14],[36.618,42.206],[36.341,42.284],[36.062,42.359],[35.776,42.414],[35.482,42.441],[35.186,42.441],[34.891,42.42],[34.597,42.389],[34.305,42.355],[34.014,42.314],[33.734,42.243],[33.484,42.125]]}},{"type":"Feature","properties":{"seg":2,"kind":"stat","km":570},"geometry":{"type":"LineString","coordinates":[[28.722,40.549],[28.686,40.333],[28.617,40.122],[28.512,39.921],[28.379,39.73],[28.226,39.548],[28.057,39.375],[27.875,39.21],[27.669,39.064],[27.436,38.946],[27.195,38.837],[26.964,38.716],[26.739,38.588],[26.51,38.464],[26.28,38.342],[26.075,38.195],[25.905,38.023],[25.745,37.846],[25.584,37.668],[25.435,37.484],[25.312,37.289],[25.221,37.083],[25.162,36.871],[25.132,36.654],[25.125,36.546]]}},{"type":"Feature","properties":{"seg":3,"kind":"warm","km":560},"geometry":{"type":"LineString","coordinates":[[11.474,36.165],[11.382,36.371],[11.309,36.582],[11.251,36.796],[11.204,37.012],[11.164,37.228],[11.131,37.446],[11.104,37.663],[11.086,37.882],[11.074,38.1],[11.058,38.319],[11.031,38.537],[10.987,38.753],[10.924,38.965],[10.84,39.174],[10.734,39.376],[10.615,39.573],[10.51,39.775],[10.44,39.986],[10.384,40.2],[10.321,40.413],[10.235,40.621],[10.098,40.81],[9.875,40.933]]}},{"type":"Feature","properties":{"seg":4,"kind":"cold","km":468},"geometry":{"type":"LineString","coordinates":[[36.292,54.0],[36.024,53.842],[35.77,53.675],[35.525,53.502],[35.265,53.339],[34.977,53.193],[34.705,53.038],[34.485,52.854],[34.264,52.671],[34.005,52.507],[33.718,52.361],[33.413,52.229],[33.072,52.136],[32.702,52.105],[32.328,52.118],[31.956,52.144],[31.584,52.175],[31.212,52.189],[30.886,52.082],[30.734,52.016]]}},{"type":"Feature","properties":{"seg":5,"kind":"stat","km":407},"geometry":{"type":"LineString","coordinates":[[14.718,37.968],[14.434,38.027],[14.17,38.128],[13.948,38.277],[13.738,38.438],[13.519,38.591],[13.297,38.741],[13.081,38.896],[12.879,39.063],[12.699,39.244],[12.546,39.439],[12.419,39.646],[12.316,39.86],[12.232,40.079],[12.163,40.302],[12.105,40.526],[12.047,40.75]]}},{"type":"Feature","properties":{"seg":6,"kind":"stat","km":395},"geometry":{"type":"LineString","coordinates":[[34.857,37.169],[35.055,37.031],[35.271,36.896],[35.359,36.678],[35.424,36.455],[35.501,36.234],[35.582,36.014],[35.658,35.793],[35.724,35.57],[35.76,35.343],[35.74,35.114],[35.679,34.89],[35.608,34.668],[35.546,34.445],[35.507,34.217],[35.509,33.988],[35.531,33.875]]}},{"type":"Feature","properties":{"seg":7,"kind":"stat","km":347},"geometry":{"type":"LineString","coordinates":[[10.188,49.548],[9.881,49.454],[9.603,49.327],[9.33,49.195],[9.044,49.075],[8.754,48.96],[8.481,48.828],[8.221,48.685],[7.938,48.564],[7.617,48.494],[7.292,48.43],[6.968,48.366],[6.692,48.239],[6.473,48.069],[6.25,47.909]]}},{"type":"Feature","properties":{"seg":8,"kind":"cold","km":329},"geometry":{"type":"LineString","coordinates":[[6.278,40.5],[6.249,40.274],[6.181,40.053],[6.177,39.829],[6.306,39.626],[6.471,39.438],[6.642,39.254],[6.801,39.063],[6.934,38.86],[7.037,38.647],[7.113,38.428],[7.165,38.204],[7.188,37.977],[7.178,37.75]]}},{"type":"Feature","properties":{"seg":9,"kind":"stat","km":304},"geometry":{"type":"LineString","coordinates":[[0.176,36.238],[-0.1,36.278],[-0.378,36.255],[-0.644,36.186],[-0.889,36.074],[-1.128,35.955],[-1.371,35.841],[-1.62,35.736],[-1.878,35.647],[-2.144,35.574],[-2.413,35.512],[-2.685,35.455],[-2.955,35.392]]}},{"type":"Feature","properties":{"type":"L","hPa":1015.2},"geometry":{"type":"Point","coordinates":[-7.188,32.0]}},{"type":"Feature","properties":{"type":"L","hPa":1001.9},"geometry":{"type":"Point","coordinates":[3.062,61.5]}},{"type":"Feature","properties":{"type":"L","hPa":993.8},"geometry":{"type":"Point","coordinates":[17.0,61.5]}},{"type":"Feature","properties":{"type":"H","hPa":1022.9},"geometry":{"type":"Point","coordinates":[-5.062,50.375]}}]}