{"type":"FeatureCollection","properties":{"valid_time":"2026-10-04T06:00:00+00:00","run":"2026-10-04T00:00:00+00:00","lead_hours":6,"source":"ICON-EU theta_e850, Renard-Clarke (icon_front_very_far_snapshot.py)"},"features":[{"type":"Feature","properties":{"seg":0,"kind":"warm","km":1164},"geometry":{"type":"LineString","coordinates":[[37.062,50.252],[37.149,50.464],[37.264,50.672],[37.409,50.873],[37.551,51.075],[37.64,51.287],[37.689,51.503],[37.718,51.72],[37.737,51.938],[37.749,52.155],[37.755,52.373],[37.755,52.591],[37.748,52.809],[37.735,53.027],[37.715,53.244],[37.684,53.461],[37.639,53.678],[37.576,53.892],[37.497,54.106],[37.409,54.318],[37.323,54.53],[37.246,54.743],[37.18,54.958],[37.125,55.174],[37.079,55.39],[37.039,55.606],[37.002,55.823],[36.968,56.04],[36.937,56.257],[36.909,56.475],[36.884,56.692],[36.865,56.91],[36.85,57.127],[36.839,57.345],[36.831,57.563],[36.824,57.781],[36.812,57.998],[36.789,58.216],[36.741,58.432],[36.661,58.645],[36.554,58.854],[36.442,59.062],[36.343,59.273],[36.266,59.486],[36.218,59.702],[36.204,59.92],[36.231,60.137],[36.296,60.351],[36.391,60.562]]}},{"type":"Feature","properties":{"seg":1,"kind":"warm","km":872},"geometry":{"type":"LineString","coordinates":[[-1.161,47.938],[-1.439,47.83],[-1.716,47.722],[-1.995,47.617],[-2.277,47.515],[-2.561,47.417],[-2.848,47.322],[-3.135,47.228],[-3.423,47.135],[-3.708,47.038],[-3.989,46.934],[-4.263,46.823],[-4.528,46.702],[-4.785,46.572],[-5.033,46.434],[-5.272,46.288],[-5.503,46.137],[-5.73,45.982],[-5.955,45.827],[-6.189,45.677],[-6.431,45.534],[-6.675,45.393],[-6.913,45.247],[-7.142,45.094],[-7.365,44.937],[-7.6,44.789],[-7.896,44.735],[-8.203,44.792],[-8.518,44.783],[-8.822,44.72],[-9.107,44.623],[-9.379,44.509],[-9.644,44.387],[-9.907,44.264],[-10.169,44.139],[-10.431,44.014],[-10.562,43.952]]}},{"type":"Feature","properties":{"seg":2,"kind":"stat","km":701},"geometry":{"type":"LineString","coordinates":[[11.983,38.375],[11.837,38.564],[11.595,38.685],[11.372,38.826],[11.195,39.001],[11.016,39.175],[10.8,39.323],[10.579,39.467],[10.38,39.628],[10.216,39.81],[10.084,40.007],[9.97,40.211],[9.857,40.414],[9.714,40.607],[9.491,40.742]]}},{"type":"Feature","properties":{"seg":2,"kind":"warm","km":701},"geometry":{"type":"LineString","coordinates":[[9.491,40.742],[9.205,40.782],[8.918,40.812],[8.632,40.852],[8.346,40.891],[8.064,40.945],[7.798,41.032],[7.544,41.141],[7.303,41.264],[7.079,41.405],[6.878,41.564],[6.692,41.735],[6.502,41.902],[6.265,42.028],[5.987,42.091],[5.849,42.125]]}},{"type":"Feature","properties":{"seg":3,"kind":"cold","km":682},"geometry":{"type":"LineString","coordinates":[[20.433,60.562],[20.142,60.403],[19.902,60.221],[19.733,60.017],[19.572,59.812],[19.396,59.61],[19.21,59.411],[19.02,59.212],[18.831,59.014],[18.647,58.814],[18.473,58.611],[18.302,58.408],[18.122,58.207],[17.921,58.012],[17.697,57.823],[17.459,57.64],[17.216,57.459],[16.973,57.278],[16.729,57.097],[16.482,56.917],[16.226,56.741],[15.957,56.571],[15.671,56.408],[15.37,56.253],[15.053,56.108],[14.722,55.972],[14.388,55.837],[14.062,55.698],[13.903,55.625]]}},{"type":"Feature","properties":{"seg":4,"kind":"cold","km":510},"geometry":{"type":"LineString","coordinates":[[44.312,48.753],[43.996,48.849],[43.687,48.953],[43.388,49.07],[43.105,49.201],[42.857,49.359],[42.637,49.533],[42.415,49.706],[42.166,49.863],[41.882,49.993],[41.562,50.083],[41.262,50.195],[41.04,50.368],[40.852,50.557],[40.659,50.744],[40.447,50.922],[40.213,51.088],[39.965,51.246],[39.719,51.405],[39.511,51.585],[39.289,51.756],[39.125,51.763]]}},{"type":"Feature","properties":{"seg":5,"kind":"stat","km":503},"geometry":{"type":"LineString","coordinates":[[6.273,38.902],[6.098,39.077],[5.914,39.246],[5.723,39.41],[5.529,39.572],[5.334,39.734],[5.145,39.9],[4.971,40.076],[4.819,40.262],[4.682,40.456],[4.549,40.651],[4.403,40.841],[4.24,41.022],[4.071,41.2],[3.912,41.384],[3.768,41.574],[3.637,41.771],[3.519,41.971],[3.414,42.177],[3.33,42.387],[3.263,42.601],[3.229,42.709]]}},{"type":"Feature","properties":{"seg":6,"kind":"stat","km":475},"geometry":{"type":"LineString","coordinates":[[9.25,35.154],[9.309,35.373],[9.386,35.59],[9.476,35.803],[9.571,36.015],[9.656,36.229],[9.72,36.448],[9.753,36.671],[9.748,36.895],[9.703,37.117],[9.617,37.331],[9.501,37.536],[9.371,37.735],[9.235,37.933],[9.101,38.13],[8.973,38.331],[8.855,38.535],[8.744,38.742],[8.639,38.95],[8.534,39.159]]}},{"type":"Feature","properties":{"seg":7,"kind":"cold","km":466},"geometry":{"type":"LineString","coordinates":[[34.688,53.193],[34.56,52.982],[34.479,52.762],[34.43,52.538],[34.401,52.312],[34.379,52.087],[34.356,51.861],[34.326,51.636],[34.285,51.411],[34.228,51.188],[34.149,50.968],[34.041,50.752],[33.896,50.545],[33.723,50.347],[33.534,50.155],[33.339,49.965],[33.146,49.774],[32.957,49.582],[32.775,49.387],[32.688,49.288]]}},{"type":"Feature","properties":{"seg":8,"kind":"warm","km":432},"geometry":{"type":"LineString","coordinates":[[31.94,48.0],[31.893,47.781],[31.889,47.559],[31.92,47.338],[31.961,47.118],[31.988,46.897],[31.995,46.675],[31.992,46.454],[31.994,46.232],[32.016,46.01],[32.058,45.791],[32.115,45.572],[32.178,45.355],[32.244,45.138],[32.316,44.922],[32.401,44.708],[32.502,44.497],[32.622,44.292],[32.692,44.192]]}},{"type":"Feature","properties":{"seg":9,"kind":"stat","km":361},"geometry":{"type":"LineString","coordinates":[[26.554,40.133],[26.265,40.137],[25.976,40.13],[25.688,40.104],[25.408,40.049],[25.142,39.96],[24.898,39.84],[24.677,39.696],[24.477,39.535],[24.293,39.362],[24.115,39.186],[23.935,39.011],[23.75,38.839],[23.568,38.665],[23.396,38.486],[23.312,38.394]]}},{"type":"Feature","properties":{"seg":10,"kind":"cold","km":354},"geometry":{"type":"LineString","coordinates":[[-3.938,35.528],[-3.659,35.558],[-3.397,35.639],[-3.15,35.749],[-2.9,35.852],[-2.643,35.944],[-2.382,36.029],[-2.117,36.107],[-1.848,36.173],[-1.578,36.238],[-1.31,36.307],[-1.04,36.371],[-0.766,36.422],[-0.487,36.431],[-0.256,36.312]]}},{"type":"Feature","properties":{"seg":11,"kind":"warm","km":334},"geometry":{"type":"LineString","coordinates":[[-10.56,56.75],[-10.286,56.927],[-9.984,57.092],[-9.664,57.247],[-9.33,57.394],[-8.997,57.542],[-8.686,57.703],[-8.413,57.882],[-8.164,58.071],[-7.889,58.249],[-7.559,58.398],[-7.227,58.546],[-6.979,58.734],[-6.774,58.938]]}},{"type":"Feature","properties":{"type":"L","hPa":1019.9},"geometry":{"type":"Point","coordinates":[-4.5,43.875]}},{"type":"Feature","properties":{"type":"L","hPa":1000.3},"geometry":{"type":"Point","coordinates":[-11.5,61.5]}},{"type":"Feature","properties":{"type":"H","hPa":1032.8},"geometry":{"type":"Point","coordinates":[24.438,46.375]}},{"type":"Feature","properties":{"type":"H","hPa":1030.4},"geometry":{"type":"Point","coordinates":[-3.5,52.062]}}]}