{"type":"FeatureCollection","properties":{"valid_time":"2026-10-07T00:00:00+00:00","run":"2026-10-06T18:00:00+00:00","lead_hours":6,"source":"ICON-EU theta_e850, Renard-Clarke (icon_front_very_far_snapshot.py)"},"features":[{"type":"Feature","properties":{"seg":0,"kind":"warm","km":1349},"geometry":{"type":"LineString","coordinates":[[5.438,56.406],[5.08,56.352],[4.726,56.29],[4.376,56.221],[4.025,56.153],[3.671,56.093],[3.312,56.042],[2.951,55.996],[2.596,55.937],[2.255,55.853],[1.925,55.755],[1.594,55.658]]}},{"type":"Feature","properties":{"seg":0,"kind":"stat","km":1349},"geometry":{"type":"LineString","coordinates":[[1.594,55.658],[1.255,55.573],[0.904,55.504],[0.55,55.443],[0.204,55.368],[-0.126,55.27],[-0.44,55.155],[-0.747,55.034],[-1.062,54.92],[-1.393,54.824],[-1.738,54.746],[-1.912,54.71]]}},{"type":"Feature","properties":{"seg":0,"kind":"cold","km":1349},"geometry":{"type":"LineString","coordinates":[[-1.912,54.71],[-2.253,54.627],[-2.555,54.503],[-2.799,54.339],[-3.02,54.164],[-3.24,53.989],[-3.471,53.819],[-3.72,53.658],[-3.996,53.513],[-4.301,53.39],[-4.636,53.3],[-4.997,53.313],[-5.348,53.349],[-5.622,53.206],[-5.84,53.03],[-6.066,52.857],[-6.32,52.699],[-6.594,52.553],[-6.879,52.414],[-7.173,52.282],[-7.47,52.152],[-7.751,52.01],[-8.0,51.849],[-8.23,51.679],[-8.46,51.508],[-8.702,51.343],[-8.969,51.192],[-9.239,51.044],[-9.473,50.875],[-9.672,50.691],[-9.856,50.502],[-10.037,50.312],[-10.219,50.122],[-10.398,49.931],[-10.562,49.735]]}},{"type":"Feature","properties":{"seg":1,"kind":"warm","km":754},"geometry":{"type":"LineString","coordinates":[[30.271,50.667],[30.598,50.586],[30.943,50.539],[31.294,50.521],[31.646,50.52],[31.999,50.526],[32.351,50.535],[32.703,50.543],[33.055,50.551],[33.408,50.561],[33.759,50.577],[34.108,50.609],[34.45,50.661],[34.787,50.727],[35.122,50.796],[35.46,50.858],[35.804,50.908],[36.151,50.946],[36.5,50.978],[36.848,51.014],[37.193,51.058],[37.535,51.111],[37.874,51.173],[38.209,51.241],[38.543,51.314],[38.876,51.386],[39.209,51.459],[39.543,51.529],[39.88,51.594],[40.223,51.645],[40.574,51.662],[40.75,51.654]]}},{"type":"Feature","properties":{"seg":2,"kind":"warm","km":655},"geometry":{"type":"LineString","coordinates":[[19.578,35.422],[19.566,35.64],[19.55,35.858],[19.525,36.075],[19.485,36.291],[19.425,36.504],[19.343,36.713],[19.239,36.916],[19.117,37.113],[18.982,37.304],[18.839,37.493],[18.691,37.679],[18.534,37.861],[18.355,38.03],[18.139,38.171],[17.917,38.306],[17.774,38.493],[17.687,38.701],[17.62,38.913],[17.561,39.126],[17.506,39.34],[17.45,39.554],[17.389,39.766],[17.319,39.978],[17.241,40.188],[17.162,40.397],[17.094,40.609],[17.06,40.825]]}},{"type":"Feature","properties":{"seg":3,"kind":"cold","km":626},"geometry":{"type":"LineString","coordinates":[[36.486,52.452],[36.121,52.464],[35.763,52.51],[35.402,52.547],[35.04,52.577],[34.676,52.555],[34.312,52.535],[33.948,52.552],[33.607,52.631],[33.273,52.723],[32.963,52.839],[32.691,52.986],[32.356,53.063],[31.993,53.039],[31.628,53.032],[31.269,53.076],[30.917,53.136],[30.557,53.176],[30.192,53.185],[29.827,53.165],[29.463,53.142],[29.098,53.152],[28.739,53.195],[28.39,53.261],[28.037,53.32],[27.679,53.368],[27.5,53.39]]}},{"type":"Feature","properties":{"seg":4,"kind":"warm","km":617},"geometry":{"type":"LineString","coordinates":[[5.533,49.533],[5.24,49.61],[4.914,49.613],[4.602,49.558],[4.343,49.427],[4.103,49.279],[3.852,49.14],[3.565,49.039],[3.243,49.014],[2.919,49.039],[2.597,49.075],[2.275,49.11],[1.955,49.152],[1.638,49.203],[1.326,49.267],[1.02,49.343],[0.722,49.43],[0.438,49.537],[0.173,49.664],[-0.09,49.793],[-0.366,49.908],[-0.667,49.99],[-0.991,50.012],[-1.316,49.996],[-1.642,49.996],[-1.962,50.035],[-2.114,50.075]]}},{"type":"Feature","properties":{"seg":5,"kind":"cold","km":552},"geometry":{"type":"LineString","coordinates":[[44.313,54.349],[43.97,54.268],[43.648,54.16],[43.331,54.047],[43.005,53.944],[42.693,53.826],[42.428,53.673],[42.173,53.513],[41.938,53.343],[41.712,53.169],[41.424,53.035],[41.06,53.041],[40.692,53.059],[40.325,53.078],[39.957,53.095],[39.595,53.055],[39.254,52.971],[38.91,52.892],[38.554,52.833],[38.211,52.753],[37.892,52.642],[37.554,52.555],[37.19,52.52],[37.007,52.507]]}},{"type":"Feature","properties":{"seg":6,"kind":"cold","km":485},"geometry":{"type":"LineString","coordinates":[[-4.515,49.778],[-4.753,49.63],[-4.987,49.478],[-5.218,49.324],[-5.441,49.165],[-5.65,48.998],[-5.842,48.822],[-6.021,48.64],[-6.196,48.456],[-6.374,48.274],[-6.56,48.095],[-6.747,47.917],[-6.934,47.739],[-7.118,47.559],[-7.295,47.376],[-7.45,47.185],[-7.576,46.984],[-7.671,46.776],[-7.742,46.564],[-7.793,46.349],[-7.825,46.132]]}},{"type":"Feature","properties":{"seg":7,"kind":"warm","km":462},"geometry":{"type":"LineString","coordinates":[[15.884,39.688],[15.651,39.827],[15.429,39.977],[15.202,40.122],[14.958,40.25],[14.702,40.365],[14.455,40.489],[14.243,40.647],[14.062,40.825],[13.895,41.01],[13.735,41.2],[13.578,41.391],[13.416,41.578],[13.23,41.753],[13.008,41.903],[12.763,42.03],[12.507,42.145],[12.241,42.245],[11.959,42.317],[11.812,42.334]]}},{"type":"Feature","properties":{"seg":8,"kind":"cold","km":458},"geometry":{"type":"LineString","coordinates":[[43.497,36.812],[43.382,36.613],[43.36,36.392],[43.375,36.169],[43.382,35.947],[43.368,35.725],[43.331,35.504],[43.264,35.288],[43.161,35.083],[43.023,34.891],[42.869,34.708],[42.726,34.519],[42.601,34.322],[42.476,34.124],[42.339,33.932],[42.185,33.749],[42.008,33.581],[41.802,33.436],[41.578,33.311],[41.465,33.25]]}},{"type":"Feature","properties":{"seg":9,"kind":"cold","km":446},"geometry":{"type":"LineString","coordinates":[[-5.666,36.291],[-5.773,36.087],[-5.879,35.882],[-5.987,35.678],[-6.101,35.476],[-6.22,35.276],[-6.346,35.079],[-6.48,34.886],[-6.62,34.696],[-6.76,34.505],[-6.897,34.314],[-7.034,34.122],[-7.175,33.932],[-7.322,33.745],[-7.476,33.563],[-7.643,33.387],[-7.826,33.224],[-8.026,33.075],[-8.239,32.938]]}},{"type":"Feature","properties":{"seg":10,"kind":"warm","km":391},"geometry":{"type":"LineString","coordinates":[[13.976,32.938],[14.016,33.161],[14.063,33.385],[14.121,33.606],[14.196,33.824],[14.293,34.035],[14.404,34.243],[14.514,34.45],[14.608,34.663],[14.683,34.88],[14.743,35.102],[14.792,35.324],[14.838,35.547],[14.889,35.77],[14.953,35.99],[15.029,36.208],[15.067,36.317]]}},{"type":"Feature","properties":{"seg":11,"kind":"warm","km":325},"geometry":{"type":"LineString","coordinates":[[17.811,46.438],[17.705,46.65],[17.593,46.862],[17.46,47.068],[17.302,47.265],[17.132,47.459],[16.976,47.657],[16.811,47.852],[16.614,48.033],[16.39,48.199],[16.142,48.35],[15.868,48.478],[15.576,48.586],[15.25,48.595]]}},{"type":"Feature","properties":{"type":"L","hPa":1012.3},"geometry":{"type":"Point","coordinates":[45.25,32.75]}},{"type":"Feature","properties":{"type":"L","hPa":1016.3},"geometry":{"type":"Point","coordinates":[31.062,36.062]}},{"type":"Feature","properties":{"type":"H","hPa":1023.2},"geometry":{"type":"Point","coordinates":[-11.5,51.812]}}]}