{"type":"FeatureCollection","properties":{"valid_time":"2026-10-08T00:00:00+00:00","run":"2026-10-07T18:00:00+00:00","lead_hours":6,"source":"ICON-EU theta_e850, Renard-Clarke (icon_front_very_far_snapshot.py)"},"features":[{"type":"Feature","properties":{"seg":0,"kind":"cold","km":1070},"geometry":{"type":"LineString","coordinates":[[4.758,54.429],[4.548,54.28],[4.42,54.078],[4.29,53.877],[4.145,53.68],[3.993,53.486],[3.87,53.283],[3.789,53.071],[3.727,52.856],[3.666,52.641],[3.592,52.428],[3.499,52.218],[3.386,52.013],[3.25,51.813],[3.08,51.626],[2.867,51.458],[2.614,51.317],[2.357,51.178],[2.123,51.023],[1.904,50.859],[1.694,50.689],[1.499,50.512],[1.331,50.324],[1.185,50.128],[1.05,49.928],[0.918,49.727],[0.796,49.524],[0.699,49.315],[0.642,49.099],[0.615,48.882],[0.585,48.664],[0.507,48.452],[0.366,48.254],[0.207,48.062],[0.086,47.859],[0.001,47.648],[-0.066,47.434],[-0.135,47.22],[-0.215,47.008],[-0.312,46.798],[-0.428,46.594],[-0.568,46.396],[-0.75,46.213],[-0.984,46.058],[-1.213,45.9]]}},{"type":"Feature","properties":{"seg":1,"kind":"cold","km":1123},"geometry":{"type":"LineString","coordinates":[[7.812,51.625],[7.215,51.713],[6.861,51.654],[6.736,51.451],[6.591,51.254],[6.425,51.063],[6.245,50.879],[6.051,50.7],[5.849,50.526],[5.641,50.354],[5.433,50.182],[5.225,50.011],[5.015,49.839],[4.803,49.67],[4.582,49.505],[4.356,49.344],[4.133,49.18],[3.924,49.008],[3.718,48.836],[3.495,48.672],[3.262,48.515],[3.053,48.344],[2.896,48.151],[2.792,47.943],[2.722,47.729],[2.672,47.513],[2.64,47.295],[2.627,47.076],[2.62,46.857],[2.599,46.639],[2.548,46.422],[2.467,46.21],[2.366,46.001],[2.249,45.796],[2.114,45.596],[1.961,45.401],[1.78,45.217],[1.554,45.055],[1.283,44.927],[1.099,44.748],[1.015,44.537],[0.949,44.322],[0.879,44.108],[0.781,43.899],[0.613,43.711],[0.312,43.642]]}},{"type":"Feature","properties":{"seg":2,"kind":"warm","km":978},"geometry":{"type":"LineString","coordinates":[[17.231,58.375],[16.893,58.498],[16.55,58.616],[16.189,58.718],[15.816,58.807],[15.44,58.893],[15.068,58.983],[14.696,59.073],[14.312,59.148],[13.913,59.193],[13.505,59.2],[13.098,59.183],[12.69,59.167],[12.283,59.152],[11.878,59.123],[11.478,59.078],[11.086,59.016],[10.705,58.937],[10.34,58.84],[9.997,58.721],[9.661,58.597],[9.31,58.485],[8.957,58.375],[8.626,58.248],[8.331,58.097],[8.081,57.925],[7.875,57.737],[7.708,57.538],[7.566,57.333],[7.433,57.127],[7.293,56.922],[7.134,56.722],[6.936,56.531],[6.677,56.363],[6.366,56.222],[6.84,56.381],[7.314,56.54],[7.789,56.699],[8.263,56.858],[8.5,56.938]]}},{"type":"Feature","properties":{"seg":3,"kind":"cold","km":769},"geometry":{"type":"LineString","coordinates":[[5.551,40.449],[5.478,40.238],[5.35,40.042],[5.2,39.856],[5.044,39.674],[4.883,39.493],[4.722,39.313],[4.563,39.132],[4.407,38.949],[4.252,38.766],[4.093,38.584],[3.929,38.405],[3.767,38.226],[3.604,38.047],[3.435,37.871],[3.252,37.704],[3.051,37.55],[2.836,37.407],[2.61,37.276],[2.373,37.157],[2.126,37.049],[1.874,36.95],[1.619,36.856],[1.362,36.765],[1.102,36.679],[0.839,36.598],[0.584,36.505],[0.345,36.388],[0.118,36.257],[-0.11,36.128],[-0.35,36.012],[-0.604,35.916],[-0.735,35.875]]}},{"type":"Feature","properties":{"seg":4,"kind":"stat","km":715},"geometry":{"type":"LineString","coordinates":[[43.125,50.654],[42.954,50.846],[42.787,51.043],[42.621,51.239],[42.426,51.425],[42.186,51.591],[41.911,51.734],[41.614,51.861],[41.309,51.98],[41.024,52.115],[40.753,52.262],[40.462,52.394],[40.132,52.481],[39.773,52.501],[39.416,52.47],[39.058,52.436],[38.701,52.402],[38.349,52.353],[38.007,52.282],[37.651,52.261],[37.301,52.315],[36.96,52.388],[36.618,52.461],[36.275,52.532],[35.938,52.611],[35.609,52.703],[35.286,52.803],[34.971,52.911],[34.662,53.025],[34.356,53.144]]}},{"type":"Feature","properties":{"seg":5,"kind":"stat","km":585},"geometry":{"type":"LineString","coordinates":[[42.378,49.625],[42.04,49.682],[41.701,49.736],[41.392,49.839],[41.108,49.97],[40.811,50.088],[40.481,50.16],[40.139,50.206],[39.799,50.259],[39.457,50.304],[39.108,50.318],[38.759,50.308],[38.411,50.286],[38.063,50.265],[37.715,50.243],[37.368,50.219],[37.018,50.213],[36.676,50.257],[36.362,50.354],[36.072,50.478],[35.782,50.603],[35.475,50.71],[35.155,50.8],[34.826,50.876],[34.659,50.909]]}},{"type":"Feature","properties":{"seg":6,"kind":"warm","km":576},"geometry":{"type":"LineString","coordinates":[[28.958,55.375],[28.641,55.509],[28.323,55.643],[28.002,55.775],[27.677,55.904],[27.344,56.025],[26.997,56.135],[26.64,56.235],[26.28,56.331],[25.912,56.418],[25.534,56.49],[25.158,56.565],[24.789,56.651],[24.429,56.747],[24.074,56.848],[23.719,56.95],[23.362,57.05],[23.005,57.15],[22.642,57.243],[22.269,57.322],[21.889,57.391],[21.507,57.457],[21.128,57.527],[20.75,57.6],[20.562,57.639]]}},{"type":"Feature","properties":{"seg":7,"kind":"warm","km":568},"geometry":{"type":"LineString","coordinates":[[20.25,34.925],[20.316,35.141],[20.385,35.356],[20.448,35.572],[20.497,35.79],[20.522,36.011],[20.512,36.232],[20.469,36.451],[20.405,36.667],[20.33,36.881],[20.255,37.094],[20.182,37.308],[20.112,37.523],[20.044,37.738],[19.973,37.953],[19.897,38.166],[19.814,38.378],[19.729,38.589],[19.647,38.801],[19.57,39.014],[19.496,39.228],[19.426,39.443],[19.361,39.658],[19.302,39.875]]}},{"type":"Feature","properties":{"seg":8,"kind":"warm","km":540},"geometry":{"type":"LineString","coordinates":[[21.344,46.07],[21.195,46.267],[21.035,46.46],[20.887,46.657],[20.767,46.863],[20.679,47.075],[20.618,47.292],[20.577,47.511],[20.549,47.731],[20.527,47.951],[20.506,48.171],[20.483,48.391],[20.467,48.611],[20.485,48.831],[20.54,49.049],[20.557,49.269],[20.515,49.487],[20.49,49.707],[20.494,49.928],[20.505,50.148],[20.513,50.369],[20.518,50.589],[20.52,50.81]]}},{"type":"Feature","properties":{"seg":9,"kind":"stat","km":425},"geometry":{"type":"LineString","coordinates":[[32.877,42.812],[32.736,42.627],[32.483,42.506],[32.254,42.362],[32.055,42.194],[31.873,42.015],[31.688,41.838],[31.489,41.671],[31.276,41.512],[31.055,41.36],[30.826,41.215],[30.594,41.073],[30.363,40.93],[30.134,40.784],[29.909,40.636],[29.687,40.485],[29.463,40.335],[29.237,40.188]]}},{"type":"Feature","properties":{"seg":10,"kind":"stat","km":420},"geometry":{"type":"LineString","coordinates":[[44.274,36.226],[44.077,36.073],[43.885,35.916],[43.686,35.764],[43.473,35.626],[43.249,35.5],[43.017,35.384],[42.778,35.279],[42.524,35.201],[42.254,35.177],[41.984,35.193],[41.769,35.066],[41.57,34.915],[41.33,34.814],[41.06,34.798],[40.79,34.824],[40.521,34.859],[40.25,34.878]]}},{"type":"Feature","properties":{"seg":11,"kind":"warm","km":404},"geometry":{"type":"LineString","coordinates":[[16.364,51.618],[16.011,51.666],[15.695,51.771],[15.461,51.938],[15.236,52.11],[15.0,52.277],[14.822,52.468],[14.696,52.675],[14.593,52.886],[14.513,53.1],[14.459,53.318],[14.428,53.537],[14.414,53.757],[14.411,53.978],[14.414,54.198],[14.418,54.418],[14.411,54.638],[14.369,54.744]]}},{"type":"Feature","properties":{"type":"L","hPa":1003.0},"geometry":{"type":"Point","coordinates":[7.812,51.625]}},{"type":"Feature","properties":{"type":"L","hPa":1003.0},"geometry":{"type":"Point","coordinates":[8.5,56.938]}},{"type":"Feature","properties":{"type":"L","hPa":1005.4},"geometry":{"type":"Point","coordinates":[45.25,61.5]}},{"type":"Feature","properties":{"type":"H","hPa":1029.8},"geometry":{"type":"Point","coordinates":[-11.5,47.062]}}]}