{"type":"FeatureCollection","properties":{"valid_time":"2026-10-05T00:00:00+00:00","run":"2026-10-04T18:00:00+00:00","lead_hours":6,"source":"ICON-EU theta_e850, Renard-Clarke (icon_front_very_far_snapshot.py)"},"features":[{"type":"Feature","properties":{"seg":0,"kind":"warm","km":909},"geometry":{"type":"LineString","coordinates":[[43.708,48.5],[43.558,48.701],[43.445,48.911],[43.373,49.127],[43.327,49.346],[43.298,49.566],[43.274,49.786],[43.24,50.005],[43.185,50.224],[43.109,50.439],[43.016,50.653],[42.912,50.864],[42.802,51.074],[42.69,51.284],[42.585,51.495],[42.501,51.71],[42.435,51.927],[42.373,52.144],[42.308,52.361],[42.24,52.578],[42.177,52.796],[42.12,53.013],[42.06,53.231],[41.992,53.448],[41.911,53.663],[41.818,53.876],[41.714,54.088],[41.608,54.299],[41.507,54.511],[41.421,54.725],[41.359,54.942],[41.32,55.162],[41.293,55.382],[41.267,55.602],[41.228,55.821],[41.172,56.039],[41.087,56.254],[40.938,56.453]]}},{"type":"Feature","properties":{"seg":1,"kind":"cold","km":830},"geometry":{"type":"LineString","coordinates":[[30.842,58.095],[30.506,57.985],[30.173,57.871],[29.838,57.761],[29.5,57.651],[29.17,57.536],[28.858,57.405],[28.557,57.266],[28.249,57.132],[27.931,57.006],[27.646,56.857],[27.469,56.663],[27.357,56.453],[27.254,56.242],[27.13,56.034],[26.971,55.833],[26.782,55.642],[26.573,55.457],[26.344,55.279],[26.091,55.113],[25.819,54.956],[25.534,54.807],[25.233,54.668],[24.905,54.551],[24.55,54.462],[24.179,54.396],[23.81,54.327],[23.459,54.232],[23.121,54.124],[22.784,54.015],[22.439,53.913],[22.084,53.823],[21.724,53.74],[21.366,53.655],[21.013,53.562]]}},{"type":"Feature","properties":{"seg":2,"kind":"warm","km":601},"geometry":{"type":"LineString","coordinates":[[13.692,38.125],[13.48,38.274],[13.262,38.418],[13.055,38.571],[12.868,38.739],[12.681,38.907],[12.475,39.061],[12.248,39.196],[12.009,39.319],[11.77,39.442],[11.539,39.573],[11.319,39.716],[11.116,39.872],[11.023,39.956]]}},{"type":"Feature","properties":{"seg":2,"kind":"stat","km":601},"geometry":{"type":"LineString","coordinates":[[11.023,39.956],[10.854,40.135],[10.704,40.323],[10.56,40.514],[10.414,40.704],[10.268,40.894],[10.132,41.089],[10.015,41.29],[9.911,41.495],[9.806,41.701],[9.697,41.905],[9.587,42.109],[9.477,42.312]]}},{"type":"Feature","properties":{"seg":3,"kind":"stat","km":578},"geometry":{"type":"LineString","coordinates":[[-7.004,38.192],[-7.181,38.05],[-7.38,37.903],[-7.473,37.696],[-7.542,37.482],[-7.612,37.267],[-7.683,37.054],[-7.774,36.845],[-7.907,36.652],[-8.07,36.474],[-8.248,36.306],[-8.447,36.154],[-8.67,36.025],[-8.904,35.91],[-9.128,35.783],[-9.327,35.632],[-9.506,35.464],[-9.676,35.29],[-9.842,35.114],[-10.003,34.935],[-10.154,34.75],[-10.29,34.558],[-10.41,34.359],[-10.514,34.155],[-10.562,34.051]]}},{"type":"Feature","properties":{"seg":4,"kind":"cold","km":510},"geometry":{"type":"LineString","coordinates":[[22.462,33.5],[22.518,33.719],[22.58,33.937],[22.636,34.155],[22.672,34.377],[22.68,34.6],[22.662,34.823],[22.619,35.044],[22.554,35.261],[22.469,35.474],[22.368,35.682],[22.255,35.886],[22.133,36.086],[22.003,36.283],[21.867,36.477],[21.724,36.669],[21.577,36.858],[21.421,37.042],[21.248,37.216],[21.056,37.376],[20.865,37.537],[20.78,37.625]]}},{"type":"Feature","properties":{"seg":5,"kind":"stat","km":441},"geometry":{"type":"LineString","coordinates":[[25.994,39.131],[25.777,38.983],[25.582,38.818],[25.409,38.638],[25.255,38.447],[25.115,38.249],[24.98,38.049],[24.844,37.85],[24.705,37.652],[24.564,37.455],[24.422,37.258],[24.279,37.062],[24.134,36.867],[23.988,36.671],[23.858,36.47],[23.777,36.253],[23.755,36.027],[23.76,35.801],[23.765,35.688]]}},{"type":"Feature","properties":{"seg":6,"kind":"warm","km":435},"geometry":{"type":"LineString","coordinates":[[4.898,59.852],[4.514,59.744],[4.097,59.668],[3.654,59.68],[3.213,59.715],[2.77,59.691],[2.325,59.677],[1.894,59.731],[1.476,59.809],[1.034,59.839],[0.628,59.923],[0.287,60.067],[-0.079,60.194],[-0.485,60.287],[-0.925,60.313],[-1.369,60.322],[-1.772,60.418],[-2.162,60.525],[-2.373,60.562]]}},{"type":"Feature","properties":{"seg":7,"kind":"cold","km":390},"geometry":{"type":"LineString","coordinates":[[28.133,52.29],[27.863,52.148],[27.524,52.083],[27.168,52.033],[26.825,51.956],[26.483,51.878],[26.128,51.824],[25.764,51.796],[25.399,51.779],[25.033,51.767],[24.668,51.747],[24.303,51.723],[23.94,51.693],[23.576,51.668],[23.21,51.676],[22.851,51.717],[22.5,51.781]]}},{"type":"Feature","properties":{"seg":8,"kind":"stat","km":351},"geometry":{"type":"LineString","coordinates":[[34.847,36.812],[34.899,36.591],[34.946,36.369],[35.002,36.148],[35.077,35.931],[35.166,35.718],[35.262,35.507],[35.352,35.294],[35.41,35.074],[35.412,34.849],[35.377,34.625],[35.338,34.402],[35.312,34.178],[35.313,33.953],[35.355,33.73]]}},{"type":"Feature","properties":{"seg":9,"kind":"stat","km":348},"geometry":{"type":"LineString","coordinates":[[19.749,36.008],[19.849,35.801],[19.938,35.59],[20.015,35.376],[20.074,35.158],[20.113,34.937],[20.139,34.715],[20.16,34.492],[20.17,34.269],[20.178,34.046],[20.204,33.824],[20.232,33.602],[20.238,33.379],[20.217,33.157],[20.168,32.938]]}},{"type":"Feature","properties":{"seg":10,"kind":"stat","km":345},"geometry":{"type":"LineString","coordinates":[[9.948,36.114],[9.973,36.343],[10.029,36.569],[10.103,36.791],[10.185,37.012],[10.271,37.232],[10.359,37.451],[10.446,37.67],[10.489,37.897],[10.442,38.123],[10.34,38.339],[10.242,38.555],[10.191,38.781],[10.253,39.002],[10.362,39.075]]}},{"type":"Feature","properties":{"seg":11,"kind":"warm","km":340},"geometry":{"type":"LineString","coordinates":[[30.875,56.534],[31.15,56.706],[31.411,56.884],[31.67,57.063],[31.919,57.246],[32.148,57.437],[32.353,57.635],[32.544,57.837],[32.732,58.04],[32.921,58.242],[33.105,58.446],[33.278,58.653],[33.435,58.863],[33.567,59.077],[33.616,59.188]]}},{"type":"Feature","properties":{"type":"L","hPa":1018.8},"geometry":{"type":"Point","coordinates":[3.0,37.5]}},{"type":"Feature","properties":{"type":"L","hPa":992.6},"geometry":{"type":"Point","coordinates":[-11.5,61.5]}},{"type":"Feature","properties":{"type":"H","hPa":1028.2},"geometry":{"type":"Point","coordinates":[41.625,44.188]}},{"type":"Feature","properties":{"type":"H","hPa":1028.2},"geometry":{"type":"Point","coordinates":[-11.5,48.25]}}]}