{"type":"FeatureCollection","properties":{"valid_time":"2026-10-07T18:00:00+00:00","run":"2026-10-07T12:00:00+00:00","lead_hours":6,"source":"ICON-EU theta_e850, Renard-Clarke (icon_front_very_far_snapshot.py)"},"features":[{"type":"Feature","properties":{"seg":0,"kind":"warm","km":1829},"geometry":{"type":"LineString","coordinates":[[13.675,57.987],[13.312,58.01],[12.95,58.031],[12.588,58.057],[12.227,58.084],[11.864,58.1],[11.5,58.099],[11.136,58.084],[10.774,58.063],[10.411,58.044],[10.048,58.029],[9.684,58.013],[9.322,57.993],[8.96,57.966],[8.6,57.934],[8.242,57.895],[7.892,57.834],[7.561,57.744],[7.255,57.626],[6.971,57.49],[6.696,57.347],[6.557,57.277]]}},{"type":"Feature","properties":{"seg":0,"kind":"cold","km":1829},"geometry":{"type":"LineString","coordinates":[[6.557,57.277],[6.262,57.149],[5.929,57.063],[5.571,57.024],[5.223,56.96],[4.892,56.87],[4.555,56.787],[4.233,56.688],[3.992,56.526],[3.819,56.335],[3.685,56.132],[3.574,55.925],[3.457,55.719],[3.28,55.53],[2.99,55.402],[2.667,55.303],[2.53,55.107],[2.476,54.891],[2.387,54.68],[2.242,54.481],[2.08,54.286],[1.93,54.088],[1.799,53.885],[1.683,53.679],[1.571,53.471],[1.45,53.266],[1.312,53.065],[1.158,52.867],[0.999,52.672],[0.841,52.475],[0.686,52.279],[0.524,52.083],[0.355,51.891],[0.188,51.697],[0.037,51.499],[-0.098,51.297],[-0.227,51.094],[-0.36,50.891],[-0.499,50.69],[-0.647,50.491],[-0.8,50.293],[-0.955,50.096],[-1.114,49.9],[-1.283,49.708],[-1.468,49.52],[-1.666,49.338],[-1.87,49.157],[-2.076,48.978],[-2.276,48.796],[-2.451,48.605],[-2.62,48.412],[-2.815,48.229],[-3.016,48.047],[-3.176,47.852],[-3.285,47.644],[-3.356,47.431]]}},{"type":"Feature","properties":{"seg":1,"kind":"warm","km":857},"geometry":{"type":"LineString","coordinates":[[20.125,34.891],[20.177,35.107],[20.22,35.324],[20.247,35.543],[20.25,35.763],[20.222,35.982],[20.165,36.197],[20.087,36.409],[19.999,36.618],[19.911,36.827],[19.829,37.037],[19.754,37.249],[19.684,37.462],[19.615,37.676],[19.543,37.888],[19.467,38.1],[19.389,38.312],[19.31,38.523],[19.232,38.734],[19.158,38.947],[19.09,39.16],[19.027,39.375],[18.967,39.59]]}},{"type":"Feature","properties":{"seg":1,"kind":"stat","km":857},"geometry":{"type":"LineString","coordinates":[[18.967,39.59],[18.907,39.805],[18.843,40.019],[18.774,40.232],[18.702,40.445],[18.631,40.658],[18.567,40.872],[18.515,41.088],[18.47,41.306],[18.419,41.522],[18.344,41.734],[18.233,41.936],[18.094,42.127],[17.942,42.312]]}},{"type":"Feature","properties":{"seg":2,"kind":"warm","km":671},"geometry":{"type":"LineString","coordinates":[[19.833,45.292],[19.653,45.48],[19.461,45.664],[19.307,45.861],[19.207,46.074],[19.142,46.293],[19.093,46.514],[19.049,46.736],[19.005,46.957],[18.958,47.178],[18.905,47.399],[18.843,47.619],[18.766,47.836],[18.672,48.05],[18.568,48.262],[18.472,48.476],[18.397,48.694],[18.345,48.915],[18.314,49.137],[18.307,49.36],[18.323,49.584],[18.354,49.806],[18.39,50.028],[18.424,50.25],[18.462,50.472],[18.52,50.692],[18.603,50.908],[18.685,51.125]]}},{"type":"Feature","properties":{"seg":3,"kind":"cold","km":591},"geometry":{"type":"LineString","coordinates":[[2.716,38.75],[2.637,38.549],[2.473,38.371],[2.304,38.196],[2.135,38.021],[1.962,37.849],[1.786,37.678],[1.609,37.508],[1.435,37.336],[1.266,37.161],[1.097,36.986],[0.92,36.816],[0.722,36.662],[0.5,36.529],[0.262,36.417],[0.014,36.319],[-0.243,36.237],[-0.507,36.173],[-0.775,36.116],[-1.038,36.049],[-1.293,35.964],[-1.541,35.866],[-1.786,35.763],[-2.031,35.66],[-2.279,35.562]]}},{"type":"Feature","properties":{"seg":4,"kind":"cold","km":450},"geometry":{"type":"LineString","coordinates":[[0.987,48.779],[0.825,48.591],[0.674,48.399],[0.533,48.203],[0.4,48.005],[0.272,47.805],[0.142,47.606],[0.003,47.409],[-0.146,47.216],[-0.297,47.024],[-0.444,46.83],[-0.581,46.633],[-0.706,46.433],[-0.813,46.227],[-0.904,46.018],[-0.988,45.807],[-1.078,45.598],[-1.19,45.394],[-1.344,45.203],[-1.44,45.116]]}},{"type":"Feature","properties":{"seg":5,"kind":"cold","km":438},"geometry":{"type":"LineString","coordinates":[[-6.25,44.922],[-6.554,44.87],[-6.853,44.803],[-7.148,44.73],[-7.444,44.659],[-7.743,44.593],[-8.035,44.513],[-8.308,44.404],[-8.555,44.266],[-8.772,44.104],[-8.96,43.925],[-9.125,43.734],[-9.282,43.539],[-9.452,43.351],[-9.677,43.196],[-9.942,43.076],[-10.199,42.949],[-10.443,42.808],[-10.562,42.736]]}},{"type":"Feature","properties":{"seg":6,"kind":"stat","km":329},"geometry":{"type":"LineString","coordinates":[[36.438,50.143],[36.08,50.124],[35.726,50.153],[35.401,50.248],[35.108,50.379],[34.827,50.52],[34.542,50.658],[34.245,50.785],[33.934,50.898],[33.613,50.999],[33.284,51.09],[32.951,51.175],[32.618,51.26],[32.294,51.357]]}},{"type":"Feature","properties":{"seg":7,"kind":"cold","km":450},"geometry":{"type":"LineString","coordinates":[[5.312,55.938],[5.354,55.61],[5.396,55.283],[5.437,54.956],[5.36,54.697],[5.133,54.521],[4.88,54.357],[4.642,54.185],[4.433,54.001],[4.224,53.816],[3.994,53.641],[3.733,53.482],[3.454,53.334],[3.211,53.166],[3.04,52.968],[2.896,52.763],[2.761,52.555],[2.699,52.451]]}},{"type":"Feature","properties":{"seg":8,"kind":"warm","km":312},"geometry":{"type":"LineString","coordinates":[[13.812,44.271],[13.507,44.263],[13.242,44.384],[13.033,44.552],[12.881,44.749],[12.67,44.91],[12.359,44.951],[12.045,44.981],[11.74,45.041],[11.438,45.112],[11.127,45.154],[10.814,45.191],[10.508,45.249],[10.353,45.275]]}},{"type":"Feature","properties":{"type":"L","hPa":1010.2},"geometry":{"type":"Point","coordinates":[4.375,42.5]}},{"type":"Feature","properties":{"type":"L","hPa":1005.0},"geometry":{"type":"Point","coordinates":[5.312,55.938]}},{"type":"Feature","properties":{"type":"H","hPa":1027.2},"geometry":{"type":"Point","coordinates":[-11.5,48.312]}}]}