{"type":"FeatureCollection","properties":{"valid_time":"2026-10-09T00:00:00+00:00","run":"2026-10-08T18:00:00+00:00","lead_hours":6,"source":"ICON-EU theta_e850, Renard-Clarke (icon_front_very_far_snapshot.py)"},"features":[{"type":"Feature","properties":{"seg":0,"kind":"warm","km":741},"geometry":{"type":"LineString","coordinates":[[24.5,39.66],[24.798,39.674],[25.039,39.796],[25.178,39.992],[25.285,40.2],[25.393,40.407],[25.519,40.608],[25.694,40.788],[25.921,40.932],[26.154,41.072],[26.376,41.221],[26.581,41.383],[26.757,41.562],[26.884,41.763],[26.957,41.978],[26.995,42.199],[27.023,42.42],[27.056,42.641],[27.087,42.862],[27.094,43.084],[27.062,43.304],[27.001,43.522],[26.934,43.738],[26.87,43.955],[26.819,44.174],[26.787,44.395],[26.775,44.617],[26.781,44.839],[26.789,45.061],[26.775,45.283],[26.764,45.5]]}},{"type":"Feature","properties":{"seg":1,"kind":"stat","km":804},"geometry":{"type":"LineString","coordinates":[[44.195,36.68],[43.928,36.631],[43.666,36.567],[43.406,36.499],[43.138,36.453],[42.865,36.438],[42.591,36.448],[42.318,36.46],[42.044,36.455],[41.77,36.439],[41.497,36.428],[41.223,36.433],[41.086,36.442]]}},{"type":"Feature","properties":{"seg":1,"kind":"warm","km":804},"geometry":{"type":"LineString","coordinates":[[41.086,36.442],[40.814,36.467],[40.542,36.49],[40.268,36.499],[39.994,36.494],[39.721,36.477],[39.449,36.45],[39.18,36.41],[38.915,36.353],[38.659,36.275],[38.408,36.187],[38.154,36.103],[37.891,36.044],[37.619,36.018],[37.345,36.011],[37.072,35.989],[36.812,35.921],[36.562,35.831],[36.112,35.749],[35.663,35.666],[35.438,35.625]]}},{"type":"Feature","properties":{"seg":2,"kind":"warm","km":662},"geometry":{"type":"LineString","coordinates":[[-3.519,35.293],[-3.75,35.405],[-3.974,35.526],[-4.216,35.622],[-4.479,35.657],[-4.738,35.606],[-4.99,35.53],[-5.251,35.479],[-5.517,35.452],[-5.783,35.422],[-6.041,35.362],[-6.29,35.28],[-6.533,35.186],[-6.772,35.087],[-7.007,34.98],[-7.238,34.868],[-7.469,34.756],[-7.702,34.646],[-7.932,34.533],[-8.155,34.411],[-8.368,34.277],[-8.563,34.126],[-8.724,33.949],[-8.845,33.753],[-8.941,33.547],[-9.032,33.34],[-9.138,33.138],[-9.251,32.938]]}},{"type":"Feature","properties":{"seg":3,"kind":"warm","km":554},"geometry":{"type":"LineString","coordinates":[[0.622,50.625],[0.859,50.798],[1.085,50.976],[1.291,51.162],[1.478,51.355],[1.638,51.556],[1.77,51.763],[1.879,51.975],[1.968,52.19],[2.037,52.407],[2.084,52.627],[2.105,52.847],[2.096,53.068],[2.058,53.288],[1.992,53.506],[1.907,53.721],[1.816,53.936],[1.729,54.151],[1.658,54.368],[1.602,54.587],[1.544,54.805],[1.469,55.022],[1.358,55.233],[1.279,55.334]]}},{"type":"Feature","properties":{"seg":4,"kind":"stat","km":663},"geometry":{"type":"LineString","coordinates":[[35.438,35.625],[35.414,35.938],[35.391,36.25],[35.368,36.562],[35.345,36.875],[35.322,37.188],[35.191,36.99],[35.094,36.779],[35.024,36.561],[34.977,36.339],[34.938,36.116],[34.896,35.893],[34.85,35.671],[34.806,35.449],[34.769,35.225],[34.735,35.002],[34.701,34.778],[34.661,34.555],[34.61,34.334],[34.546,34.115],[34.467,33.899],[34.377,33.686],[34.282,33.474],[34.189,33.262],[34.107,33.047],[34.075,32.938]]}},{"type":"Feature","properties":{"seg":5,"kind":"cold","km":373},"geometry":{"type":"LineString","coordinates":[[6.939,38.21],[6.747,38.046],[6.564,37.875],[6.372,37.711],[6.142,37.582],[5.871,37.519],[5.589,37.498],[5.307,37.475],[5.029,37.432],[4.752,37.383],[4.473,37.343],[4.19,37.327],[3.908,37.347],[3.641,37.419],[3.432,37.567],[3.188,37.673]]}},{"type":"Feature","properties":{"seg":6,"kind":"cold","km":372},"geometry":{"type":"LineString","coordinates":[[7.892,36.08],[8.173,36.13],[8.45,36.19],[8.721,36.268],[8.989,36.351],[9.266,36.412],[9.545,36.465],[9.818,36.538],[10.063,36.656],[10.247,36.832],[10.385,37.034],[10.522,37.236],[10.698,37.418],[10.946,37.528],[11.232,37.55],[11.375,37.56]]}},{"type":"Feature","properties":{"seg":7,"kind":"warm","km":365},"geometry":{"type":"LineString","coordinates":[[38.562,52.191],[38.401,52.396],[38.247,52.603],[38.093,52.81],[37.938,53.017],[37.77,53.22],[37.57,53.413],[37.386,53.611],[37.253,53.823],[37.163,54.043],[37.094,54.265],[37.031,54.489],[36.963,54.711],[36.873,54.931],[36.755,55.146],[36.688,55.252]]}},{"type":"Feature","properties":{"seg":8,"kind":"stat","km":355},"geometry":{"type":"LineString","coordinates":[[-6.682,40.057],[-6.974,40.016],[-7.262,39.97],[-7.479,39.816],[-7.683,39.651],[-7.96,39.575],[-8.253,39.588],[-8.534,39.663],[-8.826,39.699],[-9.122,39.683],[-9.411,39.632],[-9.696,39.568],[-9.987,39.523],[-10.281,39.544],[-10.562,39.52]]}},{"type":"Feature","properties":{"seg":9,"kind":"warm","km":342},"geometry":{"type":"LineString","coordinates":[[44.24,51.5],[43.991,51.66],[43.734,51.817],[43.44,51.946],[43.096,52.017],[42.735,52.051],[42.376,52.093],[42.022,52.148],[41.674,52.215],[41.346,52.31],[41.055,52.443],[40.807,52.604],[40.577,52.775],[40.331,52.937],[40.046,53.074]]}},{"type":"Feature","properties":{"seg":10,"kind":"cold","km":340},"geometry":{"type":"LineString","coordinates":[[21.259,55.489],[21.249,55.27],[21.229,55.052],[21.192,54.835],[21.141,54.619],[21.071,54.405],[20.981,54.193],[20.857,53.988],[20.703,53.79],[20.542,53.594],[20.399,53.393],[20.277,53.187],[20.163,52.98],[20.039,52.774],[19.896,52.574]]}},{"type":"Feature","properties":{"seg":11,"kind":"warm","km":337},"geometry":{"type":"LineString","coordinates":[[2.625,49.022],[2.735,49.234],[2.836,49.449],[2.931,49.665],[3.021,49.881],[3.105,50.099],[3.18,50.318],[3.247,50.538],[3.321,50.757],[3.433,50.969],[3.567,51.176],[3.685,51.387],[3.787,51.602],[3.888,51.816],[3.938,51.924]]}},{"type":"Feature","properties":{"type":"L","hPa":1016.6},"geometry":{"type":"Point","coordinates":[35.438,35.625]}},{"type":"Feature","properties":{"type":"L","hPa":1011.5},"geometry":{"type":"Point","coordinates":[7.125,43.25]}},{"type":"Feature","properties":{"type":"L","hPa":988.3},"geometry":{"type":"Point","coordinates":[17.875,59.312]}},{"type":"Feature","properties":{"type":"L","hPa":992.9},"geometry":{"type":"Point","coordinates":[-9.312,61.5]}},{"type":"Feature","properties":{"type":"H","hPa":1030.6},"geometry":{"type":"Point","coordinates":[-11.5,44.812]}}]}