{"type":"FeatureCollection","properties":{"valid_time":"2026-10-04T12:00:00+00:00","run":"2026-10-04T06:00:00+00:00","lead_hours":6,"source":"ICON-EU theta_e850, Renard-Clarke (icon_front_very_far_snapshot.py)"},"features":[{"type":"Feature","properties":{"seg":0,"kind":"cold","km":888},"geometry":{"type":"LineString","coordinates":[[24.677,60.562],[24.45,60.378],[24.22,60.195],[23.99,60.012],[23.762,59.828],[23.552,59.638],[23.367,59.44],[23.199,59.238],[23.033,59.036],[22.858,58.835],[22.667,58.64],[22.454,58.45],[22.22,58.269],[21.967,58.095],[21.696,57.929],[21.417,57.767],[21.14,57.603],[20.874,57.435],[20.615,57.264],[20.362,57.09],[20.112,56.914],[19.869,56.736],[19.632,56.555],[19.393,56.376],[19.14,56.201],[18.87,56.035],[18.59,55.873],[18.302,55.716],[18.005,55.564],[17.695,55.419],[17.375,55.281],[17.048,55.148],[16.719,55.016],[16.391,54.883],[16.057,54.755],[15.72,54.63],[15.388,54.5]]}},{"type":"Feature","properties":{"seg":1,"kind":"stat","km":831},"geometry":{"type":"LineString","coordinates":[[-2.013,47.75],[-2.3,47.659],[-2.596,47.583],[-2.897,47.516],[-3.198,47.45],[-3.492,47.369],[-3.773,47.27],[-4.043,47.156],[-4.309,47.038],[-4.578,46.923],[-4.855,46.817],[-5.14,46.722],[-5.431,46.637],[-5.725,46.557],[-6.019,46.477],[-6.311,46.394]]}},{"type":"Feature","properties":{"seg":1,"kind":"warm","km":831},"geometry":{"type":"LineString","coordinates":[[-6.311,46.394],[-6.601,46.307],[-6.888,46.215],[-7.17,46.116],[-7.443,46.005],[-7.698,45.877],[-7.933,45.73],[-8.15,45.571],[-8.355,45.404],[-8.551,45.232],[-8.737,45.054],[-8.912,44.872],[-9.075,44.683],[-9.227,44.491],[-9.375,44.297],[-9.532,44.107],[-9.714,43.928],[-9.952,43.786],[-10.252,43.72],[-10.562,43.681]]}},{"type":"Feature","properties":{"seg":2,"kind":"stat","km":761},"geometry":{"type":"LineString","coordinates":[[8.438,33.743],[8.493,33.96],[8.536,34.178],[8.585,34.395],[8.684,34.6],[8.807,34.798],[8.922,34.999],[9.031,35.202],[9.135,35.407],[9.239,35.611],[9.347,35.815],[9.463,36.015],[9.588,36.213],[9.71,36.411],[9.809,36.617],[9.863,36.833],[9.874,37.053],[9.852,37.273],[9.805,37.49],[9.729,37.703],[9.622,37.906],[9.483,38.097],[9.314,38.272],[9.123,38.433],[8.923,38.587],[8.729,38.745],[8.55,38.914],[8.39,39.094],[8.245,39.283],[8.101,39.471],[7.945,39.655],[7.785,39.835]]}},{"type":"Feature","properties":{"seg":3,"kind":"stat","km":698},"geometry":{"type":"LineString","coordinates":[[33.034,41.722],[32.77,41.634],[32.517,41.528],[32.275,41.409],[32.032,41.29],[31.779,41.185],[31.517,41.094],[31.257,41.0],[31.007,40.89],[30.767,40.768],[30.528,40.645],[30.283,40.53],[30.022,40.436],[29.75,40.364],[29.475,40.299],[29.197,40.24],[28.919,40.183],[28.651,40.103],[28.404,39.989],[28.177,39.854],[27.956,39.713],[27.726,39.58],[27.475,39.473],[27.208,39.389],[26.943,39.302],[26.692,39.195],[26.476,39.051],[26.321,38.866],[26.206,38.665],[26.152,38.562]]}},{"type":"Feature","properties":{"seg":4,"kind":"stat","km":544},"geometry":{"type":"LineString","coordinates":[[4.938,50.42],[4.708,50.256],[4.452,50.111],[4.188,49.972],[3.941,49.82],[3.703,49.662],[3.454,49.511],[3.184,49.377],[2.894,49.262],[2.593,49.16],[2.287,49.065],[1.981,48.971],[1.675,48.875],[1.37,48.778],[1.064,48.682],[0.755,48.592],[0.443,48.505],[0.129,48.421],[-0.184,48.336],[-0.496,48.249],[-0.806,48.16],[-1.112,48.064],[-1.413,47.962]]}},{"type":"Feature","properties":{"seg":5,"kind":"stat","km":767},"geometry":{"type":"LineString","coordinates":[[-2.877,60.562],[-3.267,60.456],[-3.664,60.356],[-4.06,60.256],[-4.451,60.151],[-4.834,60.039],[-5.218,59.926],[-5.613,59.825],[-6.017,59.734],[-6.419,59.639],[-6.807,59.531],[-7.191,59.419],[-7.59,59.323],[-8.005,59.245],[-8.417,59.162],[-8.835,59.087],[-9.26,59.025],[-9.686,58.964],[-10.121,58.921],[-10.562,58.904],[-10.667,59.192],[-10.771,59.481],[-10.875,59.769],[-10.979,60.058],[-11.083,60.346],[-11.188,60.635],[-11.292,60.923],[-11.396,61.212],[-11.5,61.5]]}},{"type":"Feature","properties":{"seg":6,"kind":"cold","km":460},"geometry":{"type":"LineString","coordinates":[[33.375,58.138],[33.203,57.936],[33.001,57.743],[32.777,57.557],[32.541,57.376],[32.301,57.197],[32.071,57.013],[31.875,56.819],[31.747,56.607],[31.65,56.391],[31.523,56.179],[31.349,55.978],[31.139,55.787],[30.862,55.626],[30.517,55.512],[30.148,55.422],[29.777,55.335],[29.404,55.25],[29.024,55.176],[28.831,55.143]]}},{"type":"Feature","properties":{"seg":7,"kind":"stat","km":424},"geometry":{"type":"LineString","coordinates":[[13.987,48.062],[13.771,48.232],[13.444,48.293],[13.106,48.328],[12.771,48.374],[12.438,48.426],[12.106,48.481],[11.82,48.597],[11.635,48.786],[11.422,48.961],[11.18,49.12],[10.952,49.287],[10.754,49.47],[10.501,49.619],[10.249,49.77],[9.992,49.918],[9.695,50.029],[9.375,50.107]]}},{"type":"Feature","properties":{"seg":8,"kind":"stat","km":702},"geometry":{"type":"LineString","coordinates":[[35.539,36.586],[35.527,36.359],[35.53,36.131],[35.544,35.904],[35.57,35.678],[35.601,35.452],[35.631,35.226],[35.643,34.999],[35.614,34.773],[35.532,34.556],[35.424,34.347],[35.317,34.137],[35.221,33.924],[35.14,33.706],[35.068,33.487],[34.999,33.266],[34.926,33.047],[35.065,32.912],[35.416,32.86],[35.767,32.809],[36.119,32.757],[36.47,32.706],[36.821,32.654],[37.172,32.603],[37.524,32.551],[37.875,32.5]]}},{"type":"Feature","properties":{"seg":9,"kind":"warm","km":385},"geometry":{"type":"LineString","coordinates":[[36.384,56.312],[36.276,56.528],[36.197,56.747],[36.109,56.966],[36.025,57.184],[35.967,57.406],[35.932,57.628],[35.906,57.851],[35.881,58.074],[35.852,58.297],[35.82,58.519],[35.786,58.742],[35.755,58.965],[35.726,59.187],[35.703,59.41],[35.686,59.634],[35.683,59.745]]}},{"type":"Feature","properties":{"seg":10,"kind":"warm","km":385},"geometry":{"type":"LineString","coordinates":[[3.047,57.25],[3.259,57.444],[3.447,57.644],[3.624,57.847],[3.791,58.053],[3.944,58.261],[4.082,58.472],[4.205,58.686],[4.314,58.901],[4.408,59.119],[4.481,59.339],[4.532,59.56],[4.562,59.782],[4.578,60.005],[4.584,60.228],[4.586,60.451],[4.587,60.562]]}},{"type":"Feature","properties":{"seg":11,"kind":"stat","km":369},"geometry":{"type":"LineString","coordinates":[[15.917,44.312],[15.973,44.1],[16.11,43.894],[16.239,43.685],[16.356,43.473],[16.452,43.255],[16.508,43.03],[16.545,42.803],[16.66,42.592],[16.844,42.407],[16.997,42.208],[17.056,41.984],[17.077,41.755],[17.113,41.528],[17.155,41.301],[17.176,41.188]]}},{"type":"Feature","properties":{"type":"L","hPa":1016.2},"geometry":{"type":"Point","coordinates":[-7.562,32.0]}},{"type":"Feature","properties":{"type":"L","hPa":1014.6},"geometry":{"type":"Point","coordinates":[37.875,32.5]}},{"type":"Feature","properties":{"type":"L","hPa":1018.6},"geometry":{"type":"Point","coordinates":[-0.188,35.812]}},{"type":"Feature","properties":{"type":"L","hPa":1002.4},"geometry":{"type":"Point","coordinates":[-11.5,61.5]}},{"type":"Feature","properties":{"type":"H","hPa":1028.6},"geometry":{"type":"Point","coordinates":[24.75,46.438]}},{"type":"Feature","properties":{"type":"H","hPa":1030.5},"geometry":{"type":"Point","coordinates":[-9.625,48.938]}}]}