{"type":"FeatureCollection","properties":{"valid_time":"2026-10-06T12:00:00+00:00","run":"2026-10-06T06:00:00+00:00","lead_hours":6,"source":"ICON-EU theta_e850, Renard-Clarke (icon_front_very_far_snapshot.py)"},"features":[{"type":"Feature","properties":{"seg":0,"kind":"stat","km":1191},"geometry":{"type":"LineString","coordinates":[[6.062,56.106],[5.688,56.133],[5.311,56.146],[4.934,56.143],[4.558,56.12],[4.188,56.076],[3.82,56.029],[3.449,55.989],[3.076,55.954],[2.702,55.926],[2.326,55.905],[1.95,55.885],[1.575,55.856],[1.204,55.818],[0.834,55.773],[0.468,55.721],[0.105,55.66],[-0.254,55.593],[-0.611,55.522],[-0.967,55.449],[-1.321,55.373],[-1.672,55.292],[-2.019,55.206],[-2.363,55.116],[-2.701,55.019],[-3.032,54.914]]}},{"type":"Feature","properties":{"seg":0,"kind":"cold","km":1191},"geometry":{"type":"LineString","coordinates":[[-3.032,54.914],[-3.359,54.804],[-3.685,54.694],[-4.02,54.594],[-4.367,54.508],[-4.718,54.427],[-5.06,54.335],[-5.388,54.226],[-5.704,54.107],[-6.013,53.982],[-6.323,53.857],[-6.64,53.738],[-6.966,53.628],[-7.297,53.523],[-7.626,53.416],[-7.947,53.301],[-8.263,53.181],[-8.568,53.053],[-8.858,52.913],[-9.138,52.766],[-9.419,52.62],[-9.707,52.479],[-10.0,52.341],[-10.288,52.2],[-10.563,52.05]]}},{"type":"Feature","properties":{"seg":1,"kind":"warm","km":1035},"geometry":{"type":"LineString","coordinates":[[19.515,35.981],[19.413,36.184],[19.305,36.386],[19.206,36.59],[19.118,36.798],[19.035,37.007],[18.951,37.215],[18.855,37.421],[18.735,37.618],[18.576,37.797],[18.379,37.952],[18.158,38.085],[17.924,38.203],[17.698,38.33],[17.491,38.477],[17.313,38.645],[17.213,38.848],[17.151,39.061],[17.081,39.273],[16.99,39.48],[16.881,39.681],[16.764,39.88],[16.649,40.079]]}},{"type":"Feature","properties":{"seg":1,"kind":"stat","km":1035},"geometry":{"type":"LineString","coordinates":[[16.649,40.079],[16.546,40.282],[16.452,40.488],[16.362,40.695],[16.279,40.904],[16.199,41.113],[16.106,41.32],[16.002,41.523],[15.897,41.725],[15.801,41.931],[15.727,42.142],[15.689,42.358],[15.678,42.577],[15.678,42.795],[15.674,43.014],[15.668,43.233],[15.663,43.451],[15.662,43.67],[15.643,43.888],[15.491,44.067],[15.293,44.221],[15.219,44.312]]}},{"type":"Feature","properties":{"seg":2,"kind":"cold","km":1159},"geometry":{"type":"LineString","coordinates":[[-6.453,40.0],[-6.549,39.793],[-6.665,39.592],[-6.802,39.4],[-6.951,39.214],[-7.097,39.026],[-7.231,38.833],[-7.354,38.635],[-7.47,38.434],[-7.586,38.233],[-7.704,38.033],[-7.823,37.834],[-7.937,37.632],[-8.036,37.426],[-8.118,37.214],[-8.181,36.999],[-8.233,36.781],[-8.276,36.563],[-8.314,36.343],[-8.352,36.124],[-8.393,35.905],[-8.441,35.687],[-8.497,35.47],[-8.563,35.255],[-8.637,35.042],[-8.714,34.83],[-8.796,34.618],[-8.886,34.409],[-8.986,34.203],[-9.102,34.002],[-9.233,33.807],[-9.381,33.62],[-9.542,33.441],[-9.714,33.268],[-9.895,33.101],[-10.08,32.938],[-9.752,32.833],[-9.423,32.729],[-9.095,32.625],[-8.767,32.521],[-8.438,32.417],[-8.11,32.312],[-7.782,32.208],[-7.453,32.104],[-7.125,32.0]]}},{"type":"Feature","properties":{"seg":3,"kind":"warm","km":409},"geometry":{"type":"LineString","coordinates":[[15.571,38.133],[15.421,38.324],[15.275,38.515],[15.119,38.702],[14.956,38.886],[14.786,39.066],[14.601,39.237],[14.396,39.393],[14.182,39.542],[13.986,39.705],[13.805,39.879],[13.641,40.062],[13.501,40.256],[13.385,40.46],[13.283,40.668],[13.186,40.877],[13.081,41.085],[13.025,41.188]]}},{"type":"Feature","properties":{"seg":4,"kind":"warm","km":389},"geometry":{"type":"LineString","coordinates":[[12.948,32.938],[12.985,33.161],[13.027,33.383],[13.077,33.605],[13.133,33.826],[13.191,34.046],[13.25,34.266],[13.314,34.485],[13.384,34.703],[13.466,34.918],[13.56,35.13],[13.661,35.339],[13.76,35.549],[13.845,35.763],[13.911,35.982],[13.967,36.202],[13.996,36.312]]}},{"type":"Feature","properties":{"seg":5,"kind":"warm","km":384},"geometry":{"type":"LineString","coordinates":[[37.844,53.344],[38.071,53.526],[38.26,53.721],[38.42,53.924],[38.561,54.131],[38.692,54.341],[38.82,54.552],[38.947,54.762],[39.068,54.974],[39.164,55.189],[39.225,55.409],[39.253,55.631],[39.262,55.854],[39.259,56.076],[39.248,56.298],[39.228,56.521],[39.212,56.631]]}},{"type":"Feature","properties":{"seg":6,"kind":"cold","km":384},"geometry":{"type":"LineString","coordinates":[[38.228,42.078],[37.943,42.15],[37.653,42.212],[37.357,42.255],[37.057,42.279],[36.756,42.296],[36.455,42.318],[36.156,42.345],[35.855,42.368],[35.554,42.38],[35.252,42.375],[34.952,42.352],[34.654,42.318],[34.359,42.269],[34.068,42.211],[33.779,42.148],[33.634,42.116]]}},{"type":"Feature","properties":{"seg":7,"kind":"cold","km":378},"geometry":{"type":"LineString","coordinates":[[36.452,57.735],[36.258,57.535],[36.049,57.34],[35.808,57.157],[35.481,57.021],[35.093,56.948],[34.759,56.822],[34.492,56.649],[34.206,56.487],[33.893,56.339],[33.561,56.206],[33.212,56.086],[32.849,55.979],[32.492,55.866],[32.155,55.737],[31.856,55.581]]}},{"type":"Feature","properties":{"seg":8,"kind":"warm","km":362},"geometry":{"type":"LineString","coordinates":[[19.561,52.625],[19.927,52.658],[20.293,52.695],[20.657,52.735],[21.021,52.777],[21.386,52.817],[21.752,52.851],[22.12,52.878],[22.49,52.896],[22.86,52.904],[23.231,52.902],[23.601,52.895],[23.971,52.883],[24.34,52.864],[24.709,52.841],[24.893,52.831]]}},{"type":"Feature","properties":{"seg":9,"kind":"warm","km":353},"geometry":{"type":"LineString","coordinates":[[15.25,45.188],[14.999,45.325],[14.683,45.353],[14.366,45.324],[14.052,45.278],[13.736,45.239],[13.421,45.2],[13.143,45.089],[12.878,44.961],[12.573,44.897],[12.256,44.865],[11.961,44.777],[11.671,44.682],[11.355,44.67],[11.062,44.759]]}},{"type":"Feature","properties":{"seg":10,"kind":"warm","km":676},"geometry":{"type":"LineString","coordinates":[[38.625,35.812],[38.493,35.438],[38.361,35.062],[38.534,35.238],[38.713,35.409],[38.902,35.573],[39.095,35.734],[39.291,35.893],[39.503,36.036],[39.744,36.147],[39.939,36.301],[40.041,36.51],[40.142,36.718],[40.29,36.907],[40.496,37.056],[40.743,37.156],[40.725,37.099],[40.425,36.915],[40.125,36.731],[39.825,36.547],[39.525,36.364],[39.225,36.18],[38.925,35.996],[38.625,35.812]]}},{"type":"Feature","properties":{"seg":11,"kind":"warm","km":336},"geometry":{"type":"LineString","coordinates":[[10.312,43.537],[10.034,43.45],[9.735,43.413],[9.437,43.374],[9.177,43.261],[8.956,43.108],[8.749,42.944],[8.553,42.773],[8.369,42.595],[8.188,42.415],[7.98,42.253],[7.714,42.149],[7.417,42.107],[7.116,42.134],[6.967,42.154]]}},{"type":"Feature","properties":{"type":"L","hPa":1015.6},"geometry":{"type":"Point","coordinates":[-7.125,32.0]}},{"type":"Feature","properties":{"type":"L","hPa":1015.6},"geometry":{"type":"Point","coordinates":[-6.188,34.75]}},{"type":"Feature","properties":{"type":"L","hPa":1011.8},"geometry":{"type":"Point","coordinates":[38.625,35.812]}},{"type":"Feature","properties":{"type":"L","hPa":988.5},"geometry":{"type":"Point","coordinates":[37.438,61.5]}},{"type":"Feature","properties":{"type":"H","hPa":1022.3},"geometry":{"type":"Point","coordinates":[17.438,32.125]}},{"type":"Feature","properties":{"type":"H","hPa":1022.0},"geometry":{"type":"Point","coordinates":[14.438,45.938]}},{"type":"Feature","properties":{"type":"H","hPa":1022.1},"geometry":{"type":"Point","coordinates":[24.812,46.938]}},{"type":"Feature","properties":{"type":"H","hPa":1021.6},"geometry":{"type":"Point","coordinates":[-11.5,53.5]}}]}