{"type":"FeatureCollection","properties":{"valid_time":"2026-10-09T06:00:00+00:00","run":"2026-10-09T00:00:00+00:00","lead_hours":6,"source":"ICON-EU theta_e850, Renard-Clarke (icon_front_very_far_snapshot.py)"},"features":[{"type":"Feature","properties":{"seg":0,"kind":"cold","km":1280},"geometry":{"type":"LineString","coordinates":[[20.562,60.312],[20.956,60.071],[21.35,59.829],[21.744,59.588],[22.138,59.346],[22.532,59.105],[22.926,58.863],[23.294,58.836],[23.636,58.75],[23.958,58.64],[24.267,58.518],[24.544,58.372],[24.77,58.199],[24.959,58.01],[25.137,57.818],[25.329,57.631],[25.549,57.454],[25.773,57.28],[25.946,57.086],[26.052,56.877],[26.109,56.661],[26.137,56.443],[26.15,56.224],[26.159,56.005],[26.168,55.787],[26.173,55.568],[26.167,55.349],[26.145,55.131],[26.105,54.913],[26.051,54.697],[25.985,54.482],[25.917,54.267],[25.853,54.051],[25.798,53.835],[25.745,53.618],[25.687,53.402],[25.61,53.188],[25.511,52.977],[25.393,52.77],[25.277,52.562],[25.161,52.354],[25.012,52.154],[24.753,52.0],[24.428,51.895],[24.243,51.708],[24.15,51.497],[24.052,51.286],[23.933,51.078],[23.811,50.872],[23.718,50.66],[23.662,50.444]]}},{"type":"Feature","properties":{"seg":1,"kind":"warm","km":1218},"geometry":{"type":"LineString","coordinates":[[4.438,52.497],[4.319,52.707],[4.27,52.924],[4.285,53.143],[4.333,53.361],[4.378,53.579],[4.385,53.798],[4.339,54.016],[4.25,54.23],[4.13,54.44],[3.981,54.643],[3.812,54.842],[3.636,55.039],[3.466,55.238],[3.307,55.44],[3.155,55.643],[3.003,55.846],[2.842,56.047],[2.665,56.244],[2.472,56.436],[2.278,56.628],[2.094,56.823],[1.915,57.019],[1.732,57.215],[1.541,57.408],[1.344,57.599],[1.146,57.79],[0.951,57.981],[0.753,58.173],[0.55,58.362],[0.34,58.549],[0.125,58.734],[-0.099,58.916],[-0.324,59.097],[-0.555,59.277],[-0.78,59.458],[-0.976,59.65],[-1.14,59.85],[-1.278,60.056],[-1.405,60.264],[-1.555,60.468],[-1.925,60.629],[-2.466,60.763],[-3.006,60.897],[-3.546,61.031],[-4.087,61.165],[-4.627,61.299],[-5.167,61.433],[-5.438,61.5]]}},{"type":"Feature","properties":{"seg":2,"kind":"stat","km":834},"geometry":{"type":"LineString","coordinates":[[43.937,36.75],[43.69,36.657],[43.426,36.598],[43.159,36.548],[42.885,36.556],[42.616,36.597],[42.346,36.64],[42.075,36.673],[41.803,36.7],[41.531,36.73],[41.259,36.762],[40.987,36.792],[40.714,36.815],[40.442,36.841],[40.171,36.88]]}},{"type":"Feature","properties":{"seg":2,"kind":"warm","km":834},"geometry":{"type":"LineString","coordinates":[[40.171,36.88],[39.904,36.928],[39.675,36.832],[39.485,36.673],[39.237,36.581],[39.003,36.468],[38.807,36.314],[38.616,36.155],[38.418,36.003],[38.195,35.876],[37.932,35.814],[37.66,35.785],[37.299,35.703],[36.938,35.621],[36.577,35.538],[36.216,35.456],[35.854,35.374],[35.493,35.291],[35.312,35.25]]}},{"type":"Feature","properties":{"seg":3,"kind":"cold","km":613},"geometry":{"type":"LineString","coordinates":[[9.22,39.905],[8.995,39.775],[8.831,39.597],[8.693,39.405],[8.546,39.218],[8.375,39.043],[8.178,38.887],[7.959,38.75],[7.726,38.627],[7.487,38.512],[7.246,38.399],[6.998,38.296],[6.735,38.222],[6.461,38.172],[6.197,38.101],[5.953,37.992],[5.714,37.878],[5.473,37.764],[5.235,37.648],[4.999,37.529],[4.758,37.416],[4.507,37.318],[4.247,37.236],[3.982,37.165],[3.712,37.105],[3.437,37.06]]}},{"type":"Feature","properties":{"seg":4,"kind":"warm","km":598},"geometry":{"type":"LineString","coordinates":[[28.327,47.036],[28.364,47.253],[28.394,47.472],[28.424,47.69],[28.471,47.907],[28.56,48.118],[28.71,48.312],[28.884,48.498],[29.026,48.695],[29.125,48.904],[29.183,49.119],[29.21,49.338],[29.214,49.557],[29.207,49.776],[29.204,49.996],[29.217,50.215],[29.253,50.432],[29.307,50.649],[29.367,50.864],[29.421,51.081],[29.46,51.298],[29.483,51.517],[29.488,51.736],[29.472,51.955],[29.424,52.172],[29.382,52.278]]}},{"type":"Feature","properties":{"seg":5,"kind":"cold","km":524},"geometry":{"type":"LineString","coordinates":[[-5.75,55.604],[-6.004,55.438],[-6.231,55.259],[-6.439,55.072],[-6.62,54.875],[-6.782,54.673],[-6.944,54.47],[-7.122,54.272],[-7.313,54.079],[-7.504,53.885],[-7.698,53.693],[-7.911,53.508],[-8.155,53.337],[-8.441,53.19],[-8.757,53.067],[-9.059,52.933],[-9.317,52.769],[-9.551,52.593],[-9.783,52.416],[-10.028,52.245],[-10.289,52.083],[-10.562,51.928]]}},{"type":"Feature","properties":{"seg":6,"kind":"stat","km":1048},"geometry":{"type":"LineString","coordinates":[[7.125,42.812],[6.862,43.035],[6.599,43.257],[6.337,43.479],[6.074,43.701],[5.811,43.924],[5.548,44.146],[5.285,44.368],[5.023,44.59],[4.76,44.813],[4.648,44.607],[4.544,44.398],[4.458,44.186],[4.411,43.967],[4.424,43.746],[4.493,43.53],[4.578,43.317],[4.662,43.104],[4.748,42.891],[4.835,42.679],[4.935,42.47],[5.051,42.265],[5.182,42.065],[5.326,41.87],[5.479,41.679],[5.638,41.491],[5.734,41.286],[5.66,41.072],[5.636,40.853],[5.802,40.677],[5.967,40.944],[6.133,41.211],[6.298,41.478],[6.463,41.745],[6.629,42.012],[6.794,42.279],[6.96,42.546],[7.125,42.812]]}},{"type":"Feature","properties":{"seg":7,"kind":"warm","km":441},"geometry":{"type":"LineString","coordinates":[[24.888,38.638],[25.173,38.69],[25.404,38.83],[25.584,39.01],[25.736,39.204],[25.878,39.403],[26.013,39.605],[26.142,39.809],[26.262,40.016],[26.365,40.228],[26.445,40.446],[26.51,40.667],[26.609,40.88],[26.824,41.032],[27.071,41.156],[27.305,41.296],[27.538,41.436],[27.767,41.579],[27.875,41.657]]}},{"type":"Feature","properties":{"seg":8,"kind":"warm","km":393},"geometry":{"type":"LineString","coordinates":[[43.03,57.25],[42.854,57.459],[42.672,57.667],[42.499,57.876],[42.345,58.09],[42.208,58.306],[42.083,58.525],[41.964,58.744],[41.849,58.964],[41.733,59.184],[41.61,59.403],[41.475,59.62],[41.328,59.835],[41.166,60.047],[40.983,60.254],[40.791,60.459],[40.697,60.562]]}},{"type":"Feature","properties":{"seg":9,"kind":"cold","km":473},"geometry":{"type":"LineString","coordinates":[[-5.438,61.5],[-5.218,61.188],[-4.998,60.875],[-4.778,60.562],[-4.579,60.363],[-4.434,60.151],[-4.325,59.934],[-4.24,59.714],[-4.173,59.492],[-4.126,59.269],[-4.092,59.045],[-4.071,58.821],[-4.072,58.597],[-4.114,58.373],[-4.188,58.152],[-4.27,57.932],[-4.342,57.71],[-4.389,57.487],[-4.4,57.375]]}},{"type":"Feature","properties":{"seg":10,"kind":"warm","km":345},"geometry":{"type":"LineString","coordinates":[[7.688,54.965],[7.473,55.162],[7.218,55.342],[6.924,55.504],[6.612,55.654],[6.32,55.816],[6.039,55.984],[5.758,56.153],[5.483,56.324],[5.22,56.502],[4.963,56.681],[4.699,56.858],[4.411,57.023],[4.064,57.144],[3.863,57.137]]}},{"type":"Feature","properties":{"seg":11,"kind":"stat","km":322},"geometry":{"type":"LineString","coordinates":[[19.884,32.938],[19.977,33.144],[20.149,33.314],[20.357,33.456],[20.576,33.587],[20.796,33.715],[21.013,33.847],[21.224,33.987],[21.423,34.136],[21.607,34.299],[21.768,34.477],[21.904,34.669],[22.023,34.869],[22.135,35.071]]}},{"type":"Feature","properties":{"type":"L","hPa":1017.2},"geometry":{"type":"Point","coordinates":[35.312,35.25]}},{"type":"Feature","properties":{"type":"L","hPa":1014.0},"geometry":{"type":"Point","coordinates":[14.625,42.75]}},{"type":"Feature","properties":{"type":"L","hPa":1012.4},"geometry":{"type":"Point","coordinates":[7.125,42.812]}},{"type":"Feature","properties":{"type":"L","hPa":984.8},"geometry":{"type":"Point","coordinates":[20.562,60.312]}},{"type":"Feature","properties":{"type":"L","hPa":990.8},"geometry":{"type":"Point","coordinates":[-5.438,61.5]}}]}