{"type":"FeatureCollection","properties":{"valid_time":"2026-10-08T06:00:00+00:00","run":"2026-10-08T00:00:00+00:00","lead_hours":6,"source":"ICON-EU theta_e850, Renard-Clarke (icon_front_very_far_snapshot.py)"},"features":[{"type":"Feature","properties":{"seg":0,"kind":"warm","km":1699},"geometry":{"type":"LineString","coordinates":[[25.375,57.724],[25.028,57.838],[24.684,57.954],[24.341,58.072],[23.99,58.182],[23.62,58.273],[23.233,58.34],[22.835,58.385],[22.429,58.399],[22.026,58.417],[21.658,58.509],[21.302,58.615],[20.942,58.717],[20.581,58.817],[20.202,58.896],[19.805,58.944],[19.405,58.983],[19.022,59.057],[18.665,59.16],[18.391,59.32],[18.136,59.49],[17.846,59.643],[17.52,59.773],[17.157,59.871],[16.769,59.937],[16.369,59.976],[15.964,59.998],[15.558,60.015],[15.153,60.033],[14.747,60.051],[14.34,60.052],[13.937,60.024],[13.538,59.98],[13.142,59.93],[12.751,59.87],[12.372,59.79],[12.014,59.687],[11.686,59.558],[11.397,59.405],[11.142,59.235],[10.906,59.057],[10.684,58.874],[10.479,58.686],[10.387,58.589]]}},{"type":"Feature","properties":{"seg":0,"kind":"cold","km":1699},"geometry":{"type":"LineString","coordinates":[[10.387,58.589],[10.222,58.39],[10.08,58.185],[9.948,57.979],[9.814,57.773],[9.672,57.569],[9.524,57.366],[9.38,57.162],[9.246,56.956],[9.124,56.748],[9.017,56.538],[8.927,56.325],[8.843,56.112],[8.744,55.901],[8.609,55.695],[8.427,55.5],[8.22,55.312],[8.034,55.119],[7.871,54.919],[7.718,54.717],[7.574,54.513],[7.448,54.306],[7.345,54.095],[7.268,53.881],[7.216,53.665],[7.177,53.448],[7.14,53.23],[7.097,53.014],[7.073,52.905]]}},{"type":"Feature","properties":{"seg":1,"kind":"cold","km":1154},"geometry":{"type":"LineString","coordinates":[[10.754,54.809],[10.668,54.597],[10.57,54.388],[10.462,54.181],[10.348,53.976],[10.229,53.771],[10.109,53.567],[9.99,53.362],[9.873,53.157],[9.757,52.952],[9.645,52.746],[9.536,52.539],[9.427,52.333],[9.311,52.127],[9.19,51.923],[9.064,51.721],[8.935,51.519],[8.799,51.318],[8.658,51.12],[8.512,50.922],[8.368,50.725],[8.228,50.526],[8.089,50.327],[7.937,50.131],[7.748,49.95],[7.509,49.794],[7.243,49.658],[6.971,49.526],[6.728,49.373],[6.532,49.195],[6.367,49.004],[6.215,48.809],[6.064,48.613],[5.889,48.426],[5.673,48.258],[5.488,48.075],[5.38,47.868],[5.317,47.654],[5.275,47.437],[5.248,47.22],[5.23,47.002],[5.213,46.784],[5.185,46.567],[5.145,46.35],[5.1,46.134],[5.053,45.917],[4.998,45.702],[4.923,45.489],[4.875,45.385]]}},{"type":"Feature","properties":{"seg":2,"kind":"cold","km":649},"geometry":{"type":"LineString","coordinates":[[24.688,54.511],[24.881,54.33],[24.969,54.118],[25.027,53.901],[25.105,53.687],[25.216,53.478],[25.369,53.281],[25.59,53.112],[25.86,52.973],[26.085,52.807],[26.212,52.603],[26.289,52.388],[26.35,52.172],[26.424,51.957],[26.532,51.748],[26.669,51.546],[26.808,51.344],[26.939,51.14],[27.052,50.932],[27.141,50.72],[27.207,50.504],[27.253,50.286],[27.281,50.067],[27.294,49.847],[27.295,49.627],[27.292,49.407],[27.297,49.187],[27.307,49.077]]}},{"type":"Feature","properties":{"seg":3,"kind":"warm","km":575},"geometry":{"type":"LineString","coordinates":[[20.166,51.75],[20.121,51.528],[20.04,51.31],[19.935,51.096],[19.794,50.891],[19.588,50.712],[19.34,50.555],[19.088,50.402],[18.848,50.241],[18.624,50.07],[18.419,49.889],[18.236,49.699],[18.073,49.501],[17.927,49.298],[17.796,49.09],[17.673,48.88],[17.553,48.67],[17.426,48.461],[17.282,48.257],[17.107,48.064],[16.894,47.888],[16.637,47.738],[16.335,47.63],[16.0,47.578]]}},{"type":"Feature","properties":{"seg":4,"kind":"stat","km":508},"geometry":{"type":"LineString","coordinates":[[35.676,37.239],[35.58,37.03],[35.496,36.819],[35.426,36.603],[35.376,36.385],[35.343,36.164],[35.316,35.942],[35.296,35.72],[35.291,35.497],[35.288,35.274],[35.263,35.053],[35.2,34.836],[35.103,34.628],[34.98,34.43],[34.842,34.238],[34.699,34.049],[34.56,33.857],[34.434,33.66],[34.322,33.457],[34.22,33.25],[34.123,33.042],[34.077,32.938]]}},{"type":"Feature","properties":{"seg":5,"kind":"stat","km":503},"geometry":{"type":"LineString","coordinates":[[40.843,50.357],[40.509,50.303],[40.171,50.258],[39.832,50.216],[39.494,50.174],[39.155,50.133],[38.815,50.096],[38.473,50.07],[38.128,50.068],[37.789,50.105],[37.461,50.174],[37.139,50.253],[36.817,50.331],[36.497,50.413],[36.181,50.501],[35.866,50.591],[35.553,50.683],[35.244,50.781],[34.945,50.891],[34.658,51.013],[34.36,51.124],[34.219,51.188]]}},{"type":"Feature","properties":{"seg":6,"kind":"cold","km":484},"geometry":{"type":"LineString","coordinates":[[8.438,42.214],[8.362,41.998],[8.295,41.781],[8.225,41.565],[8.144,41.351],[8.045,41.141],[7.918,40.94],[7.759,40.753],[7.576,40.58],[7.387,40.41],[7.209,40.233],[7.046,40.048],[6.899,39.855],[6.779,39.652],[6.687,39.44],[6.603,39.227],[6.486,39.023],[6.313,38.843],[6.1,38.692],[5.864,38.56],[5.741,38.5]]}},{"type":"Feature","properties":{"seg":7,"kind":"stat","km":455},"geometry":{"type":"LineString","coordinates":[[42.25,51.787],[41.892,51.838],[41.528,51.809],[41.192,51.716],[40.838,51.665],[40.478,51.714],[40.119,51.768],[39.759,51.817],[39.398,51.863],[39.04,51.918],[38.688,51.987],[38.341,52.064],[37.996,52.143],[37.65,52.223],[37.304,52.302],[36.963,52.388],[36.637,52.495],[36.338,52.627],[36.062,52.778]]}},{"type":"Feature","properties":{"seg":8,"kind":"warm","km":443},"geometry":{"type":"LineString","coordinates":[[19.87,44.937],[19.697,45.123],[19.551,45.319],[19.427,45.523],[19.313,45.73],[19.196,45.936],[19.083,46.142],[18.992,46.354],[18.938,46.572],[18.914,46.793],[18.915,47.014],[18.94,47.235],[18.992,47.453],[19.068,47.668],[19.157,47.88],[19.241,48.094],[19.305,48.311],[19.348,48.53],[19.38,48.75]]}},{"type":"Feature","properties":{"seg":9,"kind":"cold","km":414},"geometry":{"type":"LineString","coordinates":[[2.476,48.268],[2.3,48.084],[2.118,47.904],[1.932,47.725],[1.751,47.543],[1.575,47.36],[1.396,47.178],[1.201,47.003],[0.999,46.832],[0.816,46.652],[0.677,46.455],[0.595,46.244],[0.563,46.026],[0.559,45.807],[0.563,45.588],[0.565,45.369],[0.57,45.151],[0.605,44.933]]}},{"type":"Feature","properties":{"seg":10,"kind":"warm","km":406},"geometry":{"type":"LineString","coordinates":[[-8.125,41.858],[-8.388,41.749],[-8.623,41.608],[-8.841,41.451],[-9.048,41.287],[-9.25,41.118],[-9.444,40.945],[-9.627,40.764],[-9.797,40.577],[-9.954,40.382],[-10.09,40.18],[-10.2,39.968],[-10.284,39.749],[-10.353,39.527],[-10.416,39.305],[-10.484,39.083],[-10.562,38.863]]}},{"type":"Feature","properties":{"seg":11,"kind":"warm","km":367},"geometry":{"type":"LineString","coordinates":[[17.94,52.7],[17.573,52.713],[17.239,52.803],[16.971,52.953],[16.698,53.101],[16.382,53.214],[16.06,53.321],[15.763,53.451],[15.51,53.61],[15.303,53.792],[15.138,53.989],[15.011,54.195],[14.923,54.408],[14.868,54.625],[14.835,54.844],[14.812,55.063]]}},{"type":"Feature","properties":{"type":"L","hPa":1000.8},"geometry":{"type":"Point","coordinates":[11.375,57.812]}},{"type":"Feature","properties":{"type":"L","hPa":1009.5},"geometry":{"type":"Point","coordinates":[45.25,61.5]}},{"type":"Feature","properties":{"type":"H","hPa":1030.5},"geometry":{"type":"Point","coordinates":[-11.5,46.188]}}]}