{"type":"FeatureCollection","properties":{"valid_time":"2026-10-10T00:00:00+00:00","run":"2026-10-09T18:00:00+00:00","lead_hours":6,"source":"ICON-EU theta_e850, Renard-Clarke (icon_front_very_far_snapshot.py)"},"features":[{"type":"Feature","properties":{"seg":0,"kind":"cold","km":2150},"geometry":{"type":"LineString","coordinates":[[8.938,57.875],[9.26,57.625],[9.582,57.375],[9.905,57.125],[10.227,56.875],[10.55,56.625],[10.872,56.375],[11.078,56.145],[11.122,55.929],[11.116,55.711],[11.076,55.495],[11.013,55.281],[10.933,55.069],[10.843,54.858],[10.749,54.649],[10.648,54.441],[10.534,54.236],[10.399,54.036],[10.238,53.844],[10.047,53.664],[9.825,53.499],[9.583,53.347],[9.338,53.196],[9.101,53.04],[8.869,52.881],[8.628,52.727],[8.377,52.581],[8.132,52.43],[7.905,52.268],[7.684,52.103],[7.456,51.941],[7.218,51.786],[6.974,51.635],[6.732,51.482],[6.504,51.321],[6.289,51.152],[6.09,50.976],[5.905,50.793],[5.717,50.611],[5.507,50.44],[5.262,50.29],[4.989,50.16],[4.706,50.04],[4.426,49.918],[4.143,49.797],[3.854,49.684],[3.558,49.577],[3.26,49.473],[2.961,49.37],[2.662,49.266],[2.363,49.164],[2.061,49.065],[1.75,48.978],[1.427,48.912],[1.093,48.873],[0.756,48.852],[0.422,48.813],[0.102,48.743],[-0.202,48.645],[-0.495,48.535],[-0.78,48.417],[-1.045,48.282],[-1.304,48.141],[-1.583,48.017],[-1.886,47.921],[-2.206,47.847],[-2.53,47.784],[-2.855,47.721],[-3.178,47.654],[-3.498,47.582],[-3.815,47.505],[-4.13,47.423],[-4.443,47.339],[-4.754,47.253],[-5.065,47.166],[-5.379,47.084],[-5.701,47.015],[-6.027,46.955],[-6.348,46.883],[-6.656,46.793],[-6.958,46.693],[-7.261,46.595],[-7.568,46.503],[-7.88,46.418],[-8.197,46.339],[-8.514,46.262],[-8.833,46.188]]}},{"type":"Feature","properties":{"seg":1,"kind":"warm","km":996},"geometry":{"type":"LineString","coordinates":[[32.236,41.952],[32.39,42.141],[32.463,42.353],[32.476,42.571],[32.469,42.789],[32.472,43.008],[32.497,43.225],[32.539,43.442],[32.592,43.657],[32.652,43.871],[32.714,44.085],[32.774,44.299],[32.83,44.514],[32.885,44.729],[32.941,44.944],[33.004,45.158],[33.073,45.371],[33.153,45.582],[33.247,45.791],[33.354,45.996],[33.477,46.197],[33.614,46.394],[33.762,46.587],[33.916,46.777],[34.075,46.967],[34.236,47.154],[34.405,47.339],[34.587,47.518],[34.783,47.689],[34.984,47.858],[35.178,48.03],[35.362,48.208],[35.538,48.39],[35.713,48.572],[35.892,48.752],[36.079,48.928],[36.278,49.098],[36.491,49.259],[36.717,49.412],[36.949,49.561],[37.182,49.709],[37.438,49.836]]}},{"type":"Feature","properties":{"seg":2,"kind":"stat","km":823},"geometry":{"type":"LineString","coordinates":[[25.62,35.307],[25.599,35.527],[25.589,35.748],[25.595,35.969],[25.614,36.189],[25.642,36.409],[25.676,36.628],[25.718,36.846],[25.773,37.063],[25.845,37.276],[25.935,37.486],[26.039,37.691],[26.152,37.894],[26.268,38.095],[26.384,38.297],[26.5,38.498],[26.616,38.7],[26.736,38.9],[26.863,39.097],[26.993,39.294],[27.118,39.492],[27.231,39.695],[27.333,39.9],[27.437,40.106],[27.567,40.302],[27.739,40.477],[27.934,40.638],[28.143,40.787],[28.359,40.931],[28.58,41.07],[28.807,41.202],[29.046,41.321],[29.295,41.427],[29.553,41.518],[29.688,41.554]]}},{"type":"Feature","properties":{"seg":3,"kind":"cold","km":536},"geometry":{"type":"LineString","coordinates":[[41.934,57.295],[41.785,57.094],[41.618,56.898],[41.427,56.71],[41.206,56.532],[40.976,56.36],[40.759,56.181],[40.552,55.998],[40.355,55.812],[40.176,55.619],[40.028,55.418],[39.908,55.211],[39.805,55.0],[39.698,54.791],[39.563,54.587],[39.383,54.395],[39.152,54.222],[38.899,54.06],[38.656,53.893],[38.419,53.723],[38.17,53.559],[37.905,53.404],[37.623,53.258]]}},{"type":"Feature","properties":{"seg":4,"kind":"warm","km":517},"geometry":{"type":"LineString","coordinates":[[37.794,49.0],[37.984,49.186],[38.201,49.36],[38.416,49.534],[38.625,49.712],[38.835,49.889],[39.048,50.065],[39.26,50.241],[39.464,50.421],[39.654,50.607],[39.822,50.801],[39.963,51.003],[40.06,51.216],[40.105,51.435],[40.138,51.655],[40.211,51.871],[40.337,52.077],[40.503,52.272],[40.684,52.462],[40.871,52.649],[41.076,52.828],[41.307,52.995]]}},{"type":"Feature","properties":{"seg":5,"kind":"stat","km":762},"geometry":{"type":"LineString","coordinates":[[15.125,43.25],[15.125,42.952],[15.125,42.654],[15.125,42.356],[15.125,42.058],[15.125,41.76],[15.125,41.462],[15.125,41.164],[15.125,40.866],[15.032,40.634],[14.851,40.464],[14.648,40.312],[14.388,40.228],[14.121,40.159],[13.92,40.007],[13.779,39.815],[13.66,39.615],[13.549,39.412],[13.437,39.209],[13.32,39.008],[13.194,38.81],[13.068,38.612],[12.956,38.41],[12.881,38.197],[12.834,37.979],[12.787,37.761],[12.72,37.546],[12.621,37.34],[12.484,37.147]]}},{"type":"Feature","properties":{"seg":6,"kind":"warm","km":571},"geometry":{"type":"LineString","coordinates":[[14.378,57.747],[13.969,57.802],[13.59,57.901],[13.221,58.01],[12.857,58.124],[12.505,58.248],[12.176,58.387],[11.859,58.534],[11.52,58.667],[11.131,58.754],[10.713,58.784],[10.291,58.764],[9.87,58.739],[9.447,58.723],[9.026,58.699],[8.61,58.656],[8.195,58.612],[7.773,58.596],[7.375,58.665],[7.821,58.44],[8.268,58.214],[8.714,57.988],[8.938,57.875]]}},{"type":"Feature","properties":{"type":"L","hPa":1012.5},"geometry":{"type":"Point","coordinates":[11.875,33.125]}},{"type":"Feature","properties":{"type":"L","hPa":1017.2},"geometry":{"type":"Point","coordinates":[-6.375,34.75]}},{"type":"Feature","properties":{"type":"L","hPa":1014.3},"geometry":{"type":"Point","coordinates":[35.438,34.875]}},{"type":"Feature","properties":{"type":"L","hPa":1013.1},"geometry":{"type":"Point","coordinates":[7.875,40.5]}},{"type":"Feature","properties":{"type":"L","hPa":1014.5},"geometry":{"type":"Point","coordinates":[15.125,43.25]}},{"type":"Feature","properties":{"type":"L","hPa":993.0},"geometry":{"type":"Point","coordinates":[8.938,57.875]}},{"type":"Feature","properties":{"type":"L","hPa":991.1},"geometry":{"type":"Point","coordinates":[4.438,60.625]}},{"type":"Feature","properties":{"type":"H","hPa":1025.7},"geometry":{"type":"Point","coordinates":[-3.438,42.812]}},{"type":"Feature","properties":{"type":"H","hPa":1025.7},"geometry":{"type":"Point","coordinates":[-11.5,43.188]}},{"type":"Feature","properties":{"type":"H","hPa":1002.5},"geometry":{"type":"Point","coordinates":[14.062,61.5]}}]}