{"type":"FeatureCollection","properties":{"valid_time":"2026-10-08T12:00:00+00:00","run":"2026-10-08T06:00:00+00:00","lead_hours":6,"source":"ICON-EU theta_e850, Renard-Clarke (icon_front_very_far_snapshot.py)"},"features":[{"type":"Feature","properties":{"seg":0,"kind":"cold","km":1023},"geometry":{"type":"LineString","coordinates":[[12.906,55.406],[12.948,55.189],[12.97,54.97],[12.98,54.752],[12.985,54.533],[12.992,54.314],[12.999,54.095],[13.004,53.876],[13.002,53.657],[12.994,53.438],[12.98,53.22],[12.96,53.001],[12.929,52.783],[12.884,52.566],[12.82,52.351],[12.735,52.139],[12.633,51.93],[12.517,51.723],[12.387,51.521],[12.243,51.322],[12.087,51.126],[11.92,50.935],[11.741,50.748],[11.544,50.568],[11.332,50.395],[11.114,50.225],[10.901,50.052],[10.703,49.873],[10.52,49.688],[10.347,49.498],[10.181,49.306],[10.02,49.112],[9.864,48.917],[9.707,48.722],[9.547,48.528],[9.39,48.333],[9.243,48.135],[9.096,47.937],[8.93,47.745],[8.72,47.572],[8.465,47.424],[8.201,47.283],[7.963,47.125]]}},{"type":"Feature","properties":{"seg":1,"kind":"cold","km":811},"geometry":{"type":"LineString","coordinates":[[8.411,40.026],[8.2,39.881],[7.984,39.741],[7.768,39.602],[7.554,39.46],[7.343,39.315],[7.132,39.17],[6.92,39.026],[6.703,38.887],[6.468,38.768],[6.21,38.684],[5.947,38.61],[5.691,38.521],[5.446,38.414],[5.217,38.288],[5.014,38.137],[4.84,37.964],[4.682,37.782],[4.525,37.6],[4.35,37.428],[4.149,37.275],[3.925,37.143],[3.691,37.022],[3.455,36.904],[3.22,36.784],[2.984,36.667],[2.745,36.552],[2.503,36.442],[2.257,36.336],[2.01,36.233],[1.76,36.134],[1.509,36.038],[1.256,35.943],[1.0,35.855]]}},{"type":"Feature","properties":{"seg":2,"kind":"cold","km":568},"geometry":{"type":"LineString","coordinates":[[27.05,54.8],[27.223,54.606],[27.369,54.404],[27.493,54.196],[27.596,53.984],[27.683,53.769],[27.764,53.553],[27.854,53.338],[27.969,53.129],[28.118,52.927],[28.279,52.73],[28.428,52.528],[28.553,52.321],[28.65,52.108],[28.718,51.89],[28.757,51.669],[28.773,51.448],[28.767,51.226],[28.741,51.005],[28.704,50.784],[28.663,50.564],[28.632,50.343],[28.619,50.121],[28.625,49.899]]}},{"type":"Feature","properties":{"seg":3,"kind":"warm","km":537},"geometry":{"type":"LineString","coordinates":[[22.388,44.125],[22.339,44.342],[22.273,44.556],[22.162,44.762],[22.009,44.955],[21.875,45.154],[21.772,45.362],[21.679,45.572],[21.585,45.782],[21.488,45.991],[21.398,46.202],[21.32,46.415],[21.251,46.629],[21.18,46.843],[21.1,47.055],[21.007,47.266],[20.906,47.474],[20.813,47.684],[20.731,47.896],[20.645,48.108],[20.543,48.315],[20.445,48.524],[20.471,48.74]]}},{"type":"Feature","properties":{"seg":4,"kind":"stat","km":633},"geometry":{"type":"LineString","coordinates":[[-3.065,35.623],[-3.31,35.707],[-3.578,35.676],[-3.847,35.646],[-4.118,35.641],[-4.388,35.617],[-4.653,35.566],[-4.912,35.498],[-5.164,35.415],[-5.402,35.308],[-5.613,35.168],[-5.798,35.004],[-5.968,34.83],[-6.127,34.649],[-6.276,34.463],[-6.411,34.269],[-6.533,34.07],[-6.655,33.87],[-6.789,33.676],[-6.937,33.489],[-7.094,33.307],[-7.25,33.124],[-7.208,32.791],[-7.167,32.458],[-7.125,32.125]]}},{"type":"Feature","properties":{"seg":5,"kind":"warm","km":508},"geometry":{"type":"LineString","coordinates":[[31.092,56.188],[30.815,56.353],[30.464,56.466],[30.059,56.502],[29.77,56.659],[29.52,56.837],[29.261,57.011],[28.979,57.174],[28.674,57.325],[28.362,57.471],[28.057,57.622],[27.758,57.776],[27.448,57.924],[27.108,58.051],[26.73,58.14],[26.32,58.165],[25.905,58.157],[25.492,58.169],[25.083,58.205],[24.68,58.257],[24.294,58.338],[24.111,58.389]]}},{"type":"Feature","properties":{"seg":6,"kind":"stat","km":485},"geometry":{"type":"LineString","coordinates":[[35.174,37.0],[35.24,36.787],[35.338,36.578],[35.415,36.364],[35.467,36.144],[35.494,35.922],[35.497,35.698],[35.478,35.475],[35.435,35.254],[35.369,35.037],[35.285,34.825],[35.184,34.617],[35.071,34.414],[34.945,34.215],[34.809,34.021],[34.667,33.831],[34.524,33.64],[34.389,33.446],[34.266,33.246],[34.157,33.041],[34.106,32.938]]}},{"type":"Feature","properties":{"seg":7,"kind":"stat","km":458},"geometry":{"type":"LineString","coordinates":[[21.652,52.223],[21.322,52.182],[21.003,52.096],[20.704,51.984],[20.459,51.827],[20.248,51.651],[20.057,51.465],[19.887,51.272],[19.733,51.072],[19.586,50.871],[19.432,50.672],[19.26,50.479],[19.07,50.293],[18.863,50.115],[18.647,49.941],[18.435,49.765],[18.214,49.594],[17.97,49.436],[17.726,49.278],[17.61,49.195]]}},{"type":"Feature","properties":{"seg":8,"kind":"cold","km":441},"geometry":{"type":"LineString","coordinates":[[10.858,54.75],[10.837,54.524],[10.836,54.297],[10.858,54.071],[10.889,53.845],[10.912,53.619],[10.914,53.393],[10.886,53.167],[10.828,52.943],[10.743,52.723],[10.639,52.505],[10.524,52.289],[10.402,52.075],[10.277,51.862],[10.153,51.648],[10.034,51.433],[9.928,51.216],[9.841,50.996],[9.812,50.884]]}},{"type":"Feature","properties":{"seg":9,"kind":"warm","km":430},"geometry":{"type":"LineString","coordinates":[[41.625,51.044],[41.292,50.958],[40.968,50.858],[40.638,50.767],[40.299,50.692],[39.95,50.633],[39.594,50.6],[39.235,50.605],[38.884,50.655],[38.548,50.738],[38.219,50.83],[37.884,50.913],[37.544,50.989],[37.207,51.069],[36.875,51.157],[36.548,51.253],[36.23,51.359],[35.949,51.5]]}},{"type":"Feature","properties":{"seg":10,"kind":"warm","km":485},"geometry":{"type":"LineString","coordinates":[[-9.63,54.423],[-9.651,54.643],[-9.7,54.862],[-9.754,55.08],[-9.8,55.299],[-9.838,55.518],[-9.874,55.738],[-9.915,55.957],[-9.965,56.175],[-10.019,56.393],[-10.072,56.612],[-10.119,56.831],[-10.167,57.049],[-10.223,57.267],[-10.29,57.484],[-10.367,57.7],[-10.448,57.916],[-10.526,58.132],[-11.031,58.214],[-11.5,58.188]]}},{"type":"Feature","properties":{"seg":11,"kind":"warm","km":715},"geometry":{"type":"LineString","coordinates":[[20.318,54.812],[19.959,54.716],[19.573,54.658],[19.185,54.681],[18.917,54.848],[18.628,55.003],[18.268,55.1],[17.901,55.188],[17.532,55.274],[17.147,55.333],[16.775,55.414],[16.423,55.52],[16.051,55.601],[15.661,55.65],[15.264,55.668],[14.865,55.664],[14.475,55.627],[14.239,55.702],[14.086,55.987],[13.933,56.272],[13.78,56.557],[13.627,56.842],[13.474,57.127],[13.32,57.412],[13.167,57.697],[13.014,57.982],[12.938,58.125]]}},{"type":"Feature","properties":{"type":"L","hPa":1016.4},"geometry":{"type":"Point","coordinates":[-7.125,32.125]}},{"type":"Feature","properties":{"type":"L","hPa":1020.6},"geometry":{"type":"Point","coordinates":[41.562,42.125]}},{"type":"Feature","properties":{"type":"L","hPa":997.5},"geometry":{"type":"Point","coordinates":[12.938,58.125]}},{"type":"Feature","properties":{"type":"L","hPa":1007.1},"geometry":{"type":"Point","coordinates":[-11.5,58.188]}},{"type":"Feature","properties":{"type":"H","hPa":1021.7},"geometry":{"type":"Point","coordinates":[22.0,34.125]}},{"type":"Feature","properties":{"type":"H","hPa":1031.8},"geometry":{"type":"Point","coordinates":[-11.5,45.688]}}]}