{"type":"FeatureCollection","properties":{"valid_time":"2026-10-10T06:00:00+00:00","run":"2026-10-10T00:00:00+00:00","lead_hours":6,"source":"ICON-EU theta_e850, Renard-Clarke (icon_front_very_far_snapshot.py)"},"features":[{"type":"Feature","properties":{"seg":0,"kind":"cold","km":1054},"geometry":{"type":"LineString","coordinates":[[44.312,55.772],[44.058,55.622],[43.721,55.555],[43.495,55.386],[43.314,55.195],[43.142,55.002],[42.962,54.811],[42.769,54.625],[42.564,54.445],[42.35,54.268],[42.129,54.094],[41.906,53.921],[41.688,53.746],[41.479,53.567],[41.282,53.383],[41.096,53.195],[40.918,53.003],[40.745,52.81],[40.576,52.616],[40.403,52.423],[40.208,52.238],[39.964,52.077],[39.68,51.942],[39.411,51.796],[39.172,51.632],[38.95,51.459],[38.738,51.282],[38.522,51.105],[38.289,50.938],[38.029,50.786],[37.743,50.653],[37.439,50.536],[37.13,50.423],[36.835,50.299],[36.554,50.161],[36.278,50.021],[35.987,49.892],[35.675,49.783],[35.36,49.677],[35.062,49.554],[34.782,49.417],[34.508,49.275],[34.229,49.135],[33.946,49.0]]}},{"type":"Feature","properties":{"seg":1,"kind":"cold","km":1025},"geometry":{"type":"LineString","coordinates":[[15.443,55.25],[15.377,55.038],[15.274,54.832],[15.142,54.632],[14.992,54.439],[14.835,54.247],[14.679,54.056],[14.531,53.861],[14.391,53.664],[14.246,53.469],[14.078,53.282],[13.857,53.12],[13.591,52.988],[13.356,52.835],[13.163,52.658],[12.986,52.474],[12.799,52.295],[12.591,52.125],[12.361,51.968],[12.111,51.824],[11.84,51.698],[11.543,51.598],[11.229,51.524],[10.914,51.452],[10.616,51.355],[10.362,51.214],[10.146,51.049],[9.935,50.881],[9.71,50.721],[9.471,50.569],[9.261,50.401],[9.137,50.201],[9.051,49.991],[8.924,49.791],[8.761,49.602],[8.589,49.416],[8.4,49.237],[8.172,49.079],[7.898,48.956],[7.605,48.851],[7.3,48.763],[6.979,48.703],[6.647,48.681],[6.481,48.689]]}},{"type":"Feature","properties":{"seg":2,"kind":"cold","km":953},"geometry":{"type":"LineString","coordinates":[[3.892,48.384],[3.626,48.254],[3.34,48.141],[3.047,48.037],[2.758,47.927],[2.478,47.809],[2.198,47.69],[1.908,47.583],[1.605,47.491],[1.303,47.399],[1.007,47.298],[0.712,47.196],[0.412,47.1],[0.105,47.014],[-0.208,46.938],[-0.52,46.86],[-0.824,46.77],[-1.127,46.678],[-1.437,46.597],[-1.754,46.528],[-2.075,46.469],[-2.398,46.414],[-2.722,46.358],[-3.044,46.301],[-3.367,46.246],[-3.692,46.193],[-4.02,46.154],[-4.35,46.12],[-4.66,46.04],[-4.948,45.93],[-5.238,45.822],[-5.54,45.729],[-5.853,45.654],[-6.176,45.597],[-6.505,45.56],[-6.838,45.541],[-7.172,45.535],[-7.507,45.533],[-7.841,45.527],[-8.174,45.512],[-8.34,45.5]]}},{"type":"Feature","properties":{"seg":3,"kind":"stat","km":790},"geometry":{"type":"LineString","coordinates":[[25.088,35.633],[25.078,35.851],[25.087,36.07],[25.122,36.286],[25.182,36.499],[25.265,36.707],[25.367,36.909],[25.482,37.107],[25.604,37.302],[25.727,37.497],[25.85,37.691],[25.972,37.887],[26.09,38.084],[26.201,38.283],[26.306,38.484],[26.402,38.688],[26.495,38.894],[26.588,39.099],[26.683,39.304],[26.78,39.508],[26.876,39.712],[26.967,39.918],[27.059,40.123],[27.175,40.321],[27.344,40.49],[27.558,40.625],[27.791,40.737],[28.037,40.829],[28.29,40.91],[28.539,40.998],[28.777,41.102],[29.011,41.214],[29.251,41.317],[29.375,41.361]]}},{"type":"Feature","properties":{"seg":4,"kind":"warm","km":477},"geometry":{"type":"LineString","coordinates":[[20.716,49.188],[21.023,49.301],[21.305,49.437],[21.543,49.605],[21.784,49.77],[22.068,49.904],[22.411,49.955],[22.744,50.019],[23.006,50.171],[23.248,50.337],[23.48,50.508],[23.712,50.679],[23.955,50.843],[24.218,50.995],[24.486,51.143],[24.748,51.296],[25.02,51.44],[25.335,51.542],[25.683,51.584],[26.011,51.511]]}},{"type":"Feature","properties":{"seg":5,"kind":"cold","km":415},"geometry":{"type":"LineString","coordinates":[[39.188,45.685],[39.134,45.463],[39.114,45.237],[39.108,45.011],[39.092,44.786],[39.064,44.561],[39.029,44.336],[39.001,44.111],[38.986,43.885],[38.992,43.659],[39.024,43.435],[39.088,43.214],[39.18,42.998],[39.29,42.786],[39.402,42.575],[39.504,42.361],[39.59,42.144],[39.625,42.034]]}},{"type":"Feature","properties":{"seg":6,"kind":"warm","km":525},"geometry":{"type":"LineString","coordinates":[[18.438,57.91],[18.046,57.997],[17.643,58.069],[17.232,58.126],[16.823,58.187],[16.429,58.271],[16.04,58.361],[15.642,58.441],[15.238,58.51],[14.836,58.584],[14.459,58.686],[14.1,58.806],[13.721,58.906],[13.314,58.971],[12.895,59.008],[12.471,59.029],[12.047,59.052],[11.687,58.911],[11.387,58.597],[11.087,58.282],[10.938,58.125]]}},{"type":"Feature","properties":{"seg":7,"kind":"warm","km":390},"geometry":{"type":"LineString","coordinates":[[36.0,47.284],[36.223,47.455],[36.44,47.63],[36.657,47.804],[36.883,47.973],[37.119,48.136],[37.351,48.302],[37.567,48.477],[37.769,48.659],[37.967,48.843],[38.175,49.022],[38.407,49.187],[38.663,49.336],[38.932,49.475],[39.202,49.614],[39.479,49.746],[39.625,49.804]]}},{"type":"Feature","properties":{"seg":8,"kind":"warm","km":389},"geometry":{"type":"LineString","coordinates":[[33.0,42.343],[33.091,42.559],[33.188,42.773],[33.3,42.984],[33.405,43.196],[33.487,43.414],[33.548,43.635],[33.601,43.857],[33.652,44.079],[33.7,44.302],[33.752,44.524],[33.819,44.744],[33.902,44.962],[34.002,45.175],[34.12,45.384],[34.255,45.587],[34.327,45.688]]}},{"type":"Feature","properties":{"seg":9,"kind":"cold","km":502},"geometry":{"type":"LineString","coordinates":[[12.5,33.25],[12.388,33.553],[12.275,33.855],[12.163,34.158],[12.167,34.407],[12.292,34.601],[12.442,34.782],[12.633,34.934],[12.853,35.058],[13.081,35.173],[13.309,35.287],[13.535,35.404],[13.744,35.54],[13.905,35.714],[14.047,35.9],[14.196,36.082],[14.345,36.264],[14.517,36.432],[14.7,36.591],[14.856,36.769]]}},{"type":"Feature","properties":{"seg":10,"kind":"stat","km":377},"geometry":{"type":"LineString","coordinates":[[19.829,32.938],[20.045,33.069],[20.308,33.119],[20.579,33.135],[20.851,33.148],[21.122,33.14],[21.387,33.092],[21.655,33.063],[21.912,33.131],[22.155,33.228],[22.407,33.309],[22.668,33.371],[22.93,33.428],[23.192,33.488],[23.454,33.545],[23.717,33.601],[23.847,33.633]]}},{"type":"Feature","properties":{"seg":11,"kind":"cold","km":358},"geometry":{"type":"LineString","coordinates":[[43.148,36.852],[42.934,36.701],[42.713,36.557],[42.475,36.432],[42.223,36.326],[41.967,36.227],[41.711,36.128],[41.454,36.03],[41.195,35.937],[40.932,35.851],[40.667,35.767],[40.403,35.683],[40.14,35.595],[39.881,35.502],[39.625,35.403]]}},{"type":"Feature","properties":{"type":"L","hPa":1011.8},"geometry":{"type":"Point","coordinates":[12.5,33.25]}},{"type":"Feature","properties":{"type":"L","hPa":1014.3},"geometry":{"type":"Point","coordinates":[35.062,34.25]}},{"type":"Feature","properties":{"type":"L","hPa":1016.4},"geometry":{"type":"Point","coordinates":[-6.875,34.562]}},{"type":"Feature","properties":{"type":"L","hPa":1011.7},"geometry":{"type":"Point","coordinates":[10.438,40.062]}},{"type":"Feature","properties":{"type":"L","hPa":1020.5},"geometry":{"type":"Point","coordinates":[45.25,41.625]}},{"type":"Feature","properties":{"type":"L","hPa":991.8},"geometry":{"type":"Point","coordinates":[10.938,58.125]}},{"type":"Feature","properties":{"type":"L","hPa":990.9},"geometry":{"type":"Point","coordinates":[3.188,61.5]}},{"type":"Feature","properties":{"type":"L","hPa":985.8},"geometry":{"type":"Point","coordinates":[32.062,61.5]}}]}